Name,Address,City,Postcode,Latitude,Longitude,geometry
Shoppers Drug Mart,265 Port Union Rd,Toronto,M1C 2L3,43.78863,-79.1395,POINT (-79.1395 43.78863)
Pharmacy Zen,6-4234 Lawrence Ave E,Toronto,M1E 2S5,43.769575,-79.180966,POINT (-79.180966 43.769575)
Klh Pharmacy,4113-A Lawrence Avenue E,Toronto,M1E 2S2,43.765155,-79.200732,POINT (-79.20073199999999 43.765155)
Peoples Choice Remedy'S Rx,1145 Morningside Av. Unit #16,Toronto,M1B 0A7,43.808538,-79.202533,POINT (-79.202533 43.808538)
Metro Pharmacy,3221 Eglinton Avenue E.,Toronto,M1J 2H7,43.742831,-79.220546,POINT (-79.220546 43.742831)
Sheppard Community Pharmacy,#102-5818 Sheppard Ave East,Toronto,M1B 4Z6,43.79614,-79.22753,POINT (-79.22753 43.79614)
Ash Medical Pharmacy,2900 Eglinton Ave East,Toronto,M1J 2E4,43.739977,-79.23326,POINT (-79.23326 43.739977)
Cure Pharmacy,108-1585 Markham Rd,Toronto,M1B 2W1,43.788362,-79.23656,POINT (-79.23656 43.788362)
Danny'S Drugstore Inc,2284 Kingston Road,Toronto,M1N 1T9,43.70629,-79.251154,POINT (-79.251154 43.70629)
Medicare Pharmacy,B109-3341 Markham Rd,Toronto,M1X 0A5,43.835359,-79.251232,POINT (-79.251232 43.835359)
Warden Woods Pharmacy,99 Firvalley Court,Toronto,M1L 1P2,43.70335,-79.277909,POINT (-79.27790899999999 43.70335)
Pharmakeio Guardian,5-1260 Kennedy Road,Toronto,M1P 2L3,43.760539,-79.28,POINT (-79.28 43.760539)
Metro Pharmacy,16 William Kitchen Blvd,Toronto,M1P 5B7,43.771079,-79.28176,POINT (-79.28175999999998 43.771079)
Progress Medical Pharmacy,1-1939 Kennedy Rd,Toronto,M1P 2L9,43.770307,-79.28265,POINT (-79.28265 43.770307)
Care And Health Pharmacy,2928 Danforth Ave,Toronto,M4C 1M1,43.69236219,-79.2833792,POINT (-79.2833792 43.69236219)
Genix Pharmacy,3094 Danforth Avenue,Toronto,M1L 1B1,43.692118,-79.284461,POINT (-79.28446099999999 43.692118)
Pharmasave,1021 Kingston Road,Toronto,M4E 1T5,43.68063,-79.28476,POINT (-79.28475999999998 43.68063)
Davenport Pharmacy,219 Davenport Rd. Unit 115,Toronto,M5R 1J3,43.696991,-79.285387,POINT (-79.285387 43.696991)
Geriat Rx Pharmacy,53 The Links Road Suite 200,Toronto,M2P 1T7,43.698697,-79.286093,POINT (-79.28609300000002 43.698697)
Westown Pharmacy,235 Dixon Road,Toronto,M9P 2M5,43.699473,-79.286425,POINT (-79.28642499999999 43.699473)
Main Drug Mart,521 Victoria Park Ave,Toronto,M4C 5H1,43.690074,-79.287622,POINT (-79.287622 43.690074)
Drugstore Pharmacy,50 Musgrave St,Toronto,M4E 3W2,43.68836,-79.28822,POINT (-79.28822 43.68836)
Vitality Compounding Pharmacy,918 Kingston Road,Toronto,M4E 1S5,43.680844,-79.289102,POINT (-79.289102 43.680844)
Beech Medical Pharmacy,855 Kingston Road,Toronto,M4E 1R9,43.680112,-79.290892,POINT (-79.290892 43.680112)
Main Drug Mart,5 The Market Place,Toronto,M4C 5M2,43.69601,-79.29212,POINT (-79.29212 43.69601)
Metro Pharmacy,3003 Danforth Avenue,Toronto,M4C 1M9,43.690307,-79.293458,POINT (-79.293458 43.690307)
Shoppers Drug Mart,3003 Danforth Avenue,Toronto,M4C 1M9,43.690307,-79.293458,POINT (-79.293458 43.690307)
Pharma-Cita,4810 Sheppard Ave East Unit 224,Toronto,M1S 4N6,43.78231,-79.29363,POINT (-79.29363000000002 43.78231)
Rexall,3607 Sheppard Ave E,Toronto,M1T 3K8,43.782003,-79.293909,POINT (-79.293909 43.782003)
Hooper'S Pharmacy,2124 Queen Street East,Toronto,M4E 1E3,43.671543,-79.293932,POINT (-79.293932 43.671543)
Medimost Pharmacy Inc,2883 Danforth Avenue,Toronto,M4C 1M3,43.689662,-79.294551,POINT (-79.294551 43.689662)
Lawrence-Victoria Pk Pharmacy,1723 Lawrence Ave E.,Toronto,M1R 2X7,43.745115,-79.295902,POINT (-79.295902 43.74511500000001)
Dalecliff Medical Pharmacy,2-209 Ellesmere Rd,Toronto,M1R 4E2,43.762347,-79.295984,POINT (-79.29598399999998 43.762347)
Jane Park Plaza Pharmacy,873 Jane St.,Toronto,M6N 4C4,43.72192,-79.29603,POINT (-79.29603 43.72192)
Glen George Ida,1118 Victoria Park Ave,Toronto,M4B 2K3,43.707937,-79.296247,POINT (-79.29624699999999 43.707937)
Westside Pharmacy,1896 Eglinton Ave West,Toronto,M6E 2J6,43.72645,-79.29698,POINT (-79.29698 43.72645)
Main Drug Mart,2772 Danforth Avenue,Toronto,M4C 1L7,43.689551,-79.296986,POINT (-79.296986 43.689551)
Dawes Drug Mart,424 Dawes Road,Toronto,M4B 2E9,43.701694,-79.297262,POINT (-79.297262 43.701694)
Victoria Park Pharmacy,1314 Victoria Park Avenue,Toronto,M4B 2L4,43.713897,-79.298416,POINT (-79.298416 43.713897)
Crescent St Pharmacy,2688 Danforth Ave,Toronto,M4C 1L7,43.689049,-79.298836,POINT (-79.29883599999999 43.689049)
Shoppers Drug Mart,70 Eglinton Square Blvd,Toronto,M1L 2K1,43.72384,-79.29952,POINT (-79.29952 43.72384)
Shoppers Drug Mart,2000 Queen Street East,Toronto,M4L 1J2,43.670176,-79.300186,POINT (-79.300186 43.670176)
Danforth Main Pharmacy,2575 Danforth Ave E,Toronto,M4C 1L5,43.688201,-79.30032,POINT (-79.30032 43.688201)
Main Drug Mart,2558 Danforth Ave,Toronto,M4C 1L3,43.688471,-79.30177,POINT (-79.30176999999998 43.688471)
Peoples Drug Mart,294 Main Street,Toronto,M4C 4X5,43.68782,-79.30198,POINT (-79.30198 43.68782)
Main Drug Mart,658 Danforth Ave Unit 102,Toronto,M4J 5B9,43.68778,-79.30205,POINT (-79.30204999999999 43.68778)
Stanbury'S Pharmacy,1032 Pape Ave,Toronto,M4K 3W2,43.73892,-79.303274,POINT (-79.303274 43.73892)
Shoppers Drug Mart,2494 Danforth Avenue,Toronto,M4C 1K9,43.688038,-79.303724,POINT (-79.303724 43.688038)
Main Drug Mart,7-1646 Victoria Park Avenue,Toronto,M1R 1P7,43.730376,-79.304987,POINT (-79.304987 43.730376)
Danforth Neighbourhood Pharmacy Care,2416 Danforth Ave,Toronto,M4C 1K9,43.687752,-79.305023,POINT (-79.30502299999998 43.687752)
Theodore Pharmacy,1450 O'Connor Drive,Toronto,M4B 2T8,43.713662,-79.3068,POINT (-79.3068 43.713662)
Albion Finch Pharmacy,"6230 Finch Ave West, Unit A102",Toronto,M9V 0A1,43.73682,-79.30764,POINT (-79.30764000000001 43.73682)
Warden Medical Pharmacy,3321 Sheppard Ave East,Toronto,M1T 3K2,43.77855,-79.30867,POINT (-79.30866999999998 43.77855)
Main Drug Mart,6-943 O'Connor Drive,Toronto,M4B 2S7,43.707974,-79.310629,POINT (-79.31062900000001 43.707974)
New Era Pharmacy,2163 Danforth Avenue,Toronto,M4C 1K2,43.685951,-79.310762,POINT (-79.310762 43.685951)
Shoppers Simply Pharmacy,1525 Albion Road,Toronto,M9V 5G5,43.761242,-79.310806,POINT (-79.310806 43.761242)
Golden Gate Pharmacy,939 O'Connor Drive,Toronto,M4B 2S7,43.707704,-79.311181,POINT (-79.311181 43.707704)
Healthshield Pharmacy,939 O'Connor Drive,Toronto,M4B 2S7,43.707704,-79.311181,POINT (-79.311181 43.707704)
Woods Drug Store,130 Kingston Rd,Toronto,M4L 1S7,43.67051,-79.31135,POINT (-79.31135 43.67051)
Main Drug Mart,2091 Danforth Avenue,Toronto,M4C 1K1,43.685556,-79.312324,POINT (-79.312324 43.685556)
Trillium Pharmacy,3443 Finch Ave East,Toronto,M1W 2S1,43.797165,-79.312578,POINT (-79.312578 43.797165)
Zara'S Pharmacy,"1908 Gerrard Street East, Unit B ",Toronto,M4L 2C1,43.67958,-79.31267,POINT (-79.31267 43.67958)
Newe Towne Medical Pharmacy,102-3420 Finch Ave E,Toronto,M1W 2R6,43.79738,-79.31278,POINT (-79.31278 43.79738)
Shoppers Drug Mart,812 O'Connor Drive,Toronto,M4B 2S9,43.705965,-79.31284,POINT (-79.31284000000002 43.705965)
Drugstore Pharmacy,985 Woodbine Avenue,Toronto,M4V 4B8,43.68686,-79.31302,POINT (-79.31301999999999 43.68686)
Phil-Way Pharmacy,A3-1700 Eglinton Ave East,Toronto,M4A 2X4,43.72604,-79.31314,POINT (-79.31314 43.72604000000001)
Drugstore Pharmacy,1450 Lawrence Ave E,Toronto,M4A 2S8,43.741791,-79.313349,POINT (-79.313349 43.741791)
Danforth Drug Mart,1871 Danforth Ave,Toronto,M4C 1J3,43.684499,-79.317274,POINT (-79.317274 43.684499)
Ashdale Pharmacy,1568 Queen Street E,Toronto,M4L 1E9,43.666089,-79.318813,POINT (-79.31881300000001 43.666089)
Gerrard Street Pharmacy,247 Coxwell Ave,Toronto,M4L 3B4,43.672612,-79.318979,POINT (-79.318979 43.672612)
Main Drug Mart,3245 Finch Ave. East,Toronto,M1W 4C1,43.795845,-79.319301,POINT (-79.319301 43.795845)
Prohealth Pharmacy,343 Coxwell Ave Unit #3,Toronto,M4L 3B5,43.675207,-79.319929,POINT (-79.319929 43.675207)
L. & A. Pharmacy,1485 Gerrard St E,Toronto,M4L 2A4,43.672383,-79.320007,POINT (-79.32000699999998 43.672383)
Islington Ida Pharmacy,2428 Islington Ave,Toronto,M9W 3X8,43.781669,-79.320153,POINT (-79.320153 43.781669)
Shoppers Drug Mart,1630 Danforth Avenue,Toronto,M4C 1H6,43.683966,-79.322269,POINT (-79.32226899999998 43.683966)
Icare Discount Pharmacy,6-1577 Danforth Ave,Toronto,M4C 1H7,43.68318,-79.32304,POINT (-79.32304000000001 43.68318)
Coxwell Pharmacy,688 Coxwell Avenue,Toronto,M4C 3B7,43.682634,-79.323698,POINT (-79.32369799999999 43.682634)
Shoppers Drug Mart,A-1285 York Mills Road,Toronto,M3A 1Z5,43.760731,-79.324954,POINT (-79.32495400000001 43.760731)
Rumball Drug Mart,553 Sammon Ave,Toronto,M4C 2E1,43.688643,-79.325594,POINT (-79.325594 43.688643)
Heritage Pharmacy,1488 Danforth Avenue,Toronto,M4J 1N4,43.683129,-79.325735,POINT (-79.32573499999999 43.683129)
Main Drug Mart,1473 Danforth Ave.,Toronto,M4J 1N5,43.682602,-79.325954,POINT (-79.32595400000002 43.682602)
Finch-Leslie Pharmacy,149C Ravel Road,Toronto,M2H 1T1,43.794325,-79.325958,POINT (-79.325958 43.794325)
Pharmasave,"150 Wynford Drive, Unit 115 ",Toronto,M3C 1K6,43.727218,-79.326641,POINT (-79.32664100000002 43.727218)
Greenwood Pharmacy,1285 Gerrard St East,Toronto,M4L 1Y5,43.670753,-79.328201,POINT (-79.32820100000001 43.67075300000001)
Shoppers Drug Mart,2794 Victoria Park Ave,Toronto,M2J 4A8,43.78748,-79.32875,POINT (-79.32875 43.78748)
Drug Store Pharmacy,17 Leslie Road,Toronto,M4M 3H9,43.660908,-79.328999,POINT (-79.328999 43.660908)
Allcures Pharmacy,31 St. Dennis Drive. Suite #1,Toronto,M3C 1G7,43.718572,-79.329585,POINT (-79.32958499999999 43.718572)
Shoppers Drug Mart,1015 Lakeshore Boulevard East,Toronto,M4M 1B4,43.657983,-79.329916,POINT (-79.329916 43.657983)
New Day Danforth Pharmacy,1288 Danforth Avenue,Toronto,M4J 1M6,43.682185,-79.33024,POINT (-79.33024 43.682185)
Leslie Grove Pharmacy,1176 Queen Street E.,Toronto,M4M 1L4,43.66303,-79.33212,POINT (-79.33211999999997 43.66303)
Terrace Square Pharmacy,3424 Weston Road,Toronto,M9M 2W1,43.80737,-79.332211,POINT (-79.332211 43.80737)
Danforth Central Pharmacy,1188 Danforth Avenue,Toronto,M4J 1M3,43.681593,-79.332551,POINT (-79.332551 43.681593)
Danforth Medical Pharmacy,1156 Danforth Ave,Toronto,M4J 1M3,43.681495,-79.333376,POINT (-79.333376 43.681495)
Shoppers Drug Mart,"747 Don Mills Rd, Unit 12 ",Toronto,M3C 1T2,43.712489,-79.335404,POINT (-79.335404 43.712489)
Drugs Basics Pharmacy,1068 Danforth Avenue,Toronto,M4J 1M2,43.681062,-79.335646,POINT (-79.335646 43.681062)
One Medical Pharmacy,102-20 Wynford Dr,Toronto,M3C 1J4,43.72397,-79.33633,POINT (-79.33633 43.72397)
Vina Pharmacy,1025 Gerrard St E,Toronto,M4M 1Z6,43.6687,-79.33717,POINT (-79.33717 43.6687)
Total Health Pharmacy,997 Gerrard St E,Toronto,M4M 1Z4,43.668487,-79.338046,POINT (-79.33804599999998 43.668487)
Loblaw Pharmacy,Loblaws Rcss Division 825 Don Mills Road,Toronto,M3C 1V4,43.720218,-79.338305,POINT (-79.33830500000001 43.720218)
Dom'S Pharmacy,3630 Victoria Park Ave.,Toronto,M2H 3B2,43.80714,-79.33875,POINT (-79.33875 43.80714)
Walmart Pharmacy,1000 Gerrard Street East,Toronto,M4M 3G6,43.6694187,-79.3392933,POINT (-79.33929329999999 43.6694187)
Shoppers Drug Mart,970 Queen St East,Toronto,M4M 1J8,43.66124,-79.34048,POINT (-79.34048 43.66124)
Welcome Guardian Pharmacy,837 Danforth Ave,Toronto,M4J 1L2,43.67948,-79.3406,POINT (-79.34059999999999 43.67948)
Health Drug Mart,105 Parkway Forest Dr,Toronto,M2J 1L8,43.774126,-79.341835,POINT (-79.341835 43.774126)
Blair Court Pharmacy,2364349 Ontario Inc 266 Donlands Ave,Toronto,M4J 5B1,43.68966,-79.34191,POINT (-79.34191 43.68966)
Shoppers Drug Mart,755 Danforth Avenue,Toronto,M4J 1L2,43.679202,-79.342267,POINT (-79.34226700000001 43.679202)
Hurst Guardian Pharmacy,419 Donlands Avenue,Toronto,M4J 3S2,43.694451,-79.342714,POINT (-79.342714 43.694451)
Drug Store Pharmacy,449 Carlaw Ave,Toronto,M4K 3H9,43.668303,-79.342753,POINT (-79.342753 43.668303)
Medi Choice Pharmacy,842 Gerrard St. E Unit 2,Toronto,M4M 1Y7,43.667815,-79.343307,POINT (-79.343307 43.667815)
Apollon Pharmacy,698 Danforth Avenue,Toronto,M4J 1L1,43.679409,-79.34384,POINT (-79.34384 43.679409)
Thornlea Pharmacy,"62 Overlea Blvd, Unit 4A ",Toronto,M4H 1C4,43.707,-79.34392,POINT (-79.34392 43.707)
Health Drug Mart,70 Forest Manor Rd,Toronto,M2J 0A9,43.774431,-79.344259,POINT (-79.34425899999999 43.774431)
Pape Drug Mart,751 Pape Ave,Toronto,M4K 3T1,43.680315,-79.345074,POINT (-79.345074 43.680315)
Shoppers Drug Mart,45 Overlea Blvd.,Toronto,M4H 1C3,43.70577,-79.34593,POINT (-79.34593000000002 43.70577)
Thorncliffe Pharmacy,106-65 Overlea Blvd,Toronto,M4H 1P1,43.70681,-79.34695,POINT (-79.34695000000001 43.70681)
Shoppers Drug Mart,1012 Pape Ave,Toronto,M4K 3V9,43.688139,-79.347981,POINT (-79.347981 43.688139)
Shoppers Drug Mart ,946 Lawrence Ave East,Toronto,M3C 1R1,43.73637,-79.34877,POINT (-79.34877 43.73637)
Pharmasave,1018 Pape Avenue,Toronto,M4K 3V9,43.689007,-79.349019,POINT (-79.349019 43.689007)
Mobarak Guardian Pharmacy,28 Overlea Blvd,Toronto,M4H 1B6,43.70554,-79.35001,POINT (-79.35001 43.70554)
Main Drug Mart,25 Overlea Blvd #4,Toronto,M4H 1P9,43.704954,-79.350046,POINT (-79.35004599999998 43.704954)
Broadon Pharmacy,607 Gerrard Street E.,Toronto,M4M 1Y2,43.66595,-79.35119,POINT (-79.35119 43.66595)
Jimmy'S Pharmacy,255 Broadview Ave.,Toronto,M4M 2G6,43.66292,-79.35134,POINT (-79.35134000000002 43.66292)
Icare Pharmacy Services,26-2 Thorncliffe Park Dr.,Toronto,M4H 1H2,43.7066,-79.35149,POINT (-79.35149 43.7066)
Main Drug Mart,1 Oak Street Unit 1 & 2,Toronto,M5A 0A1,43.664906,-79.351921,POINT (-79.35192099999998 43.664906)
Rexall,1 First Canadian Place Unit #Cn1038 ,Toronto,M5K 1C8,43.664481,-79.352034,POINT (-79.352034 43.664481)
Hellenic Pharmacy,374 Danforth Avenue,Toronto,M4K 1N8,43.677857,-79.352214,POINT (-79.352214 43.677857)
City Pharmacy,238 Danforth Avenue,Toronto,M4K 1N4,43.677148,-79.355409,POINT (-79.35540899999999 43.677148)
Shoppers Simply Pharmacy,101-235 Danforth Ave,Toronto,M4K 1N2,43.67662,-79.35541,POINT (-79.35540999999998 43.67662)
Medisystem,3-75 Lesmill Road,Toronto,M3B 2T8,43.759122,-79.356421,POINT (-79.356421 43.759122)
Healthshield Pharmacy,2-589 King Street East,Toronto,M5A 1M6,43.656428,-79.35647,POINT (-79.35647 43.65642800000001)
Shoppers Drug Mart,180 Danforth Ave,Toronto,M4K 1N1,43.6769,-79.35701,POINT (-79.35701 43.6769)
Pharmacare Drug Mart,959 Broadview Avenue,Toronto,M4K 2R5,43.682707,-79.357026,POINT (-79.357026 43.682707)
Don Valley Pharmacy,855 Broadview Ave,Toronto,M4K 2P9,43.6796,-79.35786,POINT (-79.35786 43.6796)
Broadview Medical Pharmacy,743 Broadview Ave,Toronto,M4K 2P6,43.67579,-79.358097,POINT (-79.358097 43.67579)
Rexall,807 Broadview Ave,Toronto,M4K 2P8,43.67793,-79.3582,POINT (-79.3582 43.67793)
Procare Ida Pharmacy,795 Broadview Ave,Toronto,M4K 2P8,43.67771,-79.35832,POINT (-79.35831999999998 43.67771)
Loblaw Pharmacy,Loblaws Supermarket 11 Redway Road,Toronto,M4H 1P6,43.70157,-79.3589,POINT (-79.35890000000001 43.70157)
Shoppers Drug Mart,1859 Leslie Street,Toronto,M3B 2M1,43.752432,-79.359254,POINT (-79.35925400000001 43.752432)
Front Street Pharmacy,431 King Street East,Toronto,M5A 1L5,43.65353,-79.361576,POINT (-79.361576 43.65353)
Morelli'S Pharmacy,93 Laird Drive,Toronto,M4G 3T7,43.706138,-79.361782,POINT (-79.36178199999998 43.706138)
Shoppers Drug Mart ,351 Queen St E,Toronto,M5A 1T2,43.655482,-79.364107,POINT (-79.36410699999998 43.655482)
Shoppers Drug Mart,4865 Leslie Street,Toronto,M2J 2K8,43.779288,-79.3647,POINT (-79.3647 43.779288)
Moss Park Pharmacy,325 Queen Street East,Toronto,M5A 1S9,43.655222,-79.365344,POINT (-79.36534399999999 43.655222)
Mp Specialty Pharmacy,290 Shuter Street-2Nd Floor,Toronto,M5A 1W7,43.65699,-79.36558,POINT (-79.36558000000002 43.65699)
Loblaw Pharmacy,200 Front Street East,Toronto,M5A 4T9,43.65053,-79.36616,POINT (-79.36615999999999 43.65053)
Rexall,63 Front Street East,Toronto,M5E 1B3,43.65053,-79.36616,POINT (-79.36615999999999 43.65053)
Ultra Pharmacy,411 Parliament Street,Toronto,M5A 3A1,43.66259,-79.36703,POINT (-79.36703 43.66259)
Parliament Pharmacy,402 Parliament St,Toronto,M5A 2Z7,43.661769,-79.367266,POINT (-79.367266 43.661769)
Cabbagetown Pharmacy,457 Parliament Street,Toronto,M5A 3A3,43.6637,-79.3674,POINT (-79.3674 43.6637)
Shoppers Drug Mart,467 Parliament St,Toronto,M5A 3A3,43.66403,-79.36754,POINT (-79.36754000000001 43.66403)
St. Lawrence Pharmacy,126 Lower Sherbourne St,Toronto,M5A 4J4,43.64937,-79.36764,POINT (-79.36764000000002 43.64937000000001)
Rexall,539 Parliament Street,Toronto,M4X 1P7,43.66604,-79.36847,POINT (-79.36847 43.66604)
Canes Community Pharmacy,135 Queens Plate Drive,Toronto,M9W 6V1,43.64366,-79.36916,POINT (-79.36915999999999 43.64366)
Pharma Plus,325 Moore Ave,Toronto,M4G 3T6,43.696969,-79.369508,POINT (-79.369508 43.696969)
Shoppers Drug Mart,5899 Leslie Street,Toronto,M2H 1J8,43.79836,-79.36961,POINT (-79.36960999999999 43.79836)
Dales Pharmacy,572 Parliament St,Toronto,M4X 1P8,43.66752,-79.36964,POINT (-79.36964 43.66752)
Drug Store Pharmacy,10 Lower Jarvis,Toronto,M5E 1Z9,43.64449,-79.36988,POINT (-79.36988000000002 43.64449000000001)
Main Drug Mart,140 The Esplanade,Toronto,M5A 4P5,43.64856,-79.37026,POINT (-79.37026 43.64856)
Shoppers Drug Mart,18 Lower Jarvis Street,Toronto,M5E 1N1,43.64751,-79.37089,POINT (-79.37089 43.64751)
Roya Boutique Pharmacy,75 Provost Drive,Toronto,M2K 0B7,43.770351,-79.371257,POINT (-79.371257 43.770351)
St. James Drug Mart,"240 Wellesley St E, #118 ",Toronto,M4X 1G5,43.66807,-79.37175,POINT (-79.37175000000001 43.66807)
Pharmacy.Ca,311 Sherbourne Street,Toronto,M5A 3Y1,43.66148,-79.37186,POINT (-79.37186 43.66148)
Jamestown Pharmacy,5- 225 Wellesley Street East,Toronto,M4X 1X8,43.667325,-79.372738,POINT (-79.372738 43.667325)
Lord'S Pharmacy,225 Wellesley St,Toronto,M4X 1X8,43.66733,-79.37274,POINT (-79.37274000000002 43.66733)
Metro Pharmacy,80 Front St East,Toronto,M5E 1T4,43.649498,-79.37295,POINT (-79.37295 43.649498)
Main Drug Mart,410 Sherbourne Street,Toronto,M4X 1K2,43.66484,-79.37347,POINT (-79.37347 43.66484000000001)
Woodgreen Pharmacy,69 Queen St E Unit #101,Toronto,M5C 1R8,43.653761,-79.373864,POINT (-79.373864 43.653761)
Greendale Drugs,152 Carlton St.,Toronto,M5A 2K1,43.6631,-79.37457,POINT (-79.37456999999998 43.6631)
Jarvis St. Apothecary,275 Jarvis St,Toronto,M5B 2P2,43.658254,-79.374723,POINT (-79.374723 43.658254)
Howard Pharmacy,25 Howard Street,Toronto,M4X 1J6,43.671107,-79.375062,POINT (-79.375062 43.671107)
Shoppers Drug Mart,1601 Bayview Avenue,Toronto,M4G 3B5,43.706355,-79.375086,POINT (-79.375086 43.706355)
Shoppers Drug Mart ,"565 Sherbourne St, Suite 40 ",Toronto,M4X 1W7,43.66997,-79.37543,POINT (-79.37543000000002 43.66997)
Urban Care Pharmacy,26 Dalhousie Street,Toronto,M5B 2A5,43.65398,-79.37563,POINT (-79.37563 43.65398)
Glen Manor Pharmacy,116 Glen Manor Drive,Toronto,M4E 2X2,43.67437,-79.37575,POINT (-79.37575 43.67437)
Metropolitan Pharmacy,4G Spadina Ave,Toronto,M5V 3Z9,43.67474,-79.37619,POINT (-79.37619000000002 43.67474)
Providence Pharmacy Providence Healthcare,3276 St. Clair Ave,Toronto,M1L 1W1,43.67474,-79.37619,POINT (-79.37619000000002 43.67474)
Marshall'S Drug Store,412 Summerhill Avenue,Toronto,M4W 2E4,43.68617,-79.37624,POINT (-79.37624 43.68617)
Main Drug Mart,61 Queen St East,Toronto,M5C 2T2,43.652826,-79.376288,POINT (-79.376288 43.652826)
Metro Drugs,129 Dundas St East,Toronto,M5B 2N6,43.65671,-79.37643,POINT (-79.37643 43.65671)
Pharmadocs,199 Church St. Lower Level,Toronto,M5B 1Y7,43.655703,-79.376497,POINT (-79.376497 43.655703)
Rosedale Pharmacy,600 Sherbourne Street,Toronto,M4X 1W4,43.671632,-79.376877,POINT (-79.37687700000002 43.671632)
Bloor-Sherbourne Pharmacy,608 Sherbourne Street,Toronto,M4X 1X6,43.672018,-79.376897,POINT (-79.376897 43.672018)
Shoppers Simply Pharmacy,701 Sheppard Ave East,Toronto,M2K 2Z3,43.768442,-79.377504,POINT (-79.377504 43.768442)
Shoppers Drug Mart,69 Yonge St,Toronto,M5E 1K3,43.64893,-79.37754,POINT (-79.37754 43.64893)
Lmc Pharmacy,107-1929 Bayview Avenue,Toronto,M4G 3E8,43.715993,-79.377546,POINT (-79.377546 43.715993)
Prescription Care Centre St. Michael'S Hospital,30 Bond St #1038 Queen Wing,Toronto,M5B 1W8,43.65366,-79.37768,POINT (-79.37768 43.65366)
Rexall,Pharmacies Ltd 48 Yonge Street,Toronto,M5E 1G6,43.648009,-79.377764,POINT (-79.377764 43.648009)
Sobeys Pharmacy,7271 Belfield Earl.Ward & Co. Ltd 2-124 Belfield Rd,Toronto,M9W 1G1,43.66804,-79.37792,POINT (-79.37791999999997 43.66804000000001)
Shoppers Drug Mart,101-1860 Bayview Ave,Toronto,M4G 0C3,43.714154,-79.377937,POINT (-79.377937 43.714154)
Rexall,3-345 Bloor St E,Toronto,M4W 3J6,43.671543,-79.377979,POINT (-79.37797900000002 43.671543)
Shoppers Drug Mart,10 Dundas Street East Unit 1,Toronto,M5B 2G9,43.65601,-79.37846,POINT (-79.37846 43.65601)
Rexall,88 Queens Quay West,Toronto,M5J 0B8,43.64055,-79.37846,POINT (-79.37846 43.64055)
Yonge Drug Mart,104-2399 Yonge St,Toronto,M4P 2E7,43.64999,-79.37849,POINT (-79.37849 43.64999)
Sam'S I.D.A. Pharmacy,101Y-1920 Yonge Street Po Box #30,Toronto,M4S 3E2,43.649779,-79.378509,POINT (-79.37850899999999 43.649779)
Leaside Community Pharmacy,795 Eglinton Avenue E.,Toronto,M4G 4E4,43.711242,-79.378653,POINT (-79.378653 43.711242)
Shoppers Drug Mart,"181 Bay Street, Bce Place ",Toronto,M5J 2T3,43.64692,-79.37866,POINT (-79.37866 43.64692)
Cloud Pharmacy,55 Dundas St E,Toronto,M5B 1C6,43.65595,-79.37871,POINT (-79.37871 43.65595)
Rexall,159 Yonge St,Toronto,M5C 1X7,43.65198,-79.37886,POINT (-79.37886 43.65198)
Main Drug Mart,1-399 Church St,Toronto,M5B 2J6,43.66179,-79.37894,POINT (-79.37894 43.66179)
Loblaw Pharmacy,60 Carlton Street,Toronto,M5B 1L1,43.66217,-79.37927,POINT (-79.37926999999998 43.66217)
Yonge Elmwood Pharmacy,201-5025 Yonge Street,Toronto,M2N 5P2,43.65346,-79.37937,POINT (-79.37936999999999 43.65346)
Rexall,Commerce Court West C186-199 Bay St,Toronto,M5L 1E7,43.64823,-79.37956,POINT (-79.37956 43.64823)
Medsexpert Pharmacy,461 Church St,Toronto,M4Y 2C5,43.66426,-79.37999,POINT (-79.37999000000001 43.66426)
Shoppers Drug Mart,"1-124B-220 Yonge St, Eaton Ctr ",Toronto,M5B 2H1,43.65368,-79.38011,POINT (-79.38011 43.65368)
Village Pharmacy,473 Church Street,Toronto,M4Y 2C5,43.664525,-79.38021,POINT (-79.38020999999998 43.664525)
York Medical Pharmacy,"491 Church St, Upstairs ",Toronto,M4Y 2C6,43.66527,-79.38036,POINT (-79.38036 43.66527)
Shoppers Drug Mart,333 Bay Street,Toronto,M5H 2R2,43.65037,-79.38036,POINT (-79.38036 43.65037)
Snowdon Pharmacy,264 Bloor St West,Toronto,M5S 1V8,43.67163,-79.38041,POINT (-79.38041 43.67163)
Harbourfront Medicine Cabinet,#1-8 York Street,Toronto,M5J 2Y2,43.6405,-79.38081,POINT (-79.38081 43.6405)
Morelli'S Pharmacy,15 York Street,Toronto,M5J 0A3,43.642348,-79.380871,POINT (-79.380871 43.642348)
Shoppers Drug Mart,29A-66 Wellington St West,Toronto,M5K 1A1,43.647231,-79.381225,POINT (-79.381225 43.647231)
Well + Good Pharmacy,557 Church Street Inc 557 Church Street,Toronto,M4Y 2E2,43.66723,-79.38126,POINT (-79.38126 43.66723)
Rexall,63 Wellesley St E,Toronto,M4Y 1G7,43.66544,-79.38132,POINT (-79.38132 43.66544)
St. Gabriel Medical Pharmacy,101-650 Sheppard Ave. E.,Toronto,M2K 3E4,43.768586,-79.381432,POINT (-79.38143199999998 43.768586)
Rexall,Dundas St W,Toronto,M6K 1T8,43.655911,-79.381563,POINT (-79.381563 43.655911)
Loblaw Pharmacy,Loblaws Div 396 St Clair Ave West,Toronto,M4P 3N3,43.69097,-79.38171,POINT (-79.38171 43.69097)
Rexall,401 Yonge St.,Toronto,M5B 1S9,43.6594,-79.38188,POINT (-79.38188000000002 43.6594)
Shoppers Drug Mart,465 Yonge St,Toronto,M4Y 1X4,43.661823,-79.383029,POINT (-79.38302900000002 43.661823)
Rexall,120 Adelaide St W Unit R28,Toronto,M5H 1T1,43.65001,-79.3832,POINT (-79.3832 43.65001)
Rexall,595 Bay St Box 125,Toronto,M5G 2C2,43.656221,-79.383301,POINT (-79.383301 43.656221)
Infinity Health Pharmacy,35 Lower Simcoe Street,Toronto,M5J 3A6,43.64194,-79.38357,POINT (-79.38356999999998 43.64194000000001)
Maple Leaf Medical Pharmacy,14 College St,Toronto,M5G 1K2,43.66149,-79.38394,POINT (-79.38394 43.66149)
White Cross Drugs,300-500 Yonge St,Toronto,M4Y 1X9,43.663189,-79.384079,POINT (-79.384079 43.663189)
Shoppers Drug Mart,2528 Bayview Avenue,Toronto,M2L 1A9,43.746841,-79.384787,POINT (-79.384787 43.746841)
Shoppers Drug Mart,2528 Bayview Avenue,Toronto,M2L 1A9,43.746841,-79.384787,POINT (-79.384787 43.746841)
Shoppers Drug Mart,700 Bay Street,Toronto,M5G 1Z6,43.658224,-79.385066,POINT (-79.38506600000002 43.658224)
Pace Pharmacy,14 Isabella St,Toronto,M4Y 1N1,43.66793,-79.38509,POINT (-79.38509000000001 43.66793)
Pharma Plus,C216-777 Bay St,Toronto,M5G 2C8,43.66064,-79.38538,POINT (-79.38538 43.66064)
Shoppers Drug Mart,20 Bloor St E Hudson Bay Centre,Toronto,M4W 3G7,43.67076,-79.38544,POINT (-79.38544 43.67076)
Rexall,660 Eglington Ave E,Toronto,M4G 2K2,43.70933,-79.38568,POINT (-79.38568000000002 43.70933)
Jane Wilson Pharmacy,2111 Jane St Unit # 3,Toronto,M3M 1A2,43.66914,-79.3859,POINT (-79.38590000000001 43.66914000000001)
Shoppers Drug Mart,718 Yonge Street,Toronto,M4Y 2B3,43.66837,-79.386267,POINT (-79.386267 43.66837)
Remedy'S Rx Global Drug Mart,901 Bay St,Toronto,M5S 3K6,43.663305,-79.386448,POINT (-79.386448 43.663305)
Rexall,76 Grenville Street,Toronto,M5S 1B2,43.66136,-79.38647,POINT (-79.38646999999997 43.66136)
Victor Pharmacy,123 Edward Street,Toronto,M5G 1E2,43.655638,-79.386801,POINT (-79.38680100000001 43.655638)
Rexall,250 University Ave,Toronto,M5H 3E5,43.65042,-79.38702,POINT (-79.38701999999998 43.65042)
Sanomed Pharmacy,1000 Bay Street,Toronto,M5S 3A8,43.66551,-79.38728,POINT (-79.38728 43.66551)
Loblaw Pharmacy,Loblaws Division 2877 Bayview Avenue,Toronto,M2K 2S3,43.768619,-79.387295,POINT (-79.38729499999999 43.768619)
Sante Pharmacy,830 Yonge St 2Nd Floor,Toronto,M4W 2H1,43.67128,-79.387405,POINT (-79.387405 43.67128)
Shoppers Drug Mart,555 University Ave,Toronto,M5G 1X8,43.65737,-79.38744,POINT (-79.38744 43.65737)
Shoppers Drug Mart,817 Yonge Street,Toronto,M4W 2G9,43.672494,-79.387468,POINT (-79.387468 43.672494)
Rexall,200-200 Wellington St W Po Box 101,Toronto,M5V 3C7,43.645862,-79.38785,POINT (-79.38785 43.645862)
Pharma Plus,23-55 Bloor St W,Toronto,M4W 1A5,43.669641,-79.388688,POINT (-79.388688 43.669641)
Shoppers Drug Mart ,390 Queens Quay West,Toronto,M5V 3A6,43.63833,-79.3887,POINT (-79.3887 43.63833)
Tgh Transplant Outpatient Pharmacy,"1202-585 University Ave, 12 Fl ",Toronto,M5G 2N2,43.6582,-79.389,POINT (-79.389 43.6582)
Princess Margaret Hospital Outpatient Pharmacy,610 University Avenue Rm M633,Toronto,M5G 2M9,43.65542,-79.38917,POINT (-79.38916999999999 43.65542)
Shoppers Drug Mart,759 Mount Pleasant Rd,Toronto,M4S 2N4,43.70778,-79.38948,POINT (-79.38948000000001 43.70778)
Mount Pleasant Pharmacy,245 Eglinton Avenue E.,Toronto,M4P 1L2,43.708261,-79.389548,POINT (-79.389548 43.708261)
Markie Pharmacy,1235 Bay Street,Toronto,M5R 3K4,43.670888,-79.389643,POINT (-79.38964300000001 43.670888)
Ava Pharmacy,81 St Clair Ave East,Toronto,M4T 1M7,43.68892,-79.39019,POINT (-79.39019 43.68892)
Rexall,600 University Avenue,Toronto,M5G 1X5,43.657536,-79.390445,POINT (-79.390445 43.657536)
Pharmacy By The Grange,Unit 9 & 10 275 Dundas Street W.,Toronto,M5T 1G1,43.654305,-79.390455,POINT (-79.390455 43.654305)
U&C Pharmacy,700 University Avenue Unit Hsc112 Shopping Concourse,Toronto,M5G 1Z5,43.659016,-79.391191,POINT (-79.39119100000001 43.659016)
Shoppers Drug Mart,388 King St West,Toronto,M5V 1K2,43.64639,-79.39131,POINT (-79.39131 43.64639)
Kingsway Drugs,114 Cumberland Street,Toronto,M5R 1A6,43.67033,-79.39162,POINT (-79.39161999999997 43.67033)
Shoppers Drug Mart,260 Queen Street West,Toronto,M5V 1Z8,43.649892,-79.391887,POINT (-79.391887 43.649892)
Pharma Plus,288 Sheppard Ave,Toronto,M2N 3B1,43.76533,-79.392786,POINT (-79.392786 43.76533)
C C Pharmacy,1351 Yonge Street,Toronto,M4T 1X9,43.686104,-79.393004,POINT (-79.393004 43.686104)
Main Drug Mart,3265 Bayview Avenue,Toronto,M2K 1G4,43.791613,-79.393023,POINT (-79.393023 43.791613)
Balmoral Chemists,1366 Yonge St.,Toronto,M4T 3A7,43.686039,-79.393592,POINT (-79.393592 43.686039)
Rexall,C001-2 St Clair Ave East,Toronto,M4T 2T5,43.688076,-79.394126,POINT (-79.394126 43.688076)
Shoppers Drug Mart,1507 Yonge Street,Toronto,M4T 1Z2,43.689388,-79.394332,POINT (-79.39433199999998 43.689388)
St. George Pharmacy,193 College St,Toronto,M5T 1P9,43.65867,-79.39491,POINT (-79.39491 43.65867)
Delisle Pharmacy,1560 Yonge Street Upper Court Level,Toronto,M4T 2S9,43.689687,-79.39513,POINT (-79.39513000000002 43.689687)
99 Pharmacy,436 Dundas Street W.,Toronto,M5T 1G7,43.65325,-79.39567,POINT (-79.39567 43.65325)
Konop Chemists Ltd,208 Bloor St W,Toronto,M5S 3B4,43.66892,-79.39589,POINT (-79.39589000000002 43.66892)
Apex Drug Mart,90 Eglinton Ave. East,Toronto,M4P 2Y3,43.70763,-79.395903,POINT (-79.395903 43.70763)
Total Health Pharmacy,1849 Yonge Street,Toronto,M4S 1Y2,43.69696,-79.395927,POINT (-79.395927 43.69696)
Welcome Guardian Pharmacy,1881 Yonge St,Toronto,M4S 1Y6,43.69773,-79.39606,POINT (-79.39605999999998 43.69773)
Rexall,87 Avenue Road,Toronto,M5R 3R9,43.6729,-79.39609,POINT (-79.39609 43.6729)
Lakefront Medical Pharmacy,14-550 Queens Quay West,Toronto,M5V 3M8,43.637186,-79.396155,POINT (-79.39615500000002 43.637186)
Davisville Pharmacy,4-1901 Yonge Street,Toronto,M4S 1Y6,43.698131,-79.396253,POINT (-79.396253 43.698131)
Vita Pharmacy,525 Dundas Street W. Unit 2,Toronto,M5T 1H4,43.65305,-79.39631,POINT (-79.39631 43.65305)
Shoppers Drug Mart,500 King St W,Toronto,M5V 1L9,43.64532,-79.39681,POINT (-79.39681 43.64532)
Health Choice Pharmacy,449 Queen St W,Toronto,M5V 2A9,43.64849,-79.3969,POINT (-79.3969 43.64849)
Shoppers Drug Mart,236 Bloor Street West,Toronto,M5S 1T8,43.668376,-79.396992,POINT (-79.396992 43.668376)
On Care Pharmacy,481 Dundas Street West,Toronto,M5T 1H1,43.653001,-79.39725,POINT (-79.39725 43.653001)
Cadence Apothecary,200 Spadina Ave,Toronto,M5T 2C2,43.650308,-79.397337,POINT (-79.39733699999999 43.650308)
Rexall,285 Spadina Avenue,Toronto,M5T 2E6,43.653233,-79.397618,POINT (-79.39761800000002 43.653233)
Phil-Way Pharmacy,1700 Eglinton Ave East Unit A3,Toronto,M4A 2X4,43.707042,-79.397974,POINT (-79.397974 43.707042)
Darcy 2 Pharmacy,315 Spadina Ave,Toronto,M5T 2E9,43.65422,-79.39815,POINT (-79.39815 43.65422)
Hui'S Pharmasave,280 Spadina Ave,Toronto,M5T 3A5,43.65252,-79.39858,POINT (-79.39858000000002 43.65252)
Saigon Pharmacy,300 B Spadina Ave,Toronto,M5T 2E7,43.65322,-79.3986,POINT (-79.3986 43.65322000000001)
One Community Pharmacy,347 Spadina Ave,Toronto,M5T 2G3,43.65528,-79.39867,POINT (-79.39867 43.65528)
R. K. Pharmacy,302 Spadina Avenue Suite 101,Toronto,M5T 2E7,43.65528,-79.39867,POINT (-79.39867 43.65528)
Shoppers Drug Mart,2345 Yonge Street,Toronto,M4P 1E4,43.70716,-79.39908,POINT (-79.39908 43.70716)
Rexall,Yonge-Eglinton Centre 2300 Yonge St,Toronto,M4P 1E4,43.707158,-79.399084,POINT (-79.399084 43.707158)
The 6Ix Pharmacy On Front,58-550 Front St W,Toronto,M5V 3N5,43.641419,-79.399579,POINT (-79.399579 43.641419)
Bloom Pharmacy,1A-170 Fort York Blvd,Toronto,M5V 0E6,43.63939,-79.39979,POINT (-79.39979 43.63939)
Rexall,474 Spadina Ave,Toronto,M5T 2G8,43.65773,-79.40037,POINT (-79.40037 43.65773)
Market St. Pharmacy,149 Augusta Avenue,Toronto,M5T 2L4,43.652669,-79.401086,POINT (-79.40108599999998 43.652669)
Glengrove Pharmacy,2760 Yonge St,Toronto,M4N 2J2,43.71867,-79.40123,POINT (-79.40123 43.71867)
Royal Care Pharmacy,295 College Street,Toronto,M5T 1S2,43.657477,-79.40123,POINT (-79.40123 43.657477)
Shoppers Drug Mart,593 Dundas St E,Toronto,M5A 3H6,43.65204,-79.40143,POINT (-79.40143 43.65204)
Loblaw Pharmacy,585 Queen Street West,Toronto,M5V 2B7,43.647554,-79.401596,POINT (-79.401596 43.647554)
Sina Pharmacy,37 The Links Rd,Toronto,M2P 1T7,43.75183,-79.401684,POINT (-79.401684 43.75183)
Shoppers Drug Mart,524 Queen St West,Toronto,M5V 2B5,43.64752,-79.40238,POINT (-79.40238000000002 43.64752)
Raxlen Pharmacy,343 College St,Toronto,M5T 1S9,43.65712,-79.40324,POINT (-79.40324 43.65712)
Medical Pharmacy,340 College Street,Toronto,M5T 3A9,43.657581,-79.403464,POINT (-79.403464 43.657581)
Spadina'S Neighbourhood Pharmacy,720 Spadina Ave,Toronto,M5S 2T9,43.665291,-79.403621,POINT (-79.403621 43.665291)
Smith'S Pharmacy,3463 Yonge Street,Toronto,M4N 2N3,43.734169,-79.404171,POINT (-79.40417099999998 43.734169)
Augusta Central Pharmacy,1-360 College Street,Toronto,M5T 1S6,43.657379,-79.404447,POINT (-79.40444699999998 43.657379)
Shoppers Drug Mart,3366 Yonge Street,Toronto,M4N 2M7,43.732322,-79.404493,POINT (-79.404493 43.732322)
Pharma Plus,3402 Yonge St,Toronto,M4N 2M9,43.733021,-79.404505,POINT (-79.404505 43.733021)
Shoppers Drug Mart,399 Bathurst Street,Toronto,M5T 2S8,43.653095,-79.405688,POINT (-79.405688 43.653095)
Shoppers Drug Mart,761 King Street West,Toronto,M5V 1N4,43.643062,-79.405852,POINT (-79.405852 43.643062)
Trinity Drug Store,750 Dundas Street W,Toronto,M6J 3S3,43.652394,-79.406436,POINT (-79.406436 43.652394)
Uptown Pharmacy,243 Eglinton Ave West,Toronto,M4R 1B1,43.704804,-79.406639,POINT (-79.406639 43.704804)
Canadian Compounding Pharmacy Meds,2920 Bloor St W,Toronto,M8X 1B6,43.65197,-79.40699,POINT (-79.40699000000002 43.65197)
Shoppers Drug Mart,292 Dupont Street,Toronto,M5R 1V9,43.674943,-79.407917,POINT (-79.407917 43.674943)
St. George Drug Mart,567 Bathurst Street 2Nd Floor,Toronto,M5S 2P8,43.658443,-79.408257,POINT (-79.40825699999998 43.658443)
Shoppers Drug Mart,463 College Street,Toronto,M6G 4C1,43.65604,-79.40848,POINT (-79.40848000000003 43.65604)
Hilary'S Pharmacy,811 Dundas Street W.,Toronto,M6J 1V4,43.651618,-79.40865,POINT (-79.40864999999999 43.651618)
College Medical Pharmacy,101-474 College St.,Toronto,M6G 1A4,43.656401,-79.409337,POINT (-79.40933699999999 43.656401)
Dundas Euclid Pharmacy,828 Dundas Street West,Toronto,M6J 1V3,43.651792,-79.409397,POINT (-79.409397 43.651792)
Rexall,481 Bloor Street W,Toronto,M5S 1Y2,43.66523,-79.40968,POINT (-79.40968000000002 43.66523)
Palmerston Pharmacy,499 College St,Toronto,M6G 1A5,43.655778,-79.409693,POINT (-79.409693 43.65577800000001)
Procare Pharmacy,2-3551 Sheppard E,Toronto,M1T 3K8,43.76201,-79.41045,POINT (-79.41045 43.76201)
Austins Drug Mart,4235 Sheppard Ave East Unit 108,Toronto,M1S 1T7,43.761553,-79.410695,POINT (-79.41069499999998 43.761553)
College Centre Pharmacy Ii,528 College Street,Toronto,M6G 1A6,43.656077,-79.410932,POINT (-79.41093199999997 43.656077)
Northern Rx Medical Pharmacy,201-418 Eglinton Ave West,Toronto,M5N 1A2,43.704286,-79.411062,POINT (-79.411062 43.704286)
Shoppers Drug Mart,901 King Street West,Toronto,M5V 3H5,43.641881,-79.41125,POINT (-79.41125 43.641881)
Rexall,4789 Yonge Street Unit #2,Toronto,M2N 0G3,43.76311,-79.411333,POINT (-79.411333 43.76311)
Main Drug Mart,844 Bathurst St,Toronto,M5R 3G1,43.66628,-79.41205,POINT (-79.41204999999999 43.66628)
Rexall,393 Spadina Rd,Toronto,M5P 2W1,43.6885,-79.41238,POINT (-79.41238 43.6885)
Apotheca Compounding Pharmacy,417 Spadina Road,Toronto,M5P 2W3,43.688859,-79.412451,POINT (-79.412451 43.688859)
Shoppers Drug Mart,4990 Yonge Street,Toronto,M2N 0A1,43.765808,-79.412474,POINT (-79.412474 43.765808)
Shoppers Drug Mart,1500 Avenue Road,Toronto,M5M 3X2,43.71569,-79.41248,POINT (-79.41248 43.71569)
St. Michael'S Drug Mart,565 College Street,Toronto,M6G 1B2,43.65527,-79.4127,POINT (-79.4127 43.65527)
Loblaw Pharmacy,5095 Yonge Street,Toronto,M2N 6Z4,43.767355,-79.41271,POINT (-79.41271 43.767355)
Forest Hill Pharmacy,102-491 Eglinton Ave W,Toronto,M5N 1A8,43.70346,-79.41285,POINT (-79.41285000000001 43.70346)
One Pharmacy,5292 Yonge Street,Toronto,M2N 5P9,43.772414,-79.414043,POINT (-79.41404300000001 43.77241400000001)
Canadian Addiction Treatment Pharmacy,100-1111 Finch Avenue West,Toronto,M3J 2E5,43.71851,-79.41466,POINT (-79.41466 43.71851)
Medi-Place Pharmacy,1A-622 College Street,Toronto,M6G 1B4,43.65484,-79.41495,POINT (-79.41495 43.65484)
Shoppers Drug Mart,550 Eglinton Ave W,Toronto,M5N 1B6,43.70345,-79.41535,POINT (-79.41535 43.70345)
Liberty Market Pharmacy,"171 East Liberty Street, Unit 102 ",Toronto,M6K 3P6,43.63878,-79.41631,POINT (-79.41631 43.63878)
Shoppers Drug Mart,5845 Yonge Street,Toronto,M2M 3T9,43.786451,-79.416434,POINT (-79.416434 43.786451)
Wellcare Pharmacy,1263 Wilson Ave Unit # 110,Toronto,M3M 3G3,43.7411819,-79.4167565,POINT (-79.41675649999998 43.7411819)
College Drug Mart,673 College St,Toronto,M6G 1B9,43.655007,-79.417127,POINT (-79.41712700000002 43.655007)
Shoppers Drug Mart,2047 Avenue Road,Toronto,M5M 4A7,43.72854,-79.4175,POINT (-79.4175 43.72854)
Willowdale Pharmacy,6023 Yonge Street,Toronto,M2M 3W2,43.789284,-79.417545,POINT (-79.41754499999998 43.789284)
Metro Pharmacy,100 Lynn Williams St,Toronto,M6K 3N6,43.63996,-79.41787,POINT (-79.41786999999999 43.63996)
Camh Pharmacy,1001 Queen St W,Toronto,M6J 1H4,43.64403,-79.41809,POINT (-79.41809000000001 43.64403)
Bloor Park Pharmacy,728 Bloor St West,Toronto,M6G 1L4,43.663793,-79.418204,POINT (-79.418204 43.663793)
Medcentral Pharmacy,20 Drewry Ave,Toronto,M2M 1C8,43.78714,-79.4183,POINT (-79.4183 43.78714)
Rexall,1725 Avenue Rd,Toronto,M5M 3Y5,43.72839,-79.41832,POINT (-79.41831999999999 43.72839000000001)
Clairhurst Medical Pharmacy,109-1466 Bathurst St,Toronto,M5R 3S3,43.68278,-79.41835,POINT (-79.41835 43.68278)
The Medicine Shoppe,515 St. Clair Ave West,Toronto,M6C 1A1,43.682786,-79.418784,POINT (-79.418784 43.682786)
Shoppers Drug Mart,725 College Street,Toronto,M6G 1C5,43.654287,-79.419095,POINT (-79.419095 43.654287)
Shoppers Drug Mart,A-1033 Queen St West,Toronto,M6J 0A6,43.643753,-79.419439,POINT (-79.419439 43.643753)
Pharmacia Seifein Pharmacy,553 St Clair Ave West,Toronto,M6C 1A3,43.68292,-79.41949,POINT (-79.41949 43.68292)
Remedy'S Rx Eglinton Bayview Compounding Pharmacy,586 Eglinton Ave East Suite 102,Toronto,M4P 1P2,43.70258,-79.4196,POINT (-79.4196 43.70258)
Haber'S Compounding Pharmacy,1584 Bathurst St,Toronto,M5P 3H3,43.68677,-79.42028,POINT (-79.42028000000001 43.68677)
United Drug Mart,154 Ossington Avenue,Toronto,M6J 2Z5,43.64745,-79.42032,POINT (-79.42031999999998 43.64745)
Saba Pharmacy,547 St. Clair Ave W,Toronto,M6C 1A3,43.682434,-79.420612,POINT (-79.42061200000001 43.682434)
Drug Store Pharmacy,650 Dupont Street,Toronto,M6G 1Z2,43.672149,-79.421002,POINT (-79.421002 43.672149)
Metro Medical Pharmacy,351 Christie St.,Toronto,M6G 3C2,43.67339,-79.42117,POINT (-79.42116999999998 43.67339000000001)
Omni Pharmacy,799 Bloor St W,Toronto,M6G 1L8,43.662717,-79.42135,POINT (-79.42135 43.662717)
The Medicine Shoppe,1168 A Dundas Street W.,Toronto,M6J 1X4,43.649191,-79.421589,POINT (-79.421589 43.649191)
Wholesome Pharmacy,811A Queen Street East,Toronto,M4M 1H8,43.64382,-79.42178,POINT (-79.42178 43.64382)
Woodgreen Pharmacy,909 Queen Street East,Toronto,M4M 1J4,43.64382,-79.42178,POINT (-79.42178 43.64382)
Yours Pharmacy,796 Queen Street East,Toronto,M4M 1H4,43.64382,-79.42178,POINT (-79.42178 43.64382)
Main Drug Mart,1169 Dundas St West,Toronto,M6J 2Z9,43.64944,-79.42211,POINT (-79.42211 43.64944000000001)
Wellcare Pharmacy,815 College Street,Toronto,M6G 1C9,43.65471,-79.42213,POINT (-79.42213000000002 43.65471)
Shoppers Drug Mart,523 St. Clair Avenue West,Toronto,M6C 1A1,43.682571,-79.422379,POINT (-79.42237900000001 43.682571)
Rexall,1093 Queen Street West,Toronto,M6J 1J1,43.643256,-79.42266,POINT (-79.42265999999999 43.643256)
Bloor St Pharmacy,849 Bloor Street W.,Toronto,M6G 1M3,43.662208,-79.423691,POINT (-79.42369100000001 43.662208)
Ossington Medical Pharmacy,836 Bloor Street West,Toronto,M6G 1M2,43.662584,-79.423793,POINT (-79.423793 43.662584)
Total Health Pharmacy,100-801 Eglinton Avenue West,Toronto,M5N 1E3,43.701031,-79.424493,POINT (-79.424493 43.701031)
Health Care Mart,1173 Queen St W,Toronto,M6J 1J4,43.64259,-79.426012,POINT (-79.426012 43.64259000000001)
Eglinton Bathurst Pharmacy,856 Eglinton Ave W,Toronto,M6C 2B6,43.701129,-79.426037,POINT (-79.42603699999999 43.701129)
Christie Pharmacy,697 St-Clair Ave West,Toronto,M6C 1B2,43.681421,-79.426185,POINT (-79.426185 43.681421)
Family Care Pharmacy,5-1209 King Street West,Toronto,M6K 1G2,43.638865,-79.426833,POINT (-79.426833 43.638865)
Rexall,901 Eglinton Ave W,Toronto,M6C 2C1,43.70049,-79.4275,POINT (-79.42749999999999 43.70049)
Charles Pharmacy,1204 King St W,Toronto,M6K 1G4,43.63911,-79.42773,POINT (-79.42773000000003 43.63911)
Bloorcourt Pharmacy,936 Bloor Street W.,Toronto,M6H 1L4,43.661764,-79.427737,POINT (-79.42773699999999 43.661764)
Shoppers Drug Mart,925 Eglinton Ave W,Toronto,M6C 2C3,43.70034,-79.42783,POINT (-79.42783 43.70034)
International Pharmacy,1218 King Street W.,Toronto,M6K 1G4,43.639066,-79.42817,POINT (-79.42816999999999 43.639066)
Delray Pharmacy,2812 Bathurst St,Toronto,M6B 3A6,43.713279,-79.428665,POINT (-79.42866500000002 43.713279)
Shoppers Drug Mart,958 Bloor Street West,Toronto,M6H 1L6,43.661616,-79.428775,POINT (-79.428775 43.661616)
Lawrence Pharmachoice,5-2013A Lawrence Ave West,Toronto,M9N 0A3,43.71921,-79.43007,POINT (-79.43007 43.71921)
Old Park Pharmacy,1042 Eglinton Ave West,Toronto,M6C 2C5,43.70018,-79.43043,POINT (-79.43043 43.70018)
Premier Pharmacy & Compounding Centre,3323 Bathurst St,Toronto,M6A 2B7,43.725412,-79.430944,POINT (-79.430944 43.725412)
Sone'S Pharmacy,991 Dovercourt Rd,Toronto,M6H 2X6,43.667135,-79.431468,POINT (-79.43146800000002 43.667135)
Peoples Drug Mart,491 Lawrence Ave West,Toronto,M5M 1C7,43.718804,-79.431663,POINT (-79.431663 43.718804)
Murray Shore Pharmacy,3537 Bathurst Street,Toronto,M6A 2C7,43.729851,-79.431834,POINT (-79.43183399999999 43.729851)
Parkdale Pharmacy,1439 King St West,Toronto,M6K 1H9,43.63755,-79.43285,POINT (-79.43285 43.63755)
Bloor Medical Pharmacy,1062 Bloor Street West,Toronto,M6H 1M3,43.660727,-79.432851,POINT (-79.432851 43.660727)
Glenholme Pharmacy,896 St. Clair Ave W,Toronto,M6C 1C5,43.6804,-79.433223,POINT (-79.433223 43.6804)
Dunn Pharmacy,1386 Queen Street West,Toronto,M6K 1L7,43.641434,-79.433671,POINT (-79.43367099999998 43.641434)
Rexall,3560 Bathurst St,Toronto,M6A 2E1,43.730064,-79.434147,POINT (-79.434147 43.730064)
Simpill Pharmacy,1408 Queen St W,Toronto,M6K 1L9,43.64129,-79.43459,POINT (-79.43459 43.64129000000001)
Main Drug Mart,1130 Bloor St West,Toronto,M6H 1M8,43.660116,-79.43509,POINT (-79.43509 43.660116)
Shoppers Drug Mart,3874 Bathurst St,Toronto,M3H 3N3,43.741204,-79.435325,POINT (-79.43532500000001 43.741204)
Walmart Pharmacy,Dufferin Mall 900 Dufferin Street,Toronto,M6H 4A9,43.655817,-79.435362,POINT (-79.435362 43.655817)
Clairwood Drug Mart,942 St. Clair Avenue W,Toronto,M6C 1C8,43.679929,-79.435427,POINT (-79.435427 43.679929)
Shoppers Drug Mart,6205 Bathurst Street,Toronto,M2R 2A5,43.74284,-79.43587,POINT (-79.43586999999999 43.74284)
Brock Medical Pharmacy,1637 Dundas Street West,Toronto,M6K 1V2,43.649783,-79.436267,POINT (-79.436267 43.649783)
Vina Pharmacy,1460 Queen Street W.,Toronto,M6K 1M2,43.640904,-79.436427,POINT (-79.43642699999999 43.640904)
Parkdale Guardian Drugs,1488 Queen St West,Toronto,M6K 1M4,43.64066,-79.43772,POINT (-79.43772 43.64066)
Skyway Pharmacy,348 Wilson Avenue,Toronto,M3H 1S9,43.736849,-79.438113,POINT (-79.438113 43.736849)
Oakwood Pharmacy,332 Oakwood Ave,Toronto,M6E 2V9,43.68676,-79.438664,POINT (-79.438664 43.68676)
Shoppers Drug Mart,1473 Queen St W,Toronto,M6R 1A1,43.63991,-79.43904,POINT (-79.43904000000001 43.63991)
Drug Centre Discount Pharmacy,1473 Eglinton Ave W,Toronto,M6E 2G6,43.69807,-79.43923,POINT (-79.43923000000002 43.69807)
Ultra Bloor Pharmacy,1254 Bloor St West,Toronto,M6H 1N5,43.65902,-79.440374,POINT (-79.44037400000001 43.65902)
Drugstore Pharmacy,222 Lansdowne Ave,Toronto,M6K 3C6,43.64956,-79.4407,POINT (-79.44070000000001 43.64956)
Sobeys Pharmacy,145 Marlee Avenue,Toronto,M6B 3H3,43.703047,-79.441433,POINT (-79.44143299999998 43.703047)
Rexall,1245 Dupont St,Toronto,M6H 2A6,43.667518,-79.441757,POINT (-79.441757 43.667518)
Metro Drugs,1290 Bloor St West,Toronto,M6H 1N9,43.658821,-79.442111,POINT (-79.442111 43.658821)
Rexall,249 Marlee Avenue Unit B,Toronto,M6B 4B8,43.705883,-79.442112,POINT (-79.44211199999999 43.705883)
L. Leone Pharmacy,1615 Dufferin St,Toronto,M6H 3L9,43.67663,-79.44228,POINT (-79.44228000000003 43.67663)
Dufferin Central Pharmacy,1649 Dufferin St,Toronto,M6H 3L9,43.677305,-79.442501,POINT (-79.44250100000002 43.677305)
Blue Sky Pharmacy,1176-A St Clair Ave West,Toronto,M6E 1B4,43.67782,-79.44266,POINT (-79.44266 43.67782)
Downtown Dispensary Ii,1678 Dufferin Street,Toronto,M6H 3M1,43.677594,-79.443199,POINT (-79.44319899999998 43.677594)
Dufferin Drug Mart Pharmacy,1670 Dufferin St,Toronto,M6H 3M2,43.677414,-79.443249,POINT (-79.44324899999999 43.677414)
Nova Pharmacy,1674 Dufferin St,Toronto,M6H 3M1,43.67749,-79.44325,POINT (-79.44325000000001 43.67749)
Bio Pharmacy,1177 St. Clair Avenue W.,Toronto,M6E 1B5,43.677628,-79.443455,POINT (-79.443455 43.67762800000001)
Universal Pharmacy,819 Lansdowne Ave,Toronto,M6H 3Z2,43.66252,-79.44428,POINT (-79.44428000000001 43.66252)
St. Clair Drug Mart Pharmacy,1203 St Clair Avenue West,Toronto,M6E 1B5,43.677406,-79.444333,POINT (-79.444333 43.677406)
Lawrence Heights Phamily Pharmacy,12 Flemington Road,Toronto,M6A 2N4,43.71952,-79.44481,POINT (-79.44481 43.71952)
Shoppers Simply Pharmacy,1223 St Clair Ave West,Toronto,M6E 1B5,43.67777,-79.44492,POINT (-79.44492 43.67777)
Drugstore Pharmacy,700 Lawrence Ave W,Toronto,M6A 3B4,43.715932,-79.44497,POINT (-79.44497 43.715932)
Wilson-Allen Pharmacy,517 Wilson Avenue,Toronto,M3H 1V1,43.734542,-79.445935,POINT (-79.44593499999998 43.734542)
Pharmachoice Parkdale,15 Roncesvalles Ave,Toronto,M6R 2K3,43.63936,-79.44598,POINT (-79.44598000000001 43.63936)
Dufferin Medical Pharmacy,2045 Dufferin St,Toronto,M6E 3R4,43.686443,-79.446203,POINT (-79.446203 43.686443)
Sunnyside Medical Pharmacy,29 Roncesvalles Ave,Toronto,M6R 2K4,43.63996,-79.44634,POINT (-79.44634000000001 43.63996)
Clair Gardens Pharmacy,1263 St. Clair Avenue W.,Toronto,M6E 1B8,43.676969,-79.446646,POINT (-79.446646 43.676969)
Welcome Guardian Pharmacy,137 Roncesvalles Avenue,Toronto,M6R 2L2,43.64308,-79.44744,POINT (-79.44744 43.64308)
Shoppers Drug Mart,1400 Dupont Street,Toronto,M6H 2B2,43.666727,-79.44749,POINT (-79.44749 43.666727)
Solarski Pharmacy,149 Roncesvalles Avenue,Toronto,M6R 2L3,43.643866,-79.447902,POINT (-79.447902 43.643866)
St. Joseph'S Health Centre Outpatient Pharmacy,30 The Queensway,Toronto,M6R 1B5,43.63936,-79.4501,POINT (-79.45010000000001 43.63936)
Symington Drugs,333 Symington Ave,Toronto,M6P 3X1,43.66647,-79.451236,POINT (-79.45123599999999 43.66647)
Margis Pharmacy,408 Roncesvalles Ave,Toronto,M6R 2M9,43.65135,-79.45129,POINT (-79.45129 43.65135)
Shoppers Drug Mart,3401 Dufferin St.,Toronto,M6A 2T9,43.72608,-79.45147,POINT (-79.45147 43.72608)
Datu'S Pharmacy,103-2238 Dundas Street West,Toronto,M6R 3A9,43.654385,-79.451499,POINT (-79.451499 43.654385)
John & Jack Pharmacy,787 Lawrence Ave West,Toronto,M6A 1C2,43.714342,-79.452349,POINT (-79.452349 43.714342)
Drug Store Pharmacy,2280 Dundas Street W.,Toronto,M6R 1X4,43.65492,-79.45243,POINT (-79.45243000000001 43.65492)
Bloor Dundas Pharmacy,2333 Dundas Street W,Toronto,M6R 3A6,43.655895,-79.452645,POINT (-79.45264499999998 43.655895)
Pharma Centre Pharmacy,2299 Dundas Street W,Toronto,M6R 1X7,43.655557,-79.452653,POINT (-79.452653 43.655557)
Shoppers Drug Mart,2440 Dundas Street W.,Toronto,M6P 1W9,43.65912,-79.452954,POINT (-79.45295400000001 43.65912)
Ayda Pharmacy,1801 Eglinton Avenue W.,Toronto,M6E 2H8,43.694972,-79.453456,POINT (-79.453456 43.694972)
Eglinton Discount Drugs,1774 Eglinton Avenue West Main Floor,Toronto,M6E 2H6,43.694972,-79.453456,POINT (-79.453456 43.694972)
Eglinton Medical Pharmacy,2010 Eglinton Avenue West,Toronto,M6E 2K3,43.694972,-79.453456,POINT (-79.453456 43.694972)
Northcliffe Pharmacy,1751 Eglinton Ave W,Toronto,M6E 2H7,43.694972,-79.453456,POINT (-79.453456 43.694972)
Shoppers Drug Mart,1840 Eglinton Avenue West,Toronto,M6E 2J4,43.694972,-79.453456,POINT (-79.453456 43.694972)
Briarhill Pharmacy,63-2700 Dufferin Street,Toronto,M6B 4J3,43.701713,-79.453993,POINT (-79.45399300000003 43.701713)
Community Choice Pharmasave,1892 Davenport Rd,Toronto,M6N 1B7,43.67089,-79.45466,POINT (-79.45466 43.67089)
Parkside Remedy Rx,1640 Bloor St W,Toronto,M6P 1A7,43.655692,-79.45649,POINT (-79.45649 43.655692)
Sultan Pharmacy,8-1118 Finch Ave West,Toronto,M3J 3J4,43.770522,-79.456886,POINT (-79.456886 43.770522)
Rexall,Dufferin St,Toronto,M6E 3X7,43.726989,-79.457642,POINT (-79.45764200000001 43.726989)
Ben Medical Pharmacy Inc,1-935 Sheppard Ave West,Toronto,M3H 2T7,43.751178,-79.459019,POINT (-79.459019 43.751178)
M&D Sheppard Pharmacy,2-872 Sheppard Ave W,Toronto,M3H 5V5,43.751178,-79.459019,POINT (-79.459019 43.751178)
Green Medical Pharmacy,1705 St Clair Avenue West,Toronto,M6N 1J2,43.674062,-79.459406,POINT (-79.459406 43.674062)
Whiteside Pharmacy,1732 St. Clair Ave W,Toronto,M6N 1J1,43.674431,-79.459936,POINT (-79.459936 43.674431)
New Caledonia Pharmacy,600 Caledonia Rd,Toronto,M6E 4V6,43.68957,-79.46114,POINT (-79.46114 43.68957)
Duke Pharmacy,2798 Dundas St. W,Toronto,M6P 1Y5,43.665558,-79.462726,POINT (-79.462726 43.665558)
Samm'S Pharmacy,324 Silverthorn Ave,Toronto,M6N 3K6,43.68265,-79.463467,POINT (-79.46346700000002 43.68265)
Nhatrang Drug Mart,790 Wilson Ave,Toronto,M3K 1E2,43.731292,-79.465122,POINT (-79.46512199999999 43.731292)
Shoppers Drug Mart,"1115 Lodestar Road, Bulding E ",Toronto,M3J 0G9,43.75916,-79.46548,POINT (-79.46548 43.75916)
High Park Pharmacy,1938 Bloor Street W.,Toronto,M6P 3K8,43.653442,-79.466793,POINT (-79.46679300000002 43.653442)
Lefko Drugs,842 Wilson Avenue,Toronto,M3K 1E5,43.730812,-79.467384,POINT (-79.467384 43.730812)
Westside Pharmacy,D3-2404 Eglinton Ave W,Toronto,M6M 1S6,43.69223,-79.46752,POINT (-79.46751999999999 43.69223)
Shoppers Drug Mart,620 Keele St,Toronto,M6N 3E2,43.671608,-79.467855,POINT (-79.467855 43.671608)
Shoppers Drug Mart,2343 Eglinton Avenue West,Toronto,M6E 2L6,43.691616,-79.468358,POINT (-79.46835799999999 43.691616)
The Medicine Shoppe,2600 Eglinton Avenue West,Toronto,M6M 1T5,43.691423,-79.46943,POINT (-79.46943 43.691423)
Junction Pharmacy,3016 Dundas St W,Toronto,M6P 1Z3,43.66567,-79.46995,POINT (-79.46995 43.66567)
Nations Pharmacy,1980 St Clair Avenue W,Toronto,M6N 0A3,43.672204,-79.470618,POINT (-79.470618 43.672204)
Shoppers Drug Mart,1515 Steeles Ave East,Toronto,M2M 3Y7,43.78706,-79.471,POINT (-79.471 43.78706)
Rogers Road Pharmacy,576 Rogers Road,Toronto,M6M 1B6,43.682383,-79.471329,POINT (-79.471329 43.682383)
Loblaw Pharmacy,51 Gerry Fitzgerald Dr,Toronto,M3J 3N4,43.78483,-79.47151,POINT (-79.47150999999999 43.78483)
Dufferin Finch Pharmacy,C1-2 Champagne Drive,Toronto,M3J 2C5,43.766427,-79.47234,POINT (-79.47234 43.766427)
Metro Pharmacy,2155 St. Clair Ave West,Toronto,M6N 1K5,43.669651,-79.473174,POINT (-79.473174 43.669651)
Walmart Pharmacy,North Park Plaza 1305 Lawrence Avenue W.,Toronto,M6L 1A5,43.710008,-79.474392,POINT (-79.47439200000002 43.710008)
Keele & Rogers Pharmacy,D5-605 Rogers Road,Toronto,M6M 1B9,43.681619,-79.474513,POINT (-79.474513 43.681619)
The Healing Source Pharmacy,2209 Bloor Street West,Toronto,M6S 1N5,43.65103,-79.475793,POINT (-79.47579300000002 43.65103)
Shoppers Drug Mart,2223 Bloor Street West,Toronto,M6S 1N7,43.650938,-79.476476,POINT (-79.47647600000001 43.650938)
North Park Medical Pharmacy,D2-2355 Keele Street,Toronto,M6M 4A1,43.707675,-79.477478,POINT (-79.477478 43.707675)
Bloor West Pharmacy,2262 Bloor Street West,Toronto,M6S 1N9,43.650983,-79.478043,POINT (-79.478043 43.650983)
Demarco Pharmacy,2394 Keele St,Toronto,M6M 4A5,43.708653,-79.478052,POINT (-79.47805200000001 43.70865300000001)
Main Drug Mart,2536 Keele Street,Toronto,M6L 2N8,43.715278,-79.479853,POINT (-79.47985300000001 43.71527800000001)
Regency Pharmacy,101-2737 Keele Street,Toronto,M3M 2E9,43.72581,-79.48061,POINT (-79.48061 43.72581)
Wilson Compounding Pharmacy,5-1077 Wilson Avenue,Toronto,M3K 1G7,43.726885,-79.480753,POINT (-79.48075300000001 43.726885)
Shoppers Drug Mart,1084 Wilson Avenue,Toronto,M3K 1G6,43.728263,-79.480849,POINT (-79.48084899999998 43.728263)
Swansea Village Pharmasave,2388 Bloor St West,Toronto,M6S 1P5,43.64988,-79.4826,POINT (-79.48260000000001 43.64988)
Shoppers Drug Mart,3446 Dundas St W,Toronto,M6S 2S1,43.665458,-79.48276,POINT (-79.48276 43.665458)
Rexall,1113-1115 Wilson Ave,Toronto,M3M 1H2,43.726209,-79.482973,POINT (-79.482973 43.726209)
Humber Bay Pharmacy,2240 Lakeshore Blvd,Toronto,M8V 0B1,43.62123,-79.48332,POINT (-79.48331999999998 43.62123)
Downsview Park Pharmacy,100-2830 Keele Street,Toronto,M3M 3E5,43.730508,-79.483443,POINT (-79.48344300000002 43.730508)
Action Pharmacy,101-2425 Bloor Street West,Toronto,M6S 4W4,43.649192,-79.483458,POINT (-79.483458 43.649192)
Drugstore Pharmacy,25 Photography Drive,Toronto,M6M 0A1,43.68678,-79.48377,POINT (-79.48376999999998 43.68678)
Shoppers Drug Mart,"200 Bay St, Royal Bank Plaza ",Toronto,M5J 2J3,43.67064,-79.48524,POINT (-79.48524 43.67064)
Walmart Pharmacy,2525 St. Clair Ave West,Toronto,M6N 4Z5,43.668067,-79.485305,POINT (-79.48530500000003 43.668067)
Drugstore Pharmacy,3671 Dundas St. West,Toronto,M6S 2T3,43.66587,-79.48593,POINT (-79.48593000000002 43.66587)
Rexall,3306 Keele Street,Toronto,M3M 2H7,43.743832,-79.486563,POINT (-79.486563 43.743832)
The Akron Pharmacy,2318 Lakeshore Blvd West,Toronto,M8V 1B5,43.61839,-79.48712,POINT (-79.48711999999998 43.61839000000001)
Shoppers Drug Mart,4700 Keele Street,Toronto,M3J 1P3,43.74802,-79.4879,POINT (-79.4879 43.74802)
Lingeman Pharmacy,411 Jane St,Toronto,M6S 3Z6,43.65875,-79.48792,POINT (-79.48791999999997 43.65875)
J.C. Pharmacy,1A- 3685 Keele St,Toronto,M3J 3H6,43.7534,-79.48812,POINT (-79.48812 43.7534)
Wellcare Pharmacy,3352 Keele Street,Toronto,M3J 1L5,43.74695,-79.48847,POINT (-79.48846999999998 43.74695)
Stockyards Pharmacy,2566 St Clair Ave W,Toronto,M6N 1L8,43.668104,-79.488711,POINT (-79.488711 43.668104)
Walmart Pharmacy,Walmart Pharmacy Limited 3757 Keele St,Toronto,M3J 1N4,43.75743,-79.48885,POINT (-79.48885 43.75743)
Shoppers Drug Mart,1881 Steeles Ave West,Toronto,M3H 5Y4,43.78279,-79.48915,POINT (-79.48915 43.78279000000001)
Lakeside Pharmacy,2438 Lakeshore Blvd West,Toronto,M8V 1C4,43.61409,-79.48919,POINT (-79.48919000000002 43.61409)
Rexall,1235 Wilson Avenue,Toronto,M3M 0B2,43.724258,-79.489216,POINT (-79.489216 43.724258)
B.Well Pharmacy,262 Manitoba St,Toronto,M8Y 4G9,43.623966,-79.489719,POINT (-79.48971899999999 43.623966)
Lawrence Medical Pharmacy,4-1575 Lawrence Ave West,Toronto,M6L 1C3,43.705635,-79.49007,POINT (-79.49006999999997 43.705635)
White'S Pharmacy,725 Jane St,Toronto,M6N 4B3,43.67063,-79.49309,POINT (-79.49309000000002 43.67063)
University Health Centre Pharmacy,"4801 Keele St, Unit 59 ",Toronto,M3J 3A4,43.77745,-79.49362,POINT (-79.49361999999998 43.77745)
Total Health Pharmacy,2115 Finch Ave West Suite 217,Toronto,M3N 2V6,43.7633,-79.4938,POINT (-79.49379999999999 43.7633)
Woodvalley Pharmacy,14-130 Industry Street,Toronto,M6M 5G3,43.694672,-79.495073,POINT (-79.495073 43.694672)
Weston Jane Pharmacy,1292 Weston Rd,Toronto,M6M 4R3,43.689034,-79.495812,POINT (-79.495812 43.689034)
Janedal Pharmacy,3-965 Jane Street,Toronto,M6N 4E1,43.680818,-79.497169,POINT (-79.497169 43.680818)
Kassel'S Pharmacy,396 Royal York Road,Toronto,M8Y 2R5,43.61939,-79.500039,POINT (-79.500039 43.61939)
Shoppers Drug Mart,2850 Lakeshore Blvd,Toronto,M8V 1J2,43.601691,-79.50217,POINT (-79.50216999999998 43.601691)
Shoppers Drug Mart,1533 Jane Street,Toronto,M9N 2R2,43.69759,-79.50224,POINT (-79.50224 43.69759000000001)
The Pharmacy Network,7-1575 Jane St,Toronto,M9N 2R3,43.6992,-79.50239,POINT (-79.50239000000001 43.6992)
Don Russell Drug Mart,2891 Lakeshore Blvd W,Toronto,M8V 1J1,43.60082,-79.503908,POINT (-79.503908 43.60082)
Medi-Place Pharmacy,3300 Bloor Street W Suite #146,Toronto,M8X 2W8,43.64825,-79.50636,POINT (-79.50636 43.64825)
Walmart Pharmacy,2202 Jane Street,Toronto,M3M 1A4,43.718832,-79.508383,POINT (-79.50838299999999 43.718832)
West Park Pharmacy,R1-32-82 Buttonwood Ave,Toronto,M6M 2J5,43.6893,-79.50897,POINT (-79.50896999999998 43.6893)
Drugstore Pharmacy,1591 Wilson Avenue,Toronto,M3L 1A5,43.719818,-79.509437,POINT (-79.50943700000001 43.719818)
Markland Wood Pharmacy,4335 Bloor Street West,Toronto,M9C 2A5,43.6476,-79.50954,POINT (-79.50954 43.6476)
Metro Drugs,320 Scarlett Rd,Toronto,M9A 4S4,43.682253,-79.510518,POINT (-79.510518 43.682253)
Community Choice Pharmacy Black Creek,5-2202 Jane St,Toronto,M3M 1A4,43.72168,-79.51059,POINT (-79.51059000000002 43.72168)
River Hill Pharmacy,2086 Lawrence Ave West Unit 1 & 2,Toronto,M9N 3Z9,43.701107,-79.512087,POINT (-79.51208699999999 43.701107)
Shoppers Drug Mart,770 Lawrence Ave West,Toronto,M6A 3C6,43.70111,-79.51209,POINT (-79.51209 43.70111)
Lily Pharmacy,9-2721 Jane Street,Toronto,M3L 1S3,43.740692,-79.513259,POINT (-79.51325899999998 43.740692)
Homa Pharmacy,2698 Jane Street,Toronto,M3L 1S5,43.743118,-79.514126,POINT (-79.514126 43.743118)
Eagle Manor Pharmacy,1901 Weston Road Unit 19,Toronto,M9N 3P5,43.70057,-79.51667,POINT (-79.51666999999998 43.70057)
Cosmo Pharmacy,3101 Bloor St. West,Toronto,M8X 2W2,43.646011,-79.517431,POINT (-79.517431 43.646011)
Wellth Pharmacy,85 Church St,Toronto,M5C 2G2,43.70586,-79.51841,POINT (-79.51841 43.70586)
Shoppers Drug Mart,1995 Weston Road,Toronto,M9N 1X2,43.701359,-79.51941,POINT (-79.51940999999999 43.701359)
Drugstore Pharmacy,1020 Islington Avenue,Toronto,M8Z 4R3,43.63428,-79.51984,POINT (-79.51984 43.63428)
Friendly Care King West Pharmacy,2077 Weston Road,Toronto,M9N 1X7,43.702157,-79.522441,POINT (-79.522441 43.702157)
Islington Medical Pharmacy,1243 Islington Avenue Suite 103,Toronto,M8X 1Y9,43.64594,-79.52351,POINT (-79.52351 43.64594)
Central Weston Pharmacy,2105 Weston Rd,Toronto,M9N 1X7,43.70231,-79.52417,POINT (-79.52417 43.70231)
Weston Drug Mart,2159 Weston Road,Toronto,M9N 1X8,43.703215,-79.524763,POINT (-79.52476300000002 43.703215)
Main Drug Mart,2160 Weston Road,Toronto,M9N 1X6,43.702857,-79.525458,POINT (-79.525458 43.702857)
Life Trust Pharmacy,201-125 Norfinch Dr,Toronto,M3N 1W8,43.756916,-79.525639,POINT (-79.525639 43.756916)
Get Well Pharmacy,1278 The Queensway,Toronto,M8Z 1S3,43.62135,-79.52658,POINT (-79.52658000000002 43.62135)
Pharmadocs,4972 Dundas Street West,Toronto,M9A 1B7,43.647468,-79.530264,POINT (-79.530264 43.647468)
Shoppers Drug Mart ,1500 Islington Avenue,Toronto,M9A 3L8,43.662947,-79.531129,POINT (-79.53112900000001 43.662947)
Drugtown Pharmacy,1500 Royal York Road,Toronto,M9P 3B6,43.693136,-79.531393,POINT (-79.53139300000002 43.693136)
Loblaw Pharmacy,2549 Weston Road,Toronto,M9N 2A7,43.709959,-79.533854,POINT (-79.53385400000001 43.70995900000001)
Rexall,3701 Lakeshore Blvd W,Toronto,M8W 1P8,43.593011,-79.538909,POINT (-79.53890899999998 43.593011)
Solara Pharmacy,3857 Lake Shore Blvd W,Toronto,M8W 0A2,43.589999,-79.545067,POINT (-79.545067 43.589999)
Rexall,440 Browns Line,Toronto,M8W 3T9,43.601961,-79.545758,POINT (-79.54575799999998 43.601961)
Main Drug Mart,1315 Finch Ave West Suite 117,Toronto,M3J 2G6,43.751259,-79.54618,POINT (-79.54618000000001 43.75125900000001)
Shoppers Drug Mart,2550 Finch Avenue West,Toronto,M9M 2G3,43.751259,-79.54618,POINT (-79.54618000000001 43.75125900000001)
Sherbourne Pharmacy,26-2300 Finch Ave West,Toronto,M9M 2Y3,43.75147,-79.54867,POINT (-79.54867 43.75147)
Islington Discount Pharmacy,201-2304 Islington Ave,Toronto,M9W 3W9,43.718417,-79.556672,POINT (-79.55667199999998 43.718417)
Rexall,190 Sherway Dr,Toronto,M9C 5N2,43.608672,-79.560329,POINT (-79.56032900000002 43.608672)
Shoppers Drug Mart,900 Albion Rd,Toronto,M9V 1A5,43.73511,-79.56088,POINT (-79.56088000000003 43.73511)
St. Joseph Pharmacy,2930 Islington Avenue,Toronto,M9L 2K5,43.75651,-79.56973,POINT (-79.56973000000001 43.75651)
New Care Pharmacy,56 Westmore Dr,Toronto,M9V 1C3,43.739893,-79.603732,POINT (-79.60373199999999 43.739893)
Dunbloor Medical Pharmacy,5115 Dundas Street West,Toronto,M9A 1C1,43.27184,-80.01323,POINT (-80.01323000000002 43.27184000000001)
Green Pharmacy,620A Bloor Street West,Toronto,M6G 1K7,46.49946,-81.00068,POINT (-81.00068 46.49946)
Shoppers Drug Mart,360A Bloor Street West,Toronto,M5S 1X1,46.49946,-81.00068,POINT (-81.00068 46.49946)
Medicine Cabinet Lakeshore Pharmacy,2081 Lakeshore Blvd West,Toronto,M8V 3Z4,42.19533,-82.81387,POINT (-82.81386999999999 42.19533)
