Name,Address,City,Postcode,Latitude,Longitude
99 Pharmacy,436 Dundas Street W.,Toronto,M5T 1G7,43.65325,-79.39567
Action Pharmacy,101-2425 Bloor Street West,Toronto,M6S 4W4,43.649192,-79.483458
Albion Finch Pharmacy,"6230 Finch Ave West, Unit A102",Toronto,M9V 0A1,43.73682,-79.30764
Allcures Pharmacy,31 St. Dennis Drive. Suite #1,Toronto,M3C 1G7,43.718572,-79.329585
Apex Drug Mart,90 Eglinton Ave. East,Toronto,M4P 2Y3,43.70763,-79.395903
Apollon Pharmacy,698 Danforth Avenue,Toronto,M4J 1L1,43.679409,-79.34384
Apotheca Compounding Pharmacy,417 Spadina Road,Toronto,M5P 2W3,43.688859,-79.412451
Ash Medical Pharmacy,2900 Eglinton Ave East,Toronto,M1J 2E4,43.739977,-79.23326
Ashdale Pharmacy,1568 Queen Street E,Toronto,M4L 1E9,43.666089,-79.318813
Augusta Central Pharmacy,1-360 College Street,Toronto,M5T 1S6,43.657379,-79.404447
Austins Drug Mart,4235 Sheppard Ave East Unit 108,Toronto,M1S 1T7,43.761553,-79.410695
Ava Pharmacy,81 St Clair Ave East,Toronto,M4T 1M7,43.68892,-79.39019
Ayda Pharmacy,1801 Eglinton Avenue W.,Toronto,M6E 2H8,43.694972,-79.453456
Pharmachoice Parkdale,15 Roncesvalles Ave,Toronto,M6R 2K3,43.63936,-79.44598
B.Well Pharmacy,262 Manitoba St,Toronto,M8Y 4G9,43.623966,-79.489719
Balmoral Chemists,1366 Yonge St.,Toronto,M4T 3A7,43.686039,-79.393592
Beech Medical Pharmacy,855 Kingston Road,Toronto,M4E 1R9,43.680112,-79.290892
Ben Medical Pharmacy Inc,1-935 Sheppard Ave West,Toronto,M3H 2T7,43.751178,-79.459019
Bio Pharmacy,1177 St. Clair Avenue W.,Toronto,M6E 1B5,43.677628,-79.443455
Blair Court Pharmacy,2364349 Ontario Inc 266 Donlands Ave,Toronto,M4J 5B1,43.68966,-79.34191
Bloom Pharmacy,1A-170 Fort York Blvd,Toronto,M5V 0E6,43.63939,-79.39979
Bloor Dundas Pharmacy,2333 Dundas Street W,Toronto,M6R 3A6,43.655895,-79.452645
Bloor Medical Pharmacy,1062 Bloor Street West,Toronto,M6H 1M3,43.660727,-79.432851
Bloor Park Pharmacy,728 Bloor St West,Toronto,M6G 1L4,43.663793,-79.418204
Bloor St Pharmacy,849 Bloor Street W.,Toronto,M6G 1M3,43.662208,-79.423691
Bloor West Pharmacy,2262 Bloor Street West,Toronto,M6S 1N9,43.650983,-79.478043
Bloorcourt Pharmacy,936 Bloor Street W.,Toronto,M6H 1L4,43.661764,-79.427737
Bloor-Sherbourne Pharmacy,608 Sherbourne Street,Toronto,M4X 1X6,43.672018,-79.376897
Blue Sky Pharmacy,1176-A St Clair Ave West,Toronto,M6E 1B4,43.67782,-79.44266
Briarhill Pharmacy,63-2700 Dufferin Street,Toronto,M6B 4J3,43.701713,-79.453993
Broadon Pharmacy,607 Gerrard Street E.,Toronto,M4M 1Y2,43.66595,-79.35119
Broadview Medical Pharmacy,743 Broadview Ave,Toronto,M4K 2P6,43.67579,-79.358097
Brock Medical Pharmacy,1637 Dundas Street West,Toronto,M6K 1V2,43.649783,-79.436267
C C Pharmacy,1351 Yonge Street,Toronto,M4T 1X9,43.686104,-79.393004
Cabbagetown Pharmacy,457 Parliament Street,Toronto,M5A 3A3,43.6637,-79.3674
Cadence Apothecary,200 Spadina Ave,Toronto,M5T 2C2,43.650308,-79.397337
Camh Pharmacy,1001 Queen St W,Toronto,M6J 1H4,43.64403,-79.41809
Canadian Addiction Treatment Pharmacy,100-1111 Finch Avenue West,Toronto,M3J 2E5,43.71851,-79.41466
Canadian Compounding Pharmacy Meds,2920 Bloor St W,Toronto,M8X 1B6,43.65197,-79.40699
Canes Community Pharmacy,135 Queens Plate Drive,Toronto,M9W 6V1,43.64366,-79.36916
Care And Health Pharmacy,2928 Danforth Ave,Toronto,M4C 1M1,43.69236219,-79.2833792
Central Weston Pharmacy,2105 Weston Rd,Toronto,M9N 1X7,43.70231,-79.52417
Charles Pharmacy,1204 King St W,Toronto,M6K 1G4,43.63911,-79.42773
Christie Pharmacy,697 St-Clair Ave West,Toronto,M6C 1B2,43.681421,-79.426185
City Pharmacy,238 Danforth Avenue,Toronto,M4K 1N4,43.677148,-79.355409
Clair Gardens Pharmacy,1263 St. Clair Avenue W.,Toronto,M6E 1B8,43.676969,-79.446646
Clairhurst Medical Pharmacy,109-1466 Bathurst St,Toronto,M5R 3S3,43.68278,-79.41835
Clairwood Drug Mart,942 St. Clair Avenue W,Toronto,M6C 1C8,43.679929,-79.435427
Cloud Pharmacy,55 Dundas St E,Toronto,M5B 1C6,43.65595,-79.37871
College Centre Pharmacy Ii,528 College Street,Toronto,M6G 1A6,43.656077,-79.410932
College Drug Mart,673 College St,Toronto,M6G 1B9,43.655007,-79.417127
College Medical Pharmacy,101-474 College St.,Toronto,M6G 1A4,43.656401,-79.409337
Community Choice Pharmacy Black Creek,5-2202 Jane St,Toronto,M3M 1A4,43.72168,-79.51059
Community Choice Pharmasave,1892 Davenport Rd,Toronto,M6N 1B7,43.67089,-79.45466
Cosmo Pharmacy,3101 Bloor St. West,Toronto,M8X 2W2,43.646011,-79.517431
Coxwell Pharmacy,688 Coxwell Avenue,Toronto,M4C 3B7,43.682634,-79.323698
Crescent St Pharmacy,2688 Danforth Ave,Toronto,M4C 1L7,43.689049,-79.298836
Cure Pharmacy,108-1585 Markham Rd,Toronto,M1B 2W1,43.788362,-79.23656
Dalecliff Medical Pharmacy,2-209 Ellesmere Rd,Toronto,M1R 4E2,43.762347,-79.295984
Dales Pharmacy,572 Parliament St,Toronto,M4X 1P8,43.66752,-79.36964
Danforth Central Pharmacy,1188 Danforth Avenue,Toronto,M4J 1M3,43.681593,-79.332551
Danforth Drug Mart,1871 Danforth Ave,Toronto,M4C 1J3,43.684499,-79.317274
Danforth Main Pharmacy,2575 Danforth Ave E,Toronto,M4C 1L5,43.688201,-79.30032
Danforth Medical Pharmacy,1156 Danforth Ave,Toronto,M4J 1M3,43.681495,-79.333376
Danforth Neighbourhood Pharmacy Care,2416 Danforth Ave,Toronto,M4C 1K9,43.687752,-79.305023
Danny'S Drugstore Inc,2284 Kingston Road,Toronto,M1N 1T9,43.70629,-79.251154
Darcy 2 Pharmacy,315 Spadina Ave,Toronto,M5T 2E9,43.65422,-79.39815
Datu'S Pharmacy,103-2238 Dundas Street West,Toronto,M6R 3A9,43.654385,-79.451499
Davenport Pharmacy,219 Davenport Rd. Unit 115,Toronto,M5R 1J3,43.696991,-79.285387
Davisville Pharmacy,4-1901 Yonge Street,Toronto,M4S 1Y6,43.698131,-79.396253
Dawes Drug Mart,424 Dawes Road,Toronto,M4B 2E9,43.701694,-79.297262
Delisle Pharmacy,1560 Yonge Street Upper Court Level,Toronto,M4T 2S9,43.689687,-79.39513
Delray Pharmacy,2812 Bathurst St,Toronto,M6B 3A6,43.713279,-79.428665
Demarco Pharmacy,2394 Keele St,Toronto,M6M 4A5,43.708653,-79.478052
Dom'S Pharmacy,3630 Victoria Park Ave.,Toronto,M2H 3B2,43.80714,-79.33875
Don Russell Drug Mart,2891 Lakeshore Blvd W,Toronto,M8V 1J1,43.60082,-79.503908
Don Valley Pharmacy,855 Broadview Ave,Toronto,M4K 2P9,43.6796,-79.35786
Downsview Park Pharmacy,100-2830 Keele Street,Toronto,M3M 3E5,43.730508,-79.483443
Downtown Dispensary Ii,1678 Dufferin Street,Toronto,M6H 3M1,43.677594,-79.443199
Drug Centre Discount Pharmacy,1473 Eglinton Ave W,Toronto,M6E 2G6,43.69807,-79.43923
Drug Store Pharmacy,17 Leslie Road,Toronto,M4M 3H9,43.660908,-79.328999
Drug Store Pharmacy,650 Dupont Street,Toronto,M6G 1Z2,43.672149,-79.421002
Drug Store Pharmacy,10 Lower Jarvis,Toronto,M5E 1Z9,43.64449,-79.36988
Drug Store Pharmacy,2280 Dundas Street W.,Toronto,M6R 1X4,43.65492,-79.45243
Drug Store Pharmacy,449 Carlaw Ave,Toronto,M4K 3H9,43.668303,-79.342753
Drugs Basics Pharmacy,1068 Danforth Avenue,Toronto,M4J 1M2,43.681062,-79.335646
Drugstore Pharmacy,50 Musgrave St,Toronto,M4E 3W2,43.68836,-79.28822
Drugstore Pharmacy,3671 Dundas St. West,Toronto,M6S 2T3,43.66587,-79.48593
Drugstore Pharmacy,700 Lawrence Ave W,Toronto,M6A 3B4,43.715932,-79.44497
Drugstore Pharmacy,985 Woodbine Avenue,Toronto,M4V 4B8,43.68686,-79.31302
Drugstore Pharmacy,222 Lansdowne Ave,Toronto,M6K 3C6,43.64956,-79.4407
Drugstore Pharmacy,1450 Lawrence Ave E,Toronto,M4A 2S8,43.741791,-79.313349
Drugstore Pharmacy,25 Photography Drive,Toronto,M6M 0A1,43.68678,-79.48377
Drugstore Pharmacy,1591 Wilson Avenue,Toronto,M3L 1A5,43.719818,-79.509437
Drugstore Pharmacy,1020 Islington Avenue,Toronto,M8Z 4R3,43.63428,-79.51984
Drugtown Pharmacy,1500 Royal York Road,Toronto,M9P 3B6,43.693136,-79.531393
Dufferin Central Pharmacy,1649 Dufferin St,Toronto,M6H 3L9,43.677305,-79.442501
Dufferin Drug Mart Pharmacy,1670 Dufferin St,Toronto,M6H 3M2,43.677414,-79.443249
Dufferin Finch Pharmacy,C1-2 Champagne Drive,Toronto,M3J 2C5,43.766427,-79.47234
Dufferin Medical Pharmacy,2045 Dufferin St,Toronto,M6E 3R4,43.686443,-79.446203
Duke Pharmacy,2798 Dundas St. W,Toronto,M6P 1Y5,43.665558,-79.462726
Dunbloor Medical Pharmacy,5115 Dundas Street West,Toronto,M9A 1C1,43.27184,-80.01323
Dundas Euclid Pharmacy,828 Dundas Street West,Toronto,M6J 1V3,43.651792,-79.409397
Dunn Pharmacy,1386 Queen Street West,Toronto,M6K 1L7,43.641434,-79.433671
Eagle Manor Pharmacy,1901 Weston Road Unit 19,Toronto,M9N 3P5,43.70057,-79.51667
Eglinton Bathurst Pharmacy,856 Eglinton Ave W,Toronto,M6C 2B6,43.701129,-79.426037
Eglinton Discount Drugs,1774 Eglinton Avenue West Main Floor,Toronto,M6E 2H6,43.694972,-79.453456
Eglinton Medical Pharmacy,2010 Eglinton Avenue West,Toronto,M6E 2K3,43.694972,-79.453456
Family Care Pharmacy,5-1209 King Street West,Toronto,M6K 1G2,43.638865,-79.426833
Finch-Leslie Pharmacy,149C Ravel Road,Toronto,M2H 1T1,43.794325,-79.325958
Forest Hill Pharmacy,102-491 Eglinton Ave W,Toronto,M5N 1A8,43.70346,-79.41285
Friendly Care King West Pharmacy,2077 Weston Road,Toronto,M9N 1X7,43.702157,-79.522441
Front Street Pharmacy,431 King Street East,Toronto,M5A 1L5,43.65353,-79.361576
Genix Pharmacy,3094 Danforth Avenue,Toronto,M1L 1B1,43.692118,-79.284461
Geriat Rx Pharmacy,53 The Links Road Suite 200,Toronto,M2P 1T7,43.698697,-79.286093
Gerrard Street Pharmacy,247 Coxwell Ave,Toronto,M4L 3B4,43.672612,-79.318979
Get Well Pharmacy,1278 The Queensway,Toronto,M8Z 1S3,43.62135,-79.52658
Glen George Ida,1118 Victoria Park Ave,Toronto,M4B 2K3,43.707937,-79.296247
Glen Manor Pharmacy,116 Glen Manor Drive,Toronto,M4E 2X2,43.67437,-79.37575
Glengrove Pharmacy,2760 Yonge St,Toronto,M4N 2J2,43.71867,-79.40123
Glenholme Pharmacy,896 St. Clair Ave W,Toronto,M6C 1C5,43.6804,-79.433223
Golden Gate Pharmacy,939 O'Connor Drive,Toronto,M4B 2S7,43.707704,-79.311181
Green Medical Pharmacy,1705 St Clair Avenue West,Toronto,M6N 1J2,43.674062,-79.459406
Green Pharmacy,620A Bloor Street West,Toronto,M6G 1K7,46.49946,-81.00068
Greendale Drugs,152 Carlton St.,Toronto,M5A 2K1,43.6631,-79.37457
Greenwood Pharmacy,1285 Gerrard St East,Toronto,M4L 1Y5,43.670753,-79.328201
Haber'S Compounding Pharmacy,1584 Bathurst St,Toronto,M5P 3H3,43.68677,-79.42028
Harbourfront Medicine Cabinet,#1-8 York Street,Toronto,M5J 2Y2,43.6405,-79.38081
Health Care Mart,1173 Queen St W,Toronto,M6J 1J4,43.64259,-79.426012
Health Choice Pharmacy,449 Queen St W,Toronto,M5V 2A9,43.64849,-79.3969
Health Drug Mart,105 Parkway Forest Dr,Toronto,M2J 1L8,43.774126,-79.341835
Health Drug Mart,70 Forest Manor Rd,Toronto,M2J 0A9,43.774431,-79.344259
Healthshield Pharmacy,2-589 King Street East,Toronto,M5A 1M6,43.656428,-79.35647
Healthshield Pharmacy,939 O'Connor Drive,Toronto,M4B 2S7,43.707704,-79.311181
Hellenic Pharmacy,374 Danforth Avenue,Toronto,M4K 1N8,43.677857,-79.352214
Heritage Pharmacy,1488 Danforth Avenue,Toronto,M4J 1N4,43.683129,-79.325735
High Park Pharmacy,1938 Bloor Street W.,Toronto,M6P 3K8,43.653442,-79.466793
Hilary'S Pharmacy,811 Dundas Street W.,Toronto,M6J 1V4,43.651618,-79.40865
Homa Pharmacy,2698 Jane Street,Toronto,M3L 1S5,43.743118,-79.514126
Hooper'S Pharmacy,2124 Queen Street East,Toronto,M4E 1E3,43.671543,-79.293932
Howard Pharmacy,25 Howard Street,Toronto,M4X 1J6,43.671107,-79.375062
Hui'S Pharmasave,280 Spadina Ave,Toronto,M5T 3A5,43.65252,-79.39858
Humber Bay Pharmacy,2240 Lakeshore Blvd,Toronto,M8V 0B1,43.62123,-79.48332
Hurst Guardian Pharmacy,419 Donlands Avenue,Toronto,M4J 3S2,43.694451,-79.342714
Icare Discount Pharmacy,6-1577 Danforth Ave,Toronto,M4C 1H7,43.68318,-79.32304
Icare Pharmacy Services,26-2 Thorncliffe Park Dr.,Toronto,M4H 1H2,43.7066,-79.35149
Infinity Health Pharmacy,35 Lower Simcoe Street,Toronto,M5J 3A6,43.64194,-79.38357
International Pharmacy,1218 King Street W.,Toronto,M6K 1G4,43.639066,-79.42817
Islington Discount Pharmacy,201-2304 Islington Ave,Toronto,M9W 3W9,43.718417,-79.556672
Islington Ida Pharmacy,2428 Islington Ave,Toronto,M9W 3X8,43.781669,-79.320153
Islington Medical Pharmacy,1243 Islington Avenue Suite 103,Toronto,M8X 1Y9,43.64594,-79.52351
J.C. Pharmacy,1A- 3685 Keele St,Toronto,M3J 3H6,43.7534,-79.48812
Jamestown Pharmacy,5- 225 Wellesley Street East,Toronto,M4X 1X8,43.667325,-79.372738
Jane Park Plaza Pharmacy,873 Jane St.,Toronto,M6N 4C4,43.72192,-79.29603
Jane Wilson Pharmacy,2111 Jane St Unit # 3,Toronto,M3M 1A2,43.66914,-79.3859
Janedal Pharmacy,3-965 Jane Street,Toronto,M6N 4E1,43.680818,-79.497169
Jarvis St. Apothecary,275 Jarvis St,Toronto,M5B 2P2,43.658254,-79.374723
Jimmy'S Pharmacy,255 Broadview Ave.,Toronto,M4M 2G6,43.66292,-79.35134
John & Jack Pharmacy,787 Lawrence Ave West,Toronto,M6A 1C2,43.714342,-79.452349
Junction Pharmacy,3016 Dundas St W,Toronto,M6P 1Z3,43.66567,-79.46995
Kassel'S Pharmacy,396 Royal York Road,Toronto,M8Y 2R5,43.61939,-79.500039
Keele & Rogers Pharmacy,D5-605 Rogers Road,Toronto,M6M 1B9,43.681619,-79.474513
Kingsway Drugs,114 Cumberland Street,Toronto,M5R 1A6,43.67033,-79.39162
Klh Pharmacy,4113-A Lawrence Avenue E,Toronto,M1E 2S2,43.765155,-79.200732
Konop Chemists Ltd,208 Bloor St W,Toronto,M5S 3B4,43.66892,-79.39589
L. & A. Pharmacy,1485 Gerrard St E,Toronto,M4L 2A4,43.672383,-79.320007
L. Leone Pharmacy,1615 Dufferin St,Toronto,M6H 3L9,43.67663,-79.44228
Lakefront Medical Pharmacy,14-550 Queens Quay West,Toronto,M5V 3M8,43.637186,-79.396155
Lakeside Pharmacy,2438 Lakeshore Blvd West,Toronto,M8V 1C4,43.61409,-79.48919
Lawrence Heights Phamily Pharmacy,12 Flemington Road,Toronto,M6A 2N4,43.71952,-79.44481
Lawrence Medical Pharmacy,4-1575 Lawrence Ave West,Toronto,M6L 1C3,43.705635,-79.49007
Lawrence Pharmachoice,5-2013A Lawrence Ave West,Toronto,M9N 0A3,43.71921,-79.43007
Lawrence-Victoria Pk Pharmacy,1723 Lawrence Ave E.,Toronto,M1R 2X7,43.745115,-79.295902
Leaside Community Pharmacy,795 Eglinton Avenue E.,Toronto,M4G 4E4,43.711242,-79.378653
Lefko Drugs,842 Wilson Avenue,Toronto,M3K 1E5,43.730812,-79.467384
Leslie Grove Pharmacy,1176 Queen Street E.,Toronto,M4M 1L4,43.66303,-79.33212
Liberty Market Pharmacy,"171 East Liberty Street, Unit 102 ",Toronto,M6K 3P6,43.63878,-79.41631
Life Trust Pharmacy,201-125 Norfinch Dr,Toronto,M3N 1W8,43.756916,-79.525639
Lily Pharmacy,9-2721 Jane Street,Toronto,M3L 1S3,43.740692,-79.513259
Lingeman Pharmacy,411 Jane St,Toronto,M6S 3Z6,43.65875,-79.48792
Lmc Pharmacy,107-1929 Bayview Avenue,Toronto,M4G 3E8,43.715993,-79.377546
Loblaw Pharmacy,585 Queen Street West,Toronto,M5V 2B7,43.647554,-79.401596
Loblaw Pharmacy,60 Carlton Street,Toronto,M5B 1L1,43.66217,-79.37927
Loblaw Pharmacy,5095 Yonge Street,Toronto,M2N 6Z4,43.767355,-79.41271
Loblaw Pharmacy,Loblaws Division 2877 Bayview Avenue,Toronto,M2K 2S3,43.768619,-79.387295
Loblaw Pharmacy,51 Gerry Fitzgerald Dr,Toronto,M3J 3N4,43.78483,-79.47151
Loblaw Pharmacy,Loblaws Rcss Division 825 Don Mills Road,Toronto,M3C 1V4,43.720218,-79.338305
Loblaw Pharmacy,Loblaws Supermarket 11 Redway Road,Toronto,M4H 1P6,43.70157,-79.3589
Loblaw Pharmacy,Loblaws Div 396 St Clair Ave West,Toronto,M4P 3N3,43.69097,-79.38171
Loblaw Pharmacy,2549 Weston Road,Toronto,M9N 2A7,43.709959,-79.533854
Loblaw Pharmacy,200 Front Street East,Toronto,M5A 4T9,43.65053,-79.36616
Lord'S Pharmacy,225 Wellesley St,Toronto,M4X 1X8,43.66733,-79.37274
M&D Sheppard Pharmacy,2-872 Sheppard Ave W,Toronto,M3H 5V5,43.751178,-79.459019
Main Drug Mart,1169 Dundas St West,Toronto,M6J 2Z9,43.64944,-79.42211
Main Drug Mart,1315 Finch Ave West Suite 117,Toronto,M3J 2G6,43.751259,-79.54618
Main Drug Mart,1473 Danforth Ave.,Toronto,M4J 1N5,43.682602,-79.325954
Main Drug Mart,2160 Weston Road,Toronto,M9N 1X6,43.702857,-79.525458
Main Drug Mart,25 Overlea Blvd #4,Toronto,M4H 1P9,43.704954,-79.350046
Main Drug Mart,2536 Keele Street,Toronto,M6L 2N8,43.715278,-79.479853
Main Drug Mart,3245 Finch Ave. East,Toronto,M1W 4C1,43.795845,-79.319301
Main Drug Mart,3265 Bayview Avenue,Toronto,M2K 1G4,43.791613,-79.393023
Main Drug Mart,61 Queen St East,Toronto,M5C 2T2,43.652826,-79.376288
Main Drug Mart,658 Danforth Ave Unit 102,Toronto,M4J 5B9,43.68778,-79.30205
Main Drug Mart,7-1646 Victoria Park Avenue,Toronto,M1R 1P7,43.730376,-79.304987
Main Drug Mart,844 Bathurst St,Toronto,M5R 3G1,43.66628,-79.41205
Main Drug Mart,2772 Danforth Avenue,Toronto,M4C 1L7,43.689551,-79.296986
Main Drug Mart,410 Sherbourne Street,Toronto,M4X 1K2,43.66484,-79.37347
Main Drug Mart,2091 Danforth Avenue,Toronto,M4C 1K1,43.685556,-79.312324
Main Drug Mart,1-399 Church St,Toronto,M5B 2J6,43.66179,-79.37894
Main Drug Mart,5 The Market Place,Toronto,M4C 5M2,43.69601,-79.29212
Main Drug Mart,6-943 O'Connor Drive,Toronto,M4B 2S7,43.707974,-79.310629
Main Drug Mart,2558 Danforth Ave,Toronto,M4C 1L3,43.688471,-79.30177
Main Drug Mart,521 Victoria Park Ave,Toronto,M4C 5H1,43.690074,-79.287622
Main Drug Mart,1 Oak Street Unit 1 & 2,Toronto,M5A 0A1,43.664906,-79.351921
Main Drug Mart,140 The Esplanade,Toronto,M5A 4P5,43.64856,-79.37026
Main Drug Mart,1130 Bloor St West,Toronto,M6H 1M8,43.660116,-79.43509
Maple Leaf Medical Pharmacy,14 College St,Toronto,M5G 1K2,43.66149,-79.38394
Margis Pharmacy,408 Roncesvalles Ave,Toronto,M6R 2M9,43.65135,-79.45129
Market St. Pharmacy,149 Augusta Avenue,Toronto,M5T 2L4,43.652669,-79.401086
Markie Pharmacy,1235 Bay Street,Toronto,M5R 3K4,43.670888,-79.389643
Markland Wood Pharmacy,4335 Bloor Street West,Toronto,M9C 2A5,43.6476,-79.50954
Marshall'S Drug Store,412 Summerhill Avenue,Toronto,M4W 2E4,43.68617,-79.37624
Medcentral Pharmacy,20 Drewry Ave,Toronto,M2M 1C8,43.78714,-79.4183
Medi Choice Pharmacy,842 Gerrard St. E Unit 2,Toronto,M4M 1Y7,43.667815,-79.343307
Medical Pharmacy,340 College Street,Toronto,M5T 3A9,43.657581,-79.403464
Medicare Pharmacy,B109-3341 Markham Rd,Toronto,M1X 0A5,43.835359,-79.251232
Medicine Cabinet Lakeshore Pharmacy,2081 Lakeshore Blvd West,Toronto,M8V 3Z4,42.19533,-82.81387
Medimost Pharmacy Inc,2883 Danforth Avenue,Toronto,M4C 1M3,43.689662,-79.294551
Medi-Place Pharmacy,3300 Bloor Street W Suite #146,Toronto,M8X 2W8,43.64825,-79.50636
Medi-Place Pharmacy,1A-622 College Street,Toronto,M6G 1B4,43.65484,-79.41495
Medisystem,3-75 Lesmill Road,Toronto,M3B 2T8,43.759122,-79.356421
Medsexpert Pharmacy,461 Church St,Toronto,M4Y 2C5,43.66426,-79.37999
Metro Drugs,320 Scarlett Rd,Toronto,M9A 4S4,43.682253,-79.510518
Metro Drugs,129 Dundas St East,Toronto,M5B 2N6,43.65671,-79.37643
Metro Drugs,1290 Bloor St West,Toronto,M6H 1N9,43.658821,-79.442111
Metro Medical Pharmacy,351 Christie St.,Toronto,M6G 3C2,43.67339,-79.42117
Metro Pharmacy,3221 Eglinton Avenue E.,Toronto,M1J 2H7,43.742831,-79.220546
Metro Pharmacy,16 William Kitchen Blvd,Toronto,M1P 5B7,43.771079,-79.28176
Metro Pharmacy,3003 Danforth Avenue,Toronto,M4C 1M9,43.690307,-79.293458
Metro Pharmacy,80 Front St East,Toronto,M5E 1T4,43.649498,-79.37295
Metro Pharmacy,100 Lynn Williams St,Toronto,M6K 3N6,43.63996,-79.41787
Metro Pharmacy,2155 St. Clair Ave West,Toronto,M6N 1K5,43.669651,-79.473174
Metropolitan Pharmacy,4G Spadina Ave,Toronto,M5V 3Z9,43.67474,-79.37619
Mobarak Guardian Pharmacy,28 Overlea Blvd,Toronto,M4H 1B6,43.70554,-79.35001
Morelli'S Pharmacy,93 Laird Drive,Toronto,M4G 3T7,43.706138,-79.361782
Morelli'S Pharmacy,15 York Street,Toronto,M5J 0A3,43.642348,-79.380871
Moss Park Pharmacy,325 Queen Street East,Toronto,M5A 1S9,43.655222,-79.365344
Mount Pleasant Pharmacy,245 Eglinton Avenue E.,Toronto,M4P 1L2,43.708261,-79.389548
Mp Specialty Pharmacy,290 Shuter Street-2Nd Floor,Toronto,M5A 1W7,43.65699,-79.36558
Murray Shore Pharmacy,3537 Bathurst Street,Toronto,M6A 2C7,43.729851,-79.431834
Nations Pharmacy,1980 St Clair Avenue W,Toronto,M6N 0A3,43.672204,-79.470618
New Caledonia Pharmacy,600 Caledonia Rd,Toronto,M6E 4V6,43.68957,-79.46114
New Care Pharmacy,56 Westmore Dr,Toronto,M9V 1C3,43.739893,-79.603732
New Day Danforth Pharmacy,1288 Danforth Avenue,Toronto,M4J 1M6,43.682185,-79.33024
New Era Pharmacy,2163 Danforth Avenue,Toronto,M4C 1K2,43.685951,-79.310762
Newe Towne Medical Pharmacy,102-3420 Finch Ave E,Toronto,M1W 2R6,43.79738,-79.31278
Nhatrang Drug Mart,790 Wilson Ave,Toronto,M3K 1E2,43.731292,-79.465122
North Park Medical Pharmacy,D2-2355 Keele Street,Toronto,M6M 4A1,43.707675,-79.477478
Northcliffe Pharmacy,1751 Eglinton Ave W,Toronto,M6E 2H7,43.694972,-79.453456
Northern Rx Medical Pharmacy,201-418 Eglinton Ave West,Toronto,M5N 1A2,43.704286,-79.411062
Nova Pharmacy,1674 Dufferin St,Toronto,M6H 3M1,43.67749,-79.44325
Oakwood Pharmacy,332 Oakwood Ave,Toronto,M6E 2V9,43.68676,-79.438664
Old Park Pharmacy,1042 Eglinton Ave West,Toronto,M6C 2C5,43.70018,-79.43043
Omni Pharmacy,799 Bloor St W,Toronto,M6G 1L8,43.662717,-79.42135
On Care Pharmacy,481 Dundas Street West,Toronto,M5T 1H1,43.653001,-79.39725
One Community Pharmacy,347 Spadina Ave,Toronto,M5T 2G3,43.65528,-79.39867
One Medical Pharmacy,102-20 Wynford Dr,Toronto,M3C 1J4,43.72397,-79.33633
One Pharmacy,5292 Yonge Street,Toronto,M2N 5P9,43.772414,-79.414043
Ossington Medical Pharmacy,836 Bloor Street West,Toronto,M6G 1M2,43.662584,-79.423793
Pace Pharmacy,14 Isabella St,Toronto,M4Y 1N1,43.66793,-79.38509
Pape Drug Mart,751 Pape Ave,Toronto,M4K 3T1,43.680315,-79.345074
Parkdale Guardian Drugs,1488 Queen St West,Toronto,M6K 1M4,43.64066,-79.43772
Parkdale Pharmacy,1439 King St West,Toronto,M6K 1H9,43.63755,-79.43285
Parkside Remedy Rx,1640 Bloor St W,Toronto,M6P 1A7,43.655692,-79.45649
Parliament Pharmacy,402 Parliament St,Toronto,M5A 2Z7,43.661769,-79.367266
Peoples Choice Remedy'S Rx,1145 Morningside Av. Unit #16,Toronto,M1B 0A7,43.808538,-79.202533
Peoples Drug Mart,491 Lawrence Ave West,Toronto,M5M 1C7,43.718804,-79.431663
Peoples Drug Mart,294 Main Street,Toronto,M4C 4X5,43.68782,-79.30198
Pharma Centre Pharmacy,2299 Dundas Street W,Toronto,M6R 1X7,43.655557,-79.452653
Pharma Plus,23-55 Bloor St W,Toronto,M4W 1A5,43.669641,-79.388688
Pharma Plus,288 Sheppard Ave,Toronto,M2N 3B1,43.76533,-79.392786
Pharma Plus,325 Moore Ave,Toronto,M4G 3T6,43.696969,-79.369508
Pharma Plus,3402 Yonge St,Toronto,M4N 2M9,43.733021,-79.404505
Pharma Plus,C216-777 Bay St,Toronto,M5G 2C8,43.66064,-79.38538
Pharmacare Drug Mart,959 Broadview Avenue,Toronto,M4K 2R5,43.682707,-79.357026
Pharmacia Seifein Pharmacy,553 St Clair Ave West,Toronto,M6C 1A3,43.68292,-79.41949
Pharma-Cita,4810 Sheppard Ave East Unit 224,Toronto,M1S 4N6,43.78231,-79.29363
Pharmacy By The Grange,Unit 9 & 10 275 Dundas Street W.,Toronto,M5T 1G1,43.654305,-79.390455
Pharmacy Zen,6-4234 Lawrence Ave E,Toronto,M1E 2S5,43.769575,-79.180966
Pharmacy.Ca,311 Sherbourne Street,Toronto,M5A 3Y1,43.66148,-79.37186
Pharmadocs,199 Church St. Lower Level,Toronto,M5B 1Y7,43.655703,-79.376497
Pharmadocs,4972 Dundas Street West,Toronto,M9A 1B7,43.647468,-79.530264
Pharmakeio Guardian,5-1260 Kennedy Road,Toronto,M1P 2L3,43.760539,-79.28
Pharmasave,1018 Pape Avenue,Toronto,M4K 3V9,43.689007,-79.349019
Pharmasave,1021 Kingston Road,Toronto,M4E 1T5,43.68063,-79.28476
Pharmasave,"150 Wynford Drive, Unit 115 ",Toronto,M3C 1K6,43.727218,-79.326641
Phil-Way Pharmacy,1700 Eglinton Ave East Unit A3,Toronto,M4A 2X4,43.707042,-79.397974
Phil-Way Pharmacy,A3-1700 Eglinton Ave East,Toronto,M4A 2X4,43.72604,-79.31314
Premier Pharmacy & Compounding Centre,3323 Bathurst St,Toronto,M6A 2B7,43.725412,-79.430944
Prescription Care Centre St. Michael'S Hospital,30 Bond St #1038 Queen Wing,Toronto,M5B 1W8,43.65366,-79.37768
Princess Margaret Hospital Outpatient Pharmacy,610 University Avenue Rm M633,Toronto,M5G 2M9,43.65542,-79.38917
Procare Ida Pharmacy,795 Broadview Ave,Toronto,M4K 2P8,43.67771,-79.35832
Procare Pharmacy,2-3551 Sheppard E,Toronto,M1T 3K8,43.76201,-79.41045
Progress Medical Pharmacy,1-1939 Kennedy Rd,Toronto,M1P 2L9,43.770307,-79.28265
Prohealth Pharmacy,343 Coxwell Ave Unit #3,Toronto,M4L 3B5,43.675207,-79.319929
Providence Pharmacy Providence Healthcare,3276 St. Clair Ave,Toronto,M1L 1W1,43.67474,-79.37619
R. K. Pharmacy,302 Spadina Avenue Suite 101,Toronto,M5T 2E7,43.65528,-79.39867
Raxlen Pharmacy,343 College St,Toronto,M5T 1S9,43.65712,-79.40324
Regency Pharmacy,101-2737 Keele Street,Toronto,M3M 2E9,43.72581,-79.48061
Remedy'S Rx Eglinton Bayview Compounding Pharmacy,586 Eglinton Ave East Suite 102,Toronto,M4P 1P2,43.70258,-79.4196
Remedy'S Rx Global Drug Mart,901 Bay St,Toronto,M5S 3K6,43.663305,-79.386448
Rexall,1 First Canadian Place Unit #Cn1038 ,Toronto,M5K 1C8,43.664481,-79.352034
Rexall,63 Wellesley St E,Toronto,M4Y 1G7,43.66544,-79.38132
Rexall,Yonge-Eglinton Centre 2300 Yonge St,Toronto,M4P 1E4,43.707158,-79.399084
Rexall,1245 Dupont St,Toronto,M6H 2A6,43.667518,-79.441757
Rexall,C001-2 St Clair Ave East,Toronto,M4T 2T5,43.688076,-79.394126
Rexall,600 University Avenue,Toronto,M5G 1X5,43.657536,-79.390445
Rexall,807 Broadview Ave,Toronto,M4K 2P8,43.67793,-79.3582
Rexall,539 Parliament Street,Toronto,M4X 1P7,43.66604,-79.36847
Rexall,1725 Avenue Rd,Toronto,M5M 3Y5,43.72839,-79.41832
Rexall,4789 Yonge Street Unit #2,Toronto,M2N 0G3,43.76311,-79.411333
Rexall,474 Spadina Ave,Toronto,M5T 2G8,43.65773,-79.40037
Rexall,250 University Ave,Toronto,M5H 3E5,43.65042,-79.38702
Rexall,87 Avenue Road,Toronto,M5R 3R9,43.6729,-79.39609
Rexall,3306 Keele Street,Toronto,M3M 2H7,43.743832,-79.486563
Rexall,63 Front Street East,Toronto,M5E 1B3,43.65053,-79.36616
Rexall,159 Yonge St,Toronto,M5C 1X7,43.65198,-79.37886
Rexall,88 Queens Quay West,Toronto,M5J 0B8,43.64055,-79.37846
Rexall,76 Grenville Street,Toronto,M5S 1B2,43.66136,-79.38647
Rexall,1235 Wilson Avenue,Toronto,M3M 0B2,43.724258,-79.489216
Rexall,1093 Queen Street West,Toronto,M6J 1J1,43.643256,-79.42266
Rexall,401 Yonge St.,Toronto,M5B 1S9,43.6594,-79.38188
Rexall,481 Bloor Street W,Toronto,M5S 1Y2,43.66523,-79.40968
Rexall,285 Spadina Avenue,Toronto,M5T 2E6,43.653233,-79.397618
Rexall,190 Sherway Dr,Toronto,M9C 5N2,43.608672,-79.560329
Rexall,Dundas St W,Toronto,M6K 1T8,43.655911,-79.381563
Rexall,Dufferin St,Toronto,M6E 3X7,43.726989,-79.457642
Rexall,249 Marlee Avenue Unit B,Toronto,M6B 4B8,43.705883,-79.442112
Rexall,3701 Lakeshore Blvd W,Toronto,M8W 1P8,43.593011,-79.538909
Rexall,393 Spadina Rd,Toronto,M5P 2W1,43.6885,-79.41238
Rexall,440 Browns Line,Toronto,M8W 3T9,43.601961,-79.545758
Rexall,595 Bay St Box 125,Toronto,M5G 2C2,43.656221,-79.383301
Rexall,901 Eglinton Ave W,Toronto,M6C 2C1,43.70049,-79.4275
Rexall,3607 Sheppard Ave E,Toronto,M1T 3K8,43.782003,-79.293909
Rexall,1113-1115 Wilson Ave,Toronto,M3M 1H2,43.726209,-79.482973
Rexall,120 Adelaide St W Unit R28,Toronto,M5H 1T1,43.65001,-79.3832
Rexall,200-200 Wellington St W Po Box 101,Toronto,M5V 3C7,43.645862,-79.38785
Rexall,3-345 Bloor St E,Toronto,M4W 3J6,43.671543,-79.377979
Rexall,660 Eglington Ave E,Toronto,M4G 2K2,43.70933,-79.38568
Rexall,Commerce Court West C186-199 Bay St,Toronto,M5L 1E7,43.64823,-79.37956
Rexall,Pharmacies Ltd 48 Yonge Street,Toronto,M5E 1G6,43.648009,-79.377764
Rexall,3560 Bathurst St,Toronto,M6A 2E1,43.730064,-79.434147
River Hill Pharmacy,2086 Lawrence Ave West Unit 1 & 2,Toronto,M9N 3Z9,43.701107,-79.512087
Rogers Road Pharmacy,576 Rogers Road,Toronto,M6M 1B6,43.682383,-79.471329
Rosedale Pharmacy,600 Sherbourne Street,Toronto,M4X 1W4,43.671632,-79.376877
Roya Boutique Pharmacy,75 Provost Drive,Toronto,M2K 0B7,43.770351,-79.371257
Royal Care Pharmacy,295 College Street,Toronto,M5T 1S2,43.657477,-79.40123
Rumball Drug Mart,553 Sammon Ave,Toronto,M4C 2E1,43.688643,-79.325594
Saba Pharmacy,547 St. Clair Ave W,Toronto,M6C 1A3,43.682434,-79.420612
Saigon Pharmacy,300 B Spadina Ave,Toronto,M5T 2E7,43.65322,-79.3986
Samm'S Pharmacy,324 Silverthorn Ave,Toronto,M6N 3K6,43.68265,-79.463467
Sam'S I.D.A. Pharmacy,101Y-1920 Yonge Street Po Box #30,Toronto,M4S 3E2,43.649779,-79.378509
Sanomed Pharmacy,1000 Bay Street,Toronto,M5S 3A8,43.66551,-79.38728
Sante Pharmacy,830 Yonge St 2Nd Floor,Toronto,M4W 2H1,43.67128,-79.387405
Sheppard Community Pharmacy,#102-5818 Sheppard Ave East,Toronto,M1B 4Z6,43.79614,-79.22753
Sherbourne Pharmacy,26-2300 Finch Ave West,Toronto,M9M 2Y3,43.75147,-79.54867
Shoppers Drug Mart,901 King Street West,Toronto,M5V 3H5,43.641881,-79.41125
Shoppers Drug Mart,463 College Street,Toronto,M6G 4C1,43.65604,-79.40848
Shoppers Drug Mart,399 Bathurst Street,Toronto,M5T 2S8,43.653095,-79.405688
Shoppers Drug Mart,4700 Keele Street,Toronto,M3J 1P3,43.74802,-79.4879
Shoppers Drug Mart,3446 Dundas St W,Toronto,M6S 2S1,43.665458,-79.48276
Shoppers Drug Mart,1840 Eglinton Avenue West,Toronto,M6E 2J4,43.694972,-79.453456
Shoppers Drug Mart,180 Danforth Ave,Toronto,M4K 1N1,43.6769,-79.35701
Shoppers Drug Mart,3366 Yonge Street,Toronto,M4N 2M7,43.732322,-79.404493
Shoppers Drug Mart,4990 Yonge Street,Toronto,M2N 0A1,43.765808,-79.412474
Shoppers Drug Mart,1473 Queen St W,Toronto,M6R 1A1,43.63991,-79.43904
Shoppers Drug Mart,1015 Lakeshore Boulevard East,Toronto,M4M 1B4,43.657983,-79.329916
Shoppers Drug Mart,292 Dupont Street,Toronto,M5R 1V9,43.674943,-79.407917
Shoppers Drug Mart,761 King Street West,Toronto,M5V 1N4,43.643062,-79.405852
Shoppers Drug Mart,1400 Dupont Street,Toronto,M6H 2B2,43.666727,-79.44749
Shoppers Drug Mart,101-1860 Bayview Ave,Toronto,M4G 0C3,43.714154,-79.377937
Shoppers Drug Mart,388 King St West,Toronto,M5V 1K2,43.64639,-79.39131
Shoppers Drug Mart ,390 Queens Quay West,Toronto,M5V 3A6,43.63833,-79.3887
Shoppers Drug Mart ,"565 Sherbourne St, Suite 40 ",Toronto,M4X 1W7,43.66997,-79.37543
Shoppers Drug Mart ,946 Lawrence Ave East,Toronto,M3C 1R1,43.73637,-79.34877
Shoppers Drug Mart ,351 Queen St E,Toronto,M5A 1T2,43.655482,-79.364107
Shoppers Drug Mart ,1500 Islington Avenue,Toronto,M9A 3L8,43.662947,-79.531129
Shoppers Drug Mart,18 Lower Jarvis Street,Toronto,M5E 1N1,43.64751,-79.37089
Shoppers Drug Mart,A-1033 Queen St West,Toronto,M6J 0A6,43.643753,-79.419439
Shoppers Drug Mart,958 Bloor Street West,Toronto,M6H 1L6,43.661616,-79.428775
Shoppers Drug Mart,718 Yonge Street,Toronto,M4Y 2B3,43.66837,-79.386267
Shoppers Drug Mart,500 King St W,Toronto,M5V 1L9,43.64532,-79.39681
Shoppers Drug Mart,10 Dundas Street East Unit 1,Toronto,M5B 2G9,43.65601,-79.37846
Shoppers Drug Mart,2528 Bayview Avenue,Toronto,M2L 1A9,43.746841,-79.384787
Shoppers Drug Mart,2528 Bayview Avenue,Toronto,M2L 1A9,43.746841,-79.384787
Shoppers Drug Mart,236 Bloor Street West,Toronto,M5S 1T8,43.668376,-79.396992
Shoppers Drug Mart,260 Queen Street West,Toronto,M5V 1Z8,43.649892,-79.391887
Shoppers Drug Mart,333 Bay Street,Toronto,M5H 2R2,43.65037,-79.38036
Shoppers Drug Mart,593 Dundas St E,Toronto,M5A 3H6,43.65204,-79.40143
Shoppers Drug Mart,A-1285 York Mills Road,Toronto,M3A 1Z5,43.760731,-79.324954
Shoppers Drug Mart,2047 Avenue Road,Toronto,M5M 4A7,43.72854,-79.4175
Shoppers Drug Mart,"747 Don Mills Rd, Unit 12 ",Toronto,M3C 1T2,43.712489,-79.335404
Shoppers Drug Mart,2794 Victoria Park Ave,Toronto,M2J 4A8,43.78748,-79.32875
Shoppers Drug Mart,1630 Danforth Avenue,Toronto,M4C 1H6,43.683966,-79.322269
Shoppers Drug Mart,550 Eglinton Ave W,Toronto,M5N 1B6,43.70345,-79.41535
Shoppers Drug Mart,2440 Dundas Street W.,Toronto,M6P 1W9,43.65912,-79.452954
Shoppers Drug Mart,1500 Avenue Road,Toronto,M5M 3X2,43.71569,-79.41248
Shoppers Drug Mart,360A Bloor Street West,Toronto,M5S 1X1,46.49946,-81.00068
Shoppers Drug Mart,20 Bloor St E Hudson Bay Centre,Toronto,M4W 3G7,43.67076,-79.38544
Shoppers Drug Mart,725 College Street,Toronto,M6G 1C5,43.654287,-79.419095
Shoppers Drug Mart,2494 Danforth Avenue,Toronto,M4C 1K9,43.688038,-79.303724
Shoppers Drug Mart,759 Mount Pleasant Rd,Toronto,M4S 2N4,43.70778,-79.38948
Shoppers Drug Mart,1881 Steeles Ave West,Toronto,M3H 5Y4,43.78279,-79.48915
Shoppers Drug Mart,1084 Wilson Avenue,Toronto,M3K 1G6,43.728263,-79.480849
Shoppers Drug Mart,770 Lawrence Ave West,Toronto,M6A 3C6,43.70111,-79.51209
Shoppers Drug Mart,700 Bay Street,Toronto,M5G 1Z6,43.658224,-79.385066
Shoppers Drug Mart,970 Queen St East,Toronto,M4M 1J8,43.66124,-79.34048
Shoppers Drug Mart,"1-124B-220 Yonge St, Eaton Ctr ",Toronto,M5B 2H1,43.65368,-79.38011
Shoppers Drug Mart,70 Eglinton Square Blvd,Toronto,M1L 2K1,43.72384,-79.29952
Shoppers Drug Mart,265 Port Union Rd,Toronto,M1C 2L3,43.78863,-79.1395
Shoppers Drug Mart,925 Eglinton Ave W,Toronto,M6C 2C3,43.70034,-79.42783
Shoppers Drug Mart,523 St. Clair Avenue West,Toronto,M6C 1A1,43.682571,-79.422379
Shoppers Drug Mart,3874 Bathurst St,Toronto,M3H 3N3,43.741204,-79.435325
Shoppers Drug Mart,2345 Yonge Street,Toronto,M4P 1E4,43.70716,-79.39908
Shoppers Drug Mart,1515 Steeles Ave East,Toronto,M2M 3Y7,43.78706,-79.471
Shoppers Drug Mart,467 Parliament St,Toronto,M5A 3A3,43.66403,-79.36754
Shoppers Drug Mart,2550 Finch Avenue West,Toronto,M9M 2G3,43.751259,-79.54618
Shoppers Drug Mart,3003 Danforth Avenue,Toronto,M4C 1M9,43.690307,-79.293458
Shoppers Drug Mart,620 Keele St,Toronto,M6N 3E2,43.671608,-79.467855
Shoppers Drug Mart,1533 Jane Street,Toronto,M9N 2R2,43.69759,-79.50224
Shoppers Drug Mart,45 Overlea Blvd.,Toronto,M4H 1C3,43.70577,-79.34593
Shoppers Drug Mart,1995 Weston Road,Toronto,M9N 1X2,43.701359,-79.51941
Shoppers Drug Mart,1859 Leslie Street,Toronto,M3B 2M1,43.752432,-79.359254
Shoppers Drug Mart,2343 Eglinton Avenue West,Toronto,M6E 2L6,43.691616,-79.468358
Shoppers Drug Mart,3401 Dufferin St.,Toronto,M6A 2T9,43.72608,-79.45147
Shoppers Drug Mart,5845 Yonge Street,Toronto,M2M 3T9,43.786451,-79.416434
Shoppers Drug Mart,812 O'Connor Drive,Toronto,M4B 2S9,43.705965,-79.31284
Shoppers Drug Mart,4865 Leslie Street,Toronto,M2J 2K8,43.779288,-79.3647
Shoppers Drug Mart,5899 Leslie Street,Toronto,M2H 1J8,43.79836,-79.36961
Shoppers Drug Mart,6205 Bathurst Street,Toronto,M2R 2A5,43.74284,-79.43587
Shoppers Drug Mart,"1115 Lodestar Road, Bulding E ",Toronto,M3J 0G9,43.75916,-79.46548
Shoppers Drug Mart,817 Yonge Street,Toronto,M4W 2G9,43.672494,-79.387468
Shoppers Drug Mart,1012 Pape Ave,Toronto,M4K 3V9,43.688139,-79.347981
Shoppers Drug Mart,1507 Yonge Street,Toronto,M4T 1Z2,43.689388,-79.394332
Shoppers Drug Mart,555 University Ave,Toronto,M5G 1X8,43.65737,-79.38744
Shoppers Drug Mart,465 Yonge St,Toronto,M4Y 1X4,43.661823,-79.383029
Shoppers Drug Mart,"181 Bay Street, Bce Place ",Toronto,M5J 2T3,43.64692,-79.37866
Shoppers Drug Mart,69 Yonge St,Toronto,M5E 1K3,43.64893,-79.37754
Shoppers Drug Mart,900 Albion Rd,Toronto,M9V 1A5,43.73511,-79.56088
Shoppers Drug Mart,2850 Lakeshore Blvd,Toronto,M8V 1J2,43.601691,-79.50217
Shoppers Drug Mart,1601 Bayview Avenue,Toronto,M4G 3B5,43.706355,-79.375086
Shoppers Drug Mart,2000 Queen Street East,Toronto,M4L 1J2,43.670176,-79.300186
Shoppers Drug Mart,"200 Bay St, Royal Bank Plaza ",Toronto,M5J 2J3,43.67064,-79.48524
Shoppers Drug Mart,2223 Bloor Street West,Toronto,M6S 1N7,43.650938,-79.476476
Shoppers Drug Mart,524 Queen St West,Toronto,M5V 2B5,43.64752,-79.40238
Shoppers Drug Mart,755 Danforth Avenue,Toronto,M4J 1L2,43.679202,-79.342267
Shoppers Drug Mart,29A-66 Wellington St West,Toronto,M5K 1A1,43.647231,-79.381225
Shoppers Simply Pharmacy,701 Sheppard Ave East,Toronto,M2K 2Z3,43.768442,-79.377504
Shoppers Simply Pharmacy,101-235 Danforth Ave,Toronto,M4K 1N2,43.67662,-79.35541
Shoppers Simply Pharmacy,1223 St Clair Ave West,Toronto,M6E 1B5,43.67777,-79.44492
Shoppers Simply Pharmacy,1525 Albion Road,Toronto,M9V 5G5,43.761242,-79.310806
Simpill Pharmacy,1408 Queen St W,Toronto,M6K 1L9,43.64129,-79.43459
Sina Pharmacy,37 The Links Rd,Toronto,M2P 1T7,43.75183,-79.401684
Skyway Pharmacy,348 Wilson Avenue,Toronto,M3H 1S9,43.736849,-79.438113
Smith'S Pharmacy,3463 Yonge Street,Toronto,M4N 2N3,43.734169,-79.404171
Snowdon Pharmacy,264 Bloor St West,Toronto,M5S 1V8,43.67163,-79.38041
Sobeys Pharmacy,145 Marlee Avenue,Toronto,M6B 3H3,43.703047,-79.441433
Sobeys Pharmacy,7271 Belfield Earl.Ward & Co. Ltd 2-124 Belfield Rd,Toronto,M9W 1G1,43.66804,-79.37792
Solara Pharmacy,3857 Lake Shore Blvd W,Toronto,M8W 0A2,43.589999,-79.545067
Solarski Pharmacy,149 Roncesvalles Avenue,Toronto,M6R 2L3,43.643866,-79.447902
Sone'S Pharmacy,991 Dovercourt Rd,Toronto,M6H 2X6,43.667135,-79.431468
Spadina'S Neighbourhood Pharmacy,720 Spadina Ave,Toronto,M5S 2T9,43.665291,-79.403621
St. Clair Drug Mart Pharmacy,1203 St Clair Avenue West,Toronto,M6E 1B5,43.677406,-79.444333
St. Gabriel Medical Pharmacy,101-650 Sheppard Ave. E.,Toronto,M2K 3E4,43.768586,-79.381432
St. George Drug Mart,567 Bathurst Street 2Nd Floor,Toronto,M5S 2P8,43.658443,-79.408257
St. George Pharmacy,193 College St,Toronto,M5T 1P9,43.65867,-79.39491
St. James Drug Mart,"240 Wellesley St E, #118 ",Toronto,M4X 1G5,43.66807,-79.37175
St. Joseph Pharmacy,2930 Islington Avenue,Toronto,M9L 2K5,43.75651,-79.56973
St. Joseph'S Health Centre Outpatient Pharmacy,30 The Queensway,Toronto,M6R 1B5,43.63936,-79.4501
St. Michael'S Drug Mart,565 College Street,Toronto,M6G 1B2,43.65527,-79.4127
St. Lawrence Pharmacy,126 Lower Sherbourne St,Toronto,M5A 4J4,43.64937,-79.36764
Stanbury'S Pharmacy,1032 Pape Ave,Toronto,M4K 3W2,43.73892,-79.303274
Stockyards Pharmacy,2566 St Clair Ave W,Toronto,M6N 1L8,43.668104,-79.488711
Sultan Pharmacy,8-1118 Finch Ave West,Toronto,M3J 3J4,43.770522,-79.456886
Sunnyside Medical Pharmacy,29 Roncesvalles Ave,Toronto,M6R 2K4,43.63996,-79.44634
Swansea Village Pharmasave,2388 Bloor St West,Toronto,M6S 1P5,43.64988,-79.4826
Symington Drugs,333 Symington Ave,Toronto,M6P 3X1,43.66647,-79.451236
Terrace Square Pharmacy,3424 Weston Road,Toronto,M9M 2W1,43.80737,-79.332211
Tgh Transplant Outpatient Pharmacy,"1202-585 University Ave, 12 Fl ",Toronto,M5G 2N2,43.6582,-79.389
The 6Ix Pharmacy On Front,58-550 Front St W,Toronto,M5V 3N5,43.641419,-79.399579
The Akron Pharmacy,2318 Lakeshore Blvd West,Toronto,M8V 1B5,43.61839,-79.48712
The Healing Source Pharmacy,2209 Bloor Street West,Toronto,M6S 1N5,43.65103,-79.475793
The Medicine Shoppe,1168 A Dundas Street W.,Toronto,M6J 1X4,43.649191,-79.421589
The Medicine Shoppe,515 St. Clair Ave West,Toronto,M6C 1A1,43.682786,-79.418784
The Medicine Shoppe,2600 Eglinton Avenue West,Toronto,M6M 1T5,43.691423,-79.46943
Palmerston Pharmacy,499 College St,Toronto,M6G 1A5,43.655778,-79.409693
The Pharmacy Network,7-1575 Jane St,Toronto,M9N 2R3,43.6992,-79.50239
Village Pharmacy,473 Church Street,Toronto,M4Y 2C5,43.664525,-79.38021
Theodore Pharmacy,1450 O'Connor Drive,Toronto,M4B 2T8,43.713662,-79.3068
Thorncliffe Pharmacy,106-65 Overlea Blvd,Toronto,M4H 1P1,43.70681,-79.34695
Thornlea Pharmacy,"62 Overlea Blvd, Unit 4A ",Toronto,M4H 1C4,43.707,-79.34392
Total Health Pharmacy,2115 Finch Ave West Suite 217,Toronto,M3N 2V6,43.7633,-79.4938
Total Health Pharmacy,997 Gerrard St E,Toronto,M4M 1Z4,43.668487,-79.338046
Total Health Pharmacy,1849 Yonge Street,Toronto,M4S 1Y2,43.69696,-79.395927
Total Health Pharmacy,100-801 Eglinton Avenue West,Toronto,M5N 1E3,43.701031,-79.424493
Trillium Pharmacy,3443 Finch Ave East,Toronto,M1W 2S1,43.797165,-79.312578
Trinity Drug Store,750 Dundas Street W,Toronto,M6J 3S3,43.652394,-79.406436
U&C Pharmacy,700 University Avenue Unit Hsc112 Shopping Concourse,Toronto,M5G 1Z5,43.659016,-79.391191
Ultra Bloor Pharmacy,1254 Bloor St West,Toronto,M6H 1N5,43.65902,-79.440374
Ultra Pharmacy,411 Parliament Street,Toronto,M5A 3A1,43.66259,-79.36703
United Drug Mart,154 Ossington Avenue,Toronto,M6J 2Z5,43.64745,-79.42032
Universal Pharmacy,819 Lansdowne Ave,Toronto,M6H 3Z2,43.66252,-79.44428
University Health Centre Pharmacy,"4801 Keele St, Unit 59 ",Toronto,M3J 3A4,43.77745,-79.49362
Uptown Pharmacy,243 Eglinton Ave West,Toronto,M4R 1B1,43.704804,-79.406639
Urban Care Pharmacy,26 Dalhousie Street,Toronto,M5B 2A5,43.65398,-79.37563
Victor Pharmacy,123 Edward Street,Toronto,M5G 1E2,43.655638,-79.386801
Victoria Park Pharmacy,1314 Victoria Park Avenue,Toronto,M4B 2L4,43.713897,-79.298416
Vina Pharmacy,1025 Gerrard St E,Toronto,M4M 1Z6,43.6687,-79.33717
Vina Pharmacy,1460 Queen Street W.,Toronto,M6K 1M2,43.640904,-79.436427
Vita Pharmacy,525 Dundas Street W. Unit 2,Toronto,M5T 1H4,43.65305,-79.39631
Vitality Compounding Pharmacy,918 Kingston Road,Toronto,M4E 1S5,43.680844,-79.289102
Walmart Pharmacy,2525 St. Clair Ave West,Toronto,M6N 4Z5,43.668067,-79.485305
Walmart Pharmacy,Walmart Pharmacy Limited 3757 Keele St,Toronto,M3J 1N4,43.75743,-79.48885
Walmart Pharmacy,1000 Gerrard Street East,Toronto,M4M 3G6,43.6694187,-79.3392933
Walmart Pharmacy,2202 Jane Street,Toronto,M3M 1A4,43.718832,-79.508383
Walmart Pharmacy,North Park Plaza 1305 Lawrence Avenue W.,Toronto,M6L 1A5,43.710008,-79.474392
Walmart Pharmacy,Dufferin Mall 900 Dufferin Street,Toronto,M6H 4A9,43.655817,-79.435362
Warden Medical Pharmacy,3321 Sheppard Ave East,Toronto,M1T 3K2,43.77855,-79.30867
Warden Woods Pharmacy,99 Firvalley Court,Toronto,M1L 1P2,43.70335,-79.277909
Welcome Guardian Pharmacy,137 Roncesvalles Avenue,Toronto,M6R 2L2,43.64308,-79.44744
Welcome Guardian Pharmacy,1881 Yonge St,Toronto,M4S 1Y6,43.69773,-79.39606
Welcome Guardian Pharmacy,837 Danforth Ave,Toronto,M4J 1L2,43.67948,-79.3406
Well + Good Pharmacy,557 Church Street Inc 557 Church Street,Toronto,M4Y 2E2,43.66723,-79.38126
Wellcare Pharmacy,815 College Street,Toronto,M6G 1C9,43.65471,-79.42213
Wellcare Pharmacy,3352 Keele Street,Toronto,M3J 1L5,43.74695,-79.48847
Wellcare Pharmacy,1263 Wilson Ave Unit # 110,Toronto,M3M 3G3,43.7411819,-79.4167565
Wellth Pharmacy,85 Church St,Toronto,M5C 2G2,43.70586,-79.51841
West Park Pharmacy,R1-32-82 Buttonwood Ave,Toronto,M6M 2J5,43.6893,-79.50897
Weston Drug Mart,2159 Weston Road,Toronto,M9N 1X8,43.703215,-79.524763
Weston Jane Pharmacy,1292 Weston Rd,Toronto,M6M 4R3,43.689034,-79.495812
Westown Pharmacy,235 Dixon Road,Toronto,M9P 2M5,43.699473,-79.286425
Westside Pharmacy,1896 Eglinton Ave West,Toronto,M6E 2J6,43.72645,-79.29698
Westside Pharmacy,D3-2404 Eglinton Ave W,Toronto,M6M 1S6,43.69223,-79.46752
White Cross Drugs,300-500 Yonge St,Toronto,M4Y 1X9,43.663189,-79.384079
White'S Pharmacy,725 Jane St,Toronto,M6N 4B3,43.67063,-79.49309
Whiteside Pharmacy,1732 St. Clair Ave W,Toronto,M6N 1J1,43.674431,-79.459936
Wholesome Pharmacy,811A Queen Street East,Toronto,M4M 1H8,43.64382,-79.42178
Willowdale Pharmacy,6023 Yonge Street,Toronto,M2M 3W2,43.789284,-79.417545
Wilson Compounding Pharmacy,5-1077 Wilson Avenue,Toronto,M3K 1G7,43.726885,-79.480753
Wilson-Allen Pharmacy,517 Wilson Avenue,Toronto,M3H 1V1,43.734542,-79.445935
Woodgreen Pharmacy,909 Queen Street East,Toronto,M4M 1J4,43.64382,-79.42178
Woodgreen Pharmacy,69 Queen St E Unit #101,Toronto,M5C 1R8,43.653761,-79.373864
Woods Drug Store,130 Kingston Rd,Toronto,M4L 1S7,43.67051,-79.31135
Woodvalley Pharmacy,14-130 Industry Street,Toronto,M6M 5G3,43.694672,-79.495073
Yonge Drug Mart,104-2399 Yonge St,Toronto,M4P 2E7,43.64999,-79.37849
Yonge Elmwood Pharmacy,201-5025 Yonge Street,Toronto,M2N 5P2,43.65346,-79.37937
York Medical Pharmacy,"491 Church St, Upstairs ",Toronto,M4Y 2C6,43.66527,-79.38036
Yours Pharmacy,796 Queen Street East,Toronto,M4M 1H4,43.64382,-79.42178
Zara'S Pharmacy,"1908 Gerrard Street East, Unit B ",Toronto,M4L 2C1,43.67958,-79.31267
