Pharmacy,Address,City,Postcode,Latitude,Longitude,StandardCivicNumber,StandardAddress,StandardCity,StandardStateorProvinceAbbrv,PostalZip,Confidence
99 PHARMACY,436 DUNDAS STREET W.,Toronto,M5T1G7,43.65325,-79.39567,435,Dundas Street W,Toronto,CA,M5T1G6,0.8
ACTION PHARMACY,101-2425 BLOOR STREET WEST,Toronto,M6S4W4,43.649192,-79.483458,2425,Bloor ST W,Toronto,"ON, CA",M6S4W4,0.5
ALBION FINCH PHARMACY,"6230 FINCH AVE WEST, UNIT A102",Toronto,M9V0A1,43.73682,-79.30764,1760,Unit A Victoria Park AVE,Toronto,"ON, CA",M1R1R4,0.6
ALLCURES PHARMACY,31 ST. DENNIS DRIVE. SUITE #1,Toronto,M3C1G7,43.718572,-79.329585,31,Saint Dennis DR,Toronto,"ON, CA",M3C1G7,0.4
APEX DRUG MART,90 EGLINTON AVE. EAST,Toronto,M4P2Y3,43.70763,-79.395903,90,Eglinton AVE E,Toronto,"ON, CA",M4P2Y3,0.5
APOLLON PHARMACY,698 DANFORTH AVENUE,Toronto,M4J1L1,43.679409,-79.34384,698,Danforth AVE,Toronto,"ON, CA",M4J1L1,0.4
APOTHECA COMPOUNDING PHARMACY,417 SPADINA ROAD,Toronto,M5P2W3,43.688859,-79.412451,417,Spadina RD,Toronto,"ON, CA",M5P2W3,0.5
ASH MEDICAL PHARMACY,2900 EGLINTON AVE EAST,Toronto,M1J2E4,43.739977,-79.23326,2900,Eglinton AVE E,Toronto,"ON, CA",M1J2E4,0.4
ASHDALE PHARMACY,1568 QUEEN STREET E,Toronto,M4L1E9,43.666089,-79.318813,1568,Queen ST E,Toronto,"ON, CA",M4L1E9,0.4
AUGUSTA CENTRAL PHARMACY,1-360 COLLEGE STREET,Toronto,M5T1S6,43.657379,-79.404447,360,College ST,Toronto,"ON, CA",M5T1S6,0.4
AUSTINS DRUG MART,4235 SHEPPARD AVE EAST UNIT 108,Toronto,M1S1T7,43.761553,-79.410695,4235,Sheppard AVE E,Toronto,"ON, CA",M1S1T7,0.4
AVA PHARMACY,81 ST CLAIR AVE EAST,Toronto,M4T1M7,43.68892,-79.39019,81,St Clair AVE,East Toronto,"ON, CA",M4T1M7,0.9
AYDA PHARMACY,1801 EGLINTON AVENUE W.,Toronto,M6E2H8,43.694972,-79.453456,1801,Eglinton AVE W,Toronto,"ON, CA",M6E2H8,0.4
PHARMACHOICE PARKDALE,15 RONCESVALLES AVE,Toronto,M6R2K3,43.63936,-79.44598,15,Roncesvalles AVE,Toronto,"ON, CA",M6R2K3,0.8
B.WELL PHARMACY,262 MANITOBA ST,Toronto,M8Y4G9,43.623966,-79.489719,262,Manitoba ST,Toronto,"ON, CA",M8Y4G9,0.4
BALMORAL CHEMISTS,1366 YONGE ST.,Toronto,M4T3A7,43.686039,-79.393592,1366,Yonge ST,Toronto,"ON, CA",M4T3A7,0.4
BEECH MEDICAL PHARMACY,855 KINGSTON ROAD,Toronto,M4E1R9,43.680112,-79.290892,855,Kingston RD,Toronto,"ON, CA",M4E1R9,0.4
BEN MEDICAL PHARMACY INC,1-935 SHEPPARD AVE WEST,Toronto,M3H2T7,43.751178,-79.459019,935,Sheppard AVE W,Toronto,"ON, CA",M3H2T7,0.4
BIO PHARMACY,1177 ST. CLAIR AVENUE W.,Toronto,M6E1B5,43.677628,-79.443455,1177,Saint Clair AVE W,Toronto,"ON, CA",M6E1B5,0.4
BLAIR COURT PHARMACY,2364349 ONTARIO INC 266 DONLANDS AVE,Toronto,M4J5B1,43.68966,-79.34191,266,Donlands AVE,Toronto,"ON, CA",M4J5B1,0.6
BLOOM PHARMACY,1A-170 FORT YORK BLVD,Toronto,M5V0E6,43.63939,-79.39979,170,FORT YORK BLVD,Toronto,"ON, CA",M5V0E6,0.7
BLOOR DUNDAS PHARMACY,2333 DUNDAS STREET W,Toronto,M6R3A6,43.655895,-79.452645,2333,Dundas ST W,Toronto,"ON, CA",M6R3A6,0.4
BLOOR MEDICAL PHARMACY,1062 BLOOR STREET WEST,Toronto,M6H1M3,43.660727,-79.432851,1062,Bloor ST W,Toronto,"ON, CA",M6H1M3,0.5
BLOOR PARK PHARMACY,728 BLOOR ST WEST,Toronto,M6G1L4,43.663793,-79.418204,728,Bloor ST W,Toronto,"ON, CA",M6G1L4,0.4
BLOOR ST PHARMACY,849 BLOOR STREET W.,Toronto,M6G1M3,43.662208,-79.423691,849,Bloor ST W,Toronto,"ON, CA",M6G1M3,0.4
BLOOR WEST PHARMACY,2262 BLOOR STREET WEST,Toronto,M6S1N9,43.650983,-79.478043,2262,Bloor ST W,Toronto,"ON, CA",M6S1N9,0.4
BLOORCOURT PHARMACY,936 BLOOR STREET W.,Toronto,M6H1L4,43.661764,-79.427737,936,Bloor ST W,Toronto,"ON, CA",M6H1L4,0.4
BLOOR-SHERBOURNE PHARMACY,608 SHERBOURNE STREET,Toronto,M4X1X6,43.672018,-79.376897,608,Sherbourne ST,Toronto,"ON, CA",M4X1X6,0.4
BLUE SKY PHARMACY,1176-A ST CLAIR AVE WEST,Toronto,M6E1B4,43.67782,-79.44266,1165,St Clair AVE,West Toronto,"ON, CA",M6E1B2,0.8
BRIARHILL PHARMACY,63-2700 DUFFERIN STREET,Toronto,M6B4J3,43.701713,-79.453993,2700,Dufferin ST,Toronto,"ON, CA",M6B4J3,0.4
BROADON PHARMACY,607 GERRARD STREET E.,Toronto,M4M1Y2,43.66595,-79.35119,620,Gerrard Street E,Toronto,CA,M4M1Y3,0.7
BROADVIEW MEDICAL PHARMACY,743 BROADVIEW AVE,Toronto,M4K2P6,43.67579,-79.358097,743,Broadview AVE,Toronto,"ON, CA",M4K2P6,0.4
BROCK MEDICAL PHARMACY,1637 DUNDAS STREET WEST,Toronto,M6K1V2,43.649783,-79.436267,1637,Dundas ST W,Toronto,"ON, CA",M6K1V2,0.5
C C PHARMACY,1351 YONGE STREET,Toronto,M4T1X9,43.686104,-79.393004,1351,Yonge ST,Toronto,"ON, CA",M4T1X9,0.4
CABBAGETOWN PHARMACY,457 PARLIAMENT STREET,Toronto,M5A3A3,43.6637,-79.3674,457,Parliament Street,Toronto,CA,M5A3A3,0.8
CADENCE APOTHECARY,200 SPADINA AVE,Toronto,M5T2C2,43.650308,-79.397337,200,Spadina AVE,Toronto,"ON, CA",M5T2C2,0.4
CAMH PHARMACY,1001 QUEEN ST W,Toronto,M6J1H4,43.64403,-79.41809,1001,Queen ST W,Toronto,"ON, CA",M6J1H4,0.8
CANADIAN ADDICTION TREATMENT PHARMACY,100-1111 FINCH AVENUE WEST,Toronto,M3J2E5,43.71851,-79.41466,1478,AVENUE,West Toronto,"ON, CA",M5N2H5,0.5
CANADIAN COMPOUNDING PHARMACY MEDS,2920 BLOOR ST W,Toronto,M8X1B6,43.65197,-79.40699,769,St W Toronto Ontario M6j1t9,Toronto,CA,M6J1T9,0.6
CANES COMMUNITY PHARMACY,135 QUEENS PLATE DRIVE,Toronto,M9W6V1,43.64366,-79.36916,105,QUEENS,Toronto,"ON, CA",M6S5B5,0.5
CARE AND HEALTH PHARMACY,2928 DANFORTH AVE,Toronto,M4C1M1,43.69236219,-79.2833792,2928,PHARMACY DANFORTH AVE,Toronto,"ON, CA",M1L1C1,0.9
CENTRAL WESTON PHARMACY,2105 WESTON RD,Toronto,M9N1X7,43.70231,-79.52417,2100,WESTON,Toronto,"ON, CA",M9N3W6,0.7
CHARLES PHARMACY,1204 KING ST W,Toronto,M6K1G4,43.63911,-79.42773,1204,King ST W,Toronto,"ON, CA",M6K1G4,0.7
CHRISTIE PHARMACY,697 ST-CLAIR AVE WEST,Toronto,M6C1B2,43.681421,-79.426185,697,Saint Clair AVE W,Toronto,"ON, CA",M6C1B2,0.4
CITY PHARMACY,238 DANFORTH AVENUE,Toronto,M4K1N4,43.677148,-79.355409,238,Danforth AVE,Toronto,"ON, CA",M4K1N4,0.6
CLAIR GARDENS PHARMACY,1263 ST. CLAIR AVENUE W.,Toronto,M6E1B8,43.676969,-79.446646,1263,Saint Clair AVE W,Toronto,"ON, CA",M6E1B8,0.4
CLAIRHURST MEDICAL PHARMACY,109-1466 BATHURST ST,Toronto,M5R3S3,43.68278,-79.41835,1466,Bathurst St,Toronto,"ON, CA",M5R3S3,0.7
CLAIRWOOD DRUG MART,942 ST. CLAIR AVENUE W,Toronto,M6C1C8,43.679929,-79.435427,942,Saint Clair AVE W,Toronto,"ON, CA",M6C1C8,0.4
CLOUD PHARMACY,55 DUNDAS ST E,Toronto,M5B1C6,43.65595,-79.37871,55,Dundas St E,Toronto,CA,M5B1C6,0.8
COLLEGE CENTRE PHARMACY II,528 COLLEGE STREET,Toronto,M6G1A6,43.656077,-79.410932,528,College ST,Toronto,"ON, CA",M6G1A6,0.4
COLLEGE DRUG MART,673 COLLEGE ST,Toronto,M6G1B9,43.655007,-79.417127,673,College ST,Toronto,"ON, CA",M6G1B9,0.4
COLLEGE MEDICAL PHARMACY,101-474 COLLEGE ST.,Toronto,M6G1A4,43.656401,-79.409337,474,College ST,Toronto,"ON, CA",M6G1A4,0.4
COMMUNITY CHOICE PHARMACY BLACK CREEK,5-2202 JANE ST,Toronto,M3M1A4,43.72168,-79.51059,2200,Jane ST,Toronto,"ON, CA",M3M1A4,0.6
COMMUNITY CHOICE PHARMASAVE,1892 DAVENPORT RD,Toronto,M6N1B7,43.67089,-79.45466,1892,Davenport RD,Toronto,"ON, CA",M6N1B7,0.7
COSMO PHARMACY,3101 BLOOR ST. WEST,Toronto,M8X2W2,43.646011,-79.517431,3101,Bloor ST W,Toronto,"ON, CA",M8X2W2,0.4
COXWELL PHARMACY,688 COXWELL AVENUE,Toronto,M4C3B7,43.682634,-79.323698,688,Coxwell AVE,Toronto,"ON, CA",M4C3B7,0.4
CRESCENT ST PHARMACY,2688 DANFORTH AVE,Toronto,M4C1L7,43.689049,-79.298836,2688,Danforth AVE,Toronto,"ON, CA",M4C1L7,0.5
CURE PHARMACY,108-1585 MARKHAM RD,Toronto,M1B2W1,43.788362,-79.23656,1585,Markham RD,Toronto,"ON, CA",M1B2W1,0.4
DALECLIFF MEDICAL PHARMACY,2-209 ELLESMERE RD,Toronto,M1R4E2,43.762347,-79.295984,209,Ellesmere RD,Toronto,"ON, CA",M1R4E2,0.4
DALES PHARMACY,572 PARLIAMENT ST,Toronto,M4X1P8,43.66752,-79.36964,572,Parliament St,Toronto,CA,M4X1P8,0.7
DANFORTH CENTRAL PHARMACY,1188 DANFORTH AVENUE,Toronto,M4J1M3,43.681593,-79.332551,1188,Danforth AVE,Toronto,"ON, CA",M4J1M3,0.4
DANFORTH DRUG MART,1871 DANFORTH AVE,Toronto,M4C1J3,43.684499,-79.317274,1871,Danforth AVE,Toronto,"ON, CA",M4C1J3,0.4
DANFORTH MAIN PHARMACY,2575 DANFORTH AVE E,Toronto,M4C1L5,43.688201,-79.30032,2575,Danforth AVE,Toronto,"ON, CA",M4C1L5,0.4
DANFORTH MEDICAL PHARMACY,1156 DANFORTH AVE,Toronto,M4J1M3,43.681495,-79.333376,1156,Danforth AVE,Toronto,"ON, CA",M4J1M3,0.4
DANFORTH NEIGHBOURHOOD PHARMACY CARE,2416 DANFORTH AVE,Toronto,M4C1K9,43.687752,-79.305023,2416,Danforth AVE,Toronto,"ON, CA",M4C1K9,0.4
DANNY'S DRUGSTORE INC,2284 KINGSTON ROAD,Toronto,M1N1T9,43.70629,-79.251154,2284,Kingston RD,Toronto,"ON, CA",M1N1T9,0.4
DARCY 2 PHARMACY,315 SPADINA AVE,Toronto,M5T2E9,43.65422,-79.39815,315,SPADINA AVE,Toronto,"ON, CA",M5T2E9,0.8
DATU'S PHARMACY,103-2238 DUNDAS STREET WEST,Toronto,M6R3A9,43.654385,-79.451499,2238,Dundas ST W,Toronto,"ON, CA",M6R3A9,0.4
DAVENPORT PHARMACY,219 DAVENPORT RD. UNIT 115,Toronto,M5R1J3,43.696991,-79.285387,115,Pharmacy AVE,Toronto,"ON, CA",M5R1J3,0.4
DAVISVILLE PHARMACY,4-1901 YONGE STREET,Toronto,M4S1Y6,43.698131,-79.396253,1901,Yonge ST,Toronto,"ON, CA",M4S1Y6,0.5
DAWES DRUG MART,424 DAWES ROAD,Toronto,M4B2E9,43.701694,-79.297262,424,Dawes RD,Toronto,"ON, CA",M4B2E9,0.4
DELISLE PHARMACY,1560 YONGE STREET UPPER COURT LEVEL,Toronto,M4T2S9,43.689687,-79.39513,1560,Yonge ST,Toronto,"ON, CA",M4T2S9,0.5
DELRAY PHARMACY,2812 BATHURST ST,Toronto,M6B3A6,43.713279,-79.428665,2812,Bathurst ST,Toronto,"ON, CA",M6B3A6,0.4
DEMARCO PHARMACY,2394 KEELE ST,Toronto,M6M4A5,43.708653,-79.478052,2394,Keele ST,Toronto,"ON, CA",M6M4A5,0.4
DOM'S PHARMACY,3630 VICTORIA PARK AVE.,Toronto,M2H3B2,43.80714,-79.33875,3632,Victoria Park AVE,Toronto,"ON, CA",M2H3B2,0.7
DON RUSSELL DRUG MART,2891 LAKESHORE BLVD W,Toronto,M8V1J1,43.60082,-79.503908,2891,Lake Shore BLVD W,Toronto,"ON, CA",M8V1J1,0.5
DON VALLEY PHARMACY,855 BROADVIEW AVE,Toronto,M4K2P9,43.6796,-79.35786,855,Broadview AVE,Toronto,"ON, CA",M4K3Z1,0.8
DOWNSVIEW PARK PHARMACY,100-2830 KEELE STREET,Toronto,M3M3E5,43.730508,-79.483443,2830,Keele ST,Toronto,"ON, CA",M3M3E5,0.5
DOWNTOWN DISPENSARY II,1678 DUFFERIN STREET,Toronto,M6H3M1,43.677594,-79.443199,1678,Dufferin ST,Toronto,"ON, CA",M6H3M1,0.4
DRUG CENTRE DISCOUNT PHARMACY,1473 EGLINTON AVE W,Toronto,M6E2G6,43.69807,-79.43923,1473,Eglinton AVE W,Toronto,"ON, CA",M6E2G6,0.7
DRUG STORE PHARMACY,17 LESLIE ROAD,Toronto,M4M3H9,43.660908,-79.328999,17,Leslie ST,Toronto,"ON, CA",M4M3H9,0.5
DRUG STORE PHARMACY,650 DUPONT STREET,Toronto,M6G1Z2,43.672149,-79.421002,650,Dupont ST,Toronto,"ON, CA",M6G4B1,0.4
DRUG STORE PHARMACY,10 LOWER JARVIS,Toronto,M5E1Z9,43.64449,-79.36988,10,LOWER JARVIS,Toronto,"ON, CA",M5E1Z2,0.7
DRUG STORE PHARMACY,2280 DUNDAS STREET W.,Toronto,M6R1X4,43.65492,-79.45243,2273,Dundas Street W,Toronto,CA,M6R1X6,0.7
DRUG STORE PHARMACY,449 CARLAW AVE,Toronto,M4K3H9,43.668303,-79.342753,449,Carlaw AVE,Toronto,"ON, CA",M4K3H9,0.4
DRUGS BASICS PHARMACY,1068 DANFORTH AVENUE,Toronto,M4J1M2,43.681062,-79.335646,1068,Danforth AVE,Toronto,"ON, CA",M4J1M2,0.4
DRUGSTORE PHARMACY,50 MUSGRAVE ST,Toronto,M4E3W2,43.68836,-79.28822,50,Musgrave St,Toronto,CA,M4E3W2,0.7
DRUGSTORE PHARMACY,3671 DUNDAS ST. WEST,Toronto,M6S2T3,43.66587,-79.48593,3671,DUNDAS ST,West Toronto,"ON, CA",M6S2T3,0.8
DRUGSTORE PHARMACY,700 LAWRENCE AVE W,Toronto,M6A3B4,43.715932,-79.44497,700,Lawrence AVE W,Toronto,"ON, CA",M6A3B4,0.4
DRUGSTORE PHARMACY,985 WOODBINE AVENUE,Toronto,M4V4B8,43.68686,-79.31302,1005,WOODBINE,Toronto,"ON, CA",M4C4C1,0.6
DRUGSTORE PHARMACY,222 LANSDOWNE AVE,Toronto,M6K3C6,43.64956,-79.4407,222,Lansdowne Ave,Toronto,CA,M6K3C6,0.7
DRUGSTORE PHARMACY,1450 LAWRENCE AVE E,Toronto,M4A2S8,43.741791,-79.313349,1450,Lawrence AVE E,Toronto,"ON, CA",M4A2S8,0.4
DRUGSTORE PHARMACY,25 PHOTOGRAPHY DRIVE,Toronto,M6M0A1,43.68678,-79.48377,25,Photography Drive,Toronto,CA,M6M0A1,0.7
DRUGSTORE PHARMACY,1591 WILSON AVENUE,Toronto,M3L1A5,43.719818,-79.509437,1591,Wilson AVE,Toronto,"ON, CA",M3L1A5,0.4
DRUGSTORE PHARMACY,1020 ISLINGTON AVENUE,Toronto,M8Z4R3,43.63428,-79.51984,1050,ISLINGTON,Toronto,"ON, CA",M8Z4R6,0.6
DRUGTOWN PHARMACY,1500 ROYAL YORK ROAD,Toronto,M9P3B6,43.693136,-79.531393,1500,Royal York RD,Toronto,"ON, CA",M9P3B6,0.4
DUFFERIN CENTRAL PHARMACY,1649 DUFFERIN ST,Toronto,M6H3L9,43.677305,-79.442501,1649,Dufferin ST,Toronto,"ON, CA",M6H4H5,0.4
DUFFERIN DRUG MART PHARMACY,1670 DUFFERIN ST,Toronto,M6H3M2,43.677414,-79.443249,1670,Dufferin ST,Toronto,"ON, CA",M6H3M2,0.4
DUFFERIN FINCH PHARMACY,C1-2 CHAMPAGNE DRIVE,Toronto,M3J2C5,43.766427,-79.47234,2,Champagne DR,Toronto,"ON, CA",M3J2C5,0.4
DUFFERIN MEDICAL PHARMACY,2045 DUFFERIN ST,Toronto,M6E3R4,43.686443,-79.446203,2045,Dufferin ST,Toronto,"ON, CA",M6E3R4,0.4
DUKE PHARMACY,2798 DUNDAS ST. W,Toronto,M6P1Y5,43.665558,-79.462726,2798,Dundas ST W,Toronto,"ON, CA",M6P1Y5,0.4
DUNBLOOR MEDICAL PHARMACY,5115 DUNDAS STREET WEST,Toronto,M9A1C1,43.27184,-80.01323,,West,Dundas,CA,L0R2B0,0.15
DUNDAS EUCLID PHARMACY,828 DUNDAS STREET WEST,Toronto,M6J1V3,43.651792,-79.409397,828,Dundas ST W,Toronto,"ON, CA",M6J1V3,0.4
DUNN PHARMACY,1386 QUEEN STREET WEST,Toronto,M6K1L7,43.641434,-79.433671,1386,Queen ST W,Toronto,"ON, CA",M6K1L7,0.4
EAGLE MANOR PHARMACY,1901 WESTON ROAD UNIT 19,Toronto,M9N3P5,43.70057,-79.51667,1911,Weston Road,Toronto,CA,M9N1W7,0.7
EGLINTON BATHURST PHARMACY,856 EGLINTON AVE W,Toronto,M6C2B6,43.701129,-79.426037,856,Eglinton AVE W,Toronto,"ON, CA",M6C2B6,0.4
EGLINTON DISCOUNT DRUGS,1774 EGLINTON AVENUE WEST MAIN FLOOR,Toronto,M6E2H6,43.694972,-79.453456,1774,Eglinton AVE W,Toronto,"ON, CA",M6E2H6,0.4
EGLINTON MEDICAL PHARMACY,2010 EGLINTON AVENUE WEST,Toronto,M6E2K3,43.694972,-79.453456,2010,Eglinton AVE W,Toronto,"ON, CA",M6E2K3,0.4
FAMILY CARE PHARMACY,5-1209 KING STREET WEST,Toronto,M6K1G2,43.638865,-79.426833,1209,King ST W,Toronto,"ON, CA",M6K1G2,0.5
FINCH-LESLIE PHARMACY,149C RAVEL ROAD,Toronto,M2H1T1,43.794325,-79.325958,149,Pharmacy Ave And Finch AVE E,Toronto,"ON, CA",M2H1T1,0.9
FOREST HILL PHARMACY,102-491 EGLINTON AVE W,Toronto,M5N1A8,43.70346,-79.41285,491,Eglinton Ave W,Toronto,CA,M5N1A8,0.7
FRIENDLY CARE KING WEST PHARMACY,2077 WESTON ROAD,Toronto,M9N1X7,43.702157,-79.522441,2077,Weston RD,Toronto,"ON, CA",M9N1X7,0.5
FRONT STREET PHARMACY,431 KING STREET EAST,Toronto,M5A1L5,43.65353,-79.361576,431,King ST E,Toronto,"ON, CA",M5A1L5,0.5
GENIX PHARMACY,3094 DANFORTH AVENUE,Toronto,M1L1B1,43.692118,-79.284461,3094,Danforth AVE,Toronto,"ON, CA",M1L1B1,0.4
GERIAT RX PHARMACY,53 THE LINKS ROAD SUITE 200,Toronto,M2P1T7,43.698697,-79.286093,200,Pharmacy AVE,Toronto,"ON, CA",M2P1T7,0.4
GERRARD STREET PHARMACY,247 COXWELL AVE,Toronto,M4L3B4,43.672612,-79.318979,247,Coxwell AVE,Toronto,"ON, CA",M4L3B4,0.4
GET WELL PHARMACY,1278 THE QUEENSWAY,Toronto,M8Z1S3,43.62135,-79.52658,1278,THE QUEENSWAY,Toronto,"ON, CA",,0.8
GLEN GEORGE IDA,1118 VICTORIA PARK AVE,Toronto,M4B2K3,43.707937,-79.296247,1118,Victoria Park AVE,Toronto,"ON, CA",M4B2K3,0.6
GLEN MANOR PHARMACY,116 GLEN MANOR DRIVE,Toronto,M4E2X2,43.67437,-79.37575,54,GLEN MANOR,Toronto,"ON, CA",M4W2T5,0.7
GLENGROVE PHARMACY,2760 YONGE ST,Toronto,M4N2J2,43.71867,-79.40123,2760,Yonge St,Toronto,CA,M4N2J2,0.7
GLENHOLME PHARMACY,896 ST. CLAIR AVE W,Toronto,M6C1C5,43.6804,-79.433223,896,Saint Clair AVE W,Toronto,"ON, CA",M6C1C5,0.4
GOLDEN GATE PHARMACY,939 O'CONNOR DRIVE,Toronto,M4B2S7,43.707704,-79.311181,939,Oconnor DR,Toronto,"ON, CA",M4B2S7,0.4
GREEN MEDICAL PHARMACY,1705 ST CLAIR AVENUE WEST,Toronto,M6N1J2,43.674062,-79.459406,1705,Saint Clair AVE W,Toronto,"ON, CA",M6N1J2,0.4
GREEN PHARMACY,620A BLOOR STREET WEST,Toronto,M6G1K7,46.49946,-81.00068,127,BLOOR,Street,"ON, CA",P3C2K8,0.5
GREENDALE DRUGS,152 CARLTON ST.,Toronto,M5A2K1,43.6631,-79.37457,152,Carlton ST,Toronto,"ON, CA",M5A2K1,0.8
GREENWOOD PHARMACY,1285 GERRARD ST EAST,Toronto,M4L1Y5,43.670753,-79.328201,1285,Gerrard ST E,Toronto,"ON, CA",M4L1Y5,0.4
HABER'S COMPOUNDING PHARMACY,1584 BATHURST ST,Toronto,M5P3H3,43.68677,-79.42028,1584,Bathurst ST,Toronto,"ON, CA",M5P3H3,0.7
HARBOURFRONT MEDICINE CABINET,#1-8 YORK STREET,Toronto,M5J2Y2,43.6405,-79.38081,8,York Street,Toronto,CA,M5J2Y2,0.7
HEALTH CARE MART,1173 QUEEN ST W,Toronto,M6J1J4,43.64259,-79.426012,1173,Queen ST W,Toronto,"ON, CA",M6J1J4,0.4
HEALTH CHOICE PHARMACY,449 QUEEN ST W,Toronto,M5V2A9,43.64849,-79.3969,449,Queen ST W,Toronto,"ON, CA",M5V2A9,0.7
HEALTH DRUG MART,105 PARKWAY FOREST DR,Toronto,M2J1L8,43.774126,-79.341835,105,Parkway Forest DR,Toronto,"ON, CA",M2J1L8,0.4
HEALTH DRUG MART,70 FOREST MANOR RD,Toronto,M2J0A9,43.774431,-79.344259,70,Forest Manor RD,Toronto,"ON, CA",M2J0A9,0.4
HEALTHSHIELD PHARMACY,2-589 KING STREET EAST,Toronto,M5A1M6,43.656428,-79.35647,589,King ST E,Toronto,"ON, CA",M5A1M6,0.5
HEALTHSHIELD PHARMACY,939 O'CONNOR DRIVE,Toronto,M4B2S7,43.707704,-79.311181,939,Oconnor DR,Toronto,"ON, CA",M4B2S7,0.5
HELLENIC PHARMACY,374 DANFORTH AVENUE,Toronto,M4K1N8,43.677857,-79.352214,374,Danforth AVE,Toronto,"ON, CA",M4K1N8,0.4
HERITAGE PHARMACY,1488 DANFORTH AVENUE,Toronto,M4J1N4,43.683129,-79.325735,1488,Danforth AVE,Toronto,"ON, CA",M4J1N4,0.4
HIGH PARK PHARMACY,1938 BLOOR STREET W.,Toronto,M6P3K8,43.653442,-79.466793,1938,Bloor ST W,Toronto,"ON, CA",M6P3K8,0.4
HILARY'S PHARMACY,811 DUNDAS STREET W.,Toronto,M6J1V4,43.651618,-79.40865,811,Dundas ST W,Toronto,"ON, CA",M6J1V4,0.4
HOMA PHARMACY,2698 JANE STREET,Toronto,M3L1S5,43.743118,-79.514126,2698,Jane ST,Toronto,"ON, CA",M3L1S5,0.5
HOOPER'S PHARMACY,2124 QUEEN STREET EAST,Toronto,M4E1E3,43.671543,-79.293932,2124,Queen ST E,Toronto,"ON, CA",M4E1E3,0.4
HOWARD PHARMACY,25 HOWARD STREET,Toronto,M4X1J6,43.671107,-79.375062,25,Howard ST,Toronto,"ON, CA",M4X1J6,0.4
HUI'S PHARMASAVE,280 SPADINA AVE,Toronto,M5T3A5,43.65252,-79.39858,280,Spadina Ave,Toronto,CA,M5T3A5,0.7
HUMBER BAY PHARMACY,2240 LAKESHORE BLVD,Toronto,M8V0B1,43.62123,-79.48332,2240,Lakeshore Blvd,Toronto,CA,M8V0A9,0.7
HURST GUARDIAN PHARMACY,419 DONLANDS AVENUE,Toronto,M4J3S2,43.694451,-79.342714,419,Donlands AVE,Toronto,"ON, CA",M4J3S2,0.4
ICARE DISCOUNT PHARMACY,6-1577 DANFORTH AVE,Toronto,M4C1H7,43.68318,-79.32304,1577,Danforth AVE,Toronto,"ON, CA",M4C1H7,0.7
ICARE PHARMACY SERVICES,26-2 THORNCLIFFE PARK DR.,Toronto,M4H1H2,43.7066,-79.35149,2,Thorncliffe Park DR,Toronto,"ON, CA",M4H1H2,0.8
INFINITY HEALTH PHARMACY,35 LOWER SIMCOE STREET,Toronto,M5J3A6,43.64194,-79.38357,35,Lower Simcoe Street,Toronto,CA,M5J3A6,0.7
INTERNATIONAL PHARMACY,1218 KING STREET W.,Toronto,M6K1G4,43.639066,-79.42817,1218,King ST W,Toronto,"ON, CA",M6K1G4,0.5
ISLINGTON DISCOUNT PHARMACY,201-2304 ISLINGTON AVE,Toronto,M9W3W9,43.718417,-79.556672,2304,Islington AVE,Toronto,"ON, CA",M9W3W9,0.4
ISLINGTON IDA PHARMACY,2428 ISLINGTON AVE,Toronto,M9W3X8,43.781669,-79.320153,2428,Pharmacy AVE,Toronto,"ON, CA",M9W3X8,0.4
ISLINGTON MEDICAL PHARMACY,1243 ISLINGTON AVENUE SUITE 103,Toronto,M8X1Y9,43.64594,-79.52351,1243,ISLINGTON,Toronto,"ON, CA",M8X1Y9,0.6
J.C. PHARMACY,1A- 3685 KEELE ST,Toronto,M3J3H6,43.7534,-79.48812,3685,Keele St,Toronto,CA,M3J3H6,0.8
JAMESTOWN PHARMACY,5- 225 WELLESLEY STREET EAST,Toronto,M4X1X8,43.667325,-79.372738,225,Wellesley ST E,Toronto,"ON, CA",M4X1X8,0.4
JANE PARK PLAZA PHARMACY,873 JANE ST.,Toronto,M6N4C4,43.72192,-79.29603,808,PHARMACY,Toronto,"ON, CA",M1L3K8,0.6
JANE WILSON PHARMACY,2111 JANE ST UNIT # 3,Toronto,M3M1A2,43.66914,-79.3859,980,UNIT 305 ST,Toronto,"ON, CA",M4W3V8,0.6
JANEDAL PHARMACY,3-965 JANE STREET,Toronto,M6N4E1,43.680818,-79.497169,965,Jane ST,Toronto,"ON, CA",M6N4E1,0.5
JARVIS ST. APOTHECARY,275 JARVIS ST,Toronto,M5B2P2,43.658254,-79.374723,275,Jarvis ST,Toronto,"ON, CA",M5B2P2,0.4
JIMMY'S PHARMACY,255 BROADVIEW AVE.,Toronto,M4M2G6,43.66292,-79.35134,255,Broadview AVE,Toronto,"ON, CA",M4M2G6,0.7
JOHN & JACK PHARMACY,787 LAWRENCE AVE WEST,Toronto,M6A1C2,43.714342,-79.452349,787,Lawrence AVE W,Toronto,"ON, CA",M6A1C2,0.4
JUNCTION PHARMACY,3016 DUNDAS ST W,Toronto,M6P1Z3,43.66567,-79.46995,3016,Dundas St W,Toronto,CA,M6P1Z3,0.7
KASSEL'S PHARMACY,396 ROYAL YORK ROAD,Toronto,M8Y2R5,43.61939,-79.500039,396,Royal York RD,Toronto,"ON, CA",M8Y2R5,0.4
KEELE & ROGERS PHARMACY,D5-605 ROGERS ROAD,Toronto,M6M1B9,43.681619,-79.474513,605,Rogers RD,Toronto,"ON, CA",M6M1B9,0.5
KINGSWAY DRUGS,114 CUMBERLAND STREET,Toronto,M5R1A6,43.67033,-79.39162,112,Cumberland Street,Toronto,CA,M5R1A6,0.8
KLH PHARMACY,4113-A LAWRENCE AVENUE E,Toronto,M1E2S2,43.765155,-79.200732,4113,Lawrence AVE E,Toronto,"ON, CA",M1E2S2,0.4
KONOP CHEMISTS LTD,208 BLOOR ST W,Toronto,M5S3B4,43.66892,-79.39589,208,Bloor St W,Toronto,CA,M5S3B4,0.7
L. & A. PHARMACY,1485 GERRARD ST E,Toronto,M4L2A4,43.672383,-79.320007,1485,Gerrard ST E,Toronto,"ON, CA",M4L2A4,0.6
L. LEONE PHARMACY,1615 DUFFERIN ST,Toronto,M6H3L9,43.67663,-79.44228,1615,Dufferin ST,Toronto,"ON, CA",M6H4H4,0.7
LAKEFRONT MEDICAL PHARMACY,14-550 QUEENS QUAY WEST,Toronto,M5V3M8,43.637186,-79.396155,550,Queens QUAY W,Toronto,"ON, CA",M5V3M8,0.4
LAKESIDE PHARMACY,2438 LAKESHORE BLVD WEST,Toronto,M8V1C4,43.61409,-79.48919,2438,LAKESHORE BLVD,West Toronto,"ON, CA",M8V1C4,0.8
LAWRENCE HEIGHTS PHAMILY PHARMACY,12 FLEMINGTON ROAD,Toronto,M6A2N4,43.71952,-79.44481,12,Flemington RD,Toronto,"ON, CA",M6A2N4,0.7
LAWRENCE MEDICAL PHARMACY,4-1575 LAWRENCE AVE WEST,Toronto,M6L1C3,43.705635,-79.49007,1575,Lawrence AVE W,Toronto,"ON, CA",M6L1C3,0.4
LAWRENCE PHARMACHOICE,5-2013A LAWRENCE AVE WEST,Toronto,M9N0A3,43.71921,-79.43007,490,LAWRENCE PLAZA LAWRENCE AVE,West Toronto,"ON, CA",M6A1A1,0.8
LAWRENCE-VICTORIA PK PHARMACY,1723 LAWRENCE AVE E.,Toronto,M1R2X7,43.745115,-79.295902,1723,Lawrence AVE E,Toronto,"ON, CA",M1R2X7,0.4
LEASIDE COMMUNITY PHARMACY,795 EGLINTON AVENUE E.,Toronto,M4G4E4,43.711242,-79.378653,795,Eglinton AVE E,Toronto,"ON, CA",M4G4E4,0.4
LEFKO DRUGS,842 WILSON AVENUE,Toronto,M3K1E5,43.730812,-79.467384,842,Wilson AVE,Toronto,"ON, CA",M3K1E5,0.4
LESLIE GROVE PHARMACY,1176 QUEEN STREET E.,Toronto,M4M1L4,43.66303,-79.33212,1176,Queen Street E,Toronto,CA,M4M1L4,0.7
LIBERTY MARKET PHARMACY,"171 EAST LIBERTY STREET, UNIT 102 ",Toronto,M6K3P6,43.63878,-79.41631,150,East Liberty Street,Toronto,CA,M6K3R5,0.7
LIFE TRUST PHARMACY,201-125 NORFINCH DR,Toronto,M3N1W8,43.756916,-79.525639,125,Norfinch DR,Toronto,"ON, CA",M3N1W8,0.4
LILY PHARMACY,9-2721 JANE STREET,Toronto,M3L1S3,43.740692,-79.513259,2721,Jane ST,Toronto,"ON, CA",M3L1S3,0.5
LINGEMAN PHARMACY,411 JANE ST,Toronto,M6S3Z6,43.65875,-79.48792,411,Jane ST,Toronto,"ON, CA",M6S3Z6,0.7
LMC PHARMACY,107-1929 BAYVIEW AVENUE,Toronto,M4G3E8,43.715993,-79.377546,1929,Bayview AVE,Toronto,"ON, CA",M4G3E8,0.4
LOBLAW PHARMACY,585 QUEEN STREET WEST,Toronto,M5V2B7,43.647554,-79.401596,585,Queen ST W,Toronto,"ON, CA",M5V2B7,0.4
LOBLAW PHARMACY,60 CARLTON STREET,Toronto,M5B1L1,43.66217,-79.37927,70,Carlton Street,Toronto,CA,M5B1L6,0.7
LOBLAW PHARMACY,5095 YONGE STREET,Toronto,M2N6Z4,43.767355,-79.41271,5095,Yonge ST,Toronto,"ON, CA",M2N6Z4,0.4
LOBLAW PHARMACY,LOBLAWS DIVISION 2877 BAYVIEW AVENUE,Toronto,M2K2S3,43.768619,-79.387295,2877,Bayview AVE,Toronto,"ON, CA",M2K2S3,0.5
LOBLAW PHARMACY,51 GERRY FITZGERALD DR,Toronto,M3J3N4,43.78483,-79.47151,51,Gerry Fitzgerald Dr,Toronto,CA,M3J3N4,0.8
LOBLAW PHARMACY,LOBLAWS RCSS DIVISION 825 DON MILLS ROAD,Toronto,M3C1V4,43.720218,-79.338305,825,Don Mills RD,Toronto,"ON, CA",M3C1V4,0.4
LOBLAW PHARMACY,LOBLAWS SUPERMARKET 11 REDWAY ROAD,Toronto,M4H1P6,43.70157,-79.3589,23,REDWAY,Toronto,"ON, CA",M4H1A1,0.5
LOBLAW PHARMACY,LOBLAWS DIV 396 ST CLAIR AVE WEST,Toronto,M4P3N3,43.69097,-79.38171,300,ST CLAIR AVE,West Toronto,"ON, CA",M4V1S4,0.8
LOBLAW PHARMACY,2549 WESTON ROAD,Toronto,M9N2A7,43.709959,-79.533854,2549,Weston RD,Toronto,"ON, CA",M9N2A7,0.4
LOBLAW PHARMACY,200 FRONT STREET EAST,Toronto,M5A4T9,43.65053,-79.36616,207,Front Street,East Toronto,CA,M5A1E1,0.8
LORD'S PHARMACY,225 WELLESLEY ST,Toronto,M4X1X8,43.66733,-79.37274,225,Wellesley St,Toronto,CA,M4X1X8,0.7
M&D SHEPPARD PHARMACY,2-872 SHEPPARD AVE W,Toronto,M3H5V5,43.751178,-79.459019,872,Sheppard AVE W,Toronto,"ON, CA",M3H5V5,0.4
MAIN DRUG MART,1169 DUNDAS ST WEST,Toronto,M6J2Z9,43.64944,-79.42211,1170,Dundas ST,West Toronto,"ON, CA",M6J1X4,0.8
MAIN DRUG MART,1315 FINCH AVE WEST SUITE 117,Toronto,M3J2G6,43.751259,-79.54618,1315,Finch AVE W,Toronto,"ON, CA",M3J2G6,0.4
MAIN DRUG MART,1473 DANFORTH AVE.,Toronto,M4J1N5,43.682602,-79.325954,1473,Danforth AVE,Toronto,"ON, CA",M4J1N5,0.6
MAIN DRUG MART,2160 WESTON ROAD,Toronto,M9N1X6,43.702857,-79.525458,2160,Weston RD,Toronto,"ON, CA",M9N1X6,0.4
MAIN DRUG MART,25 OVERLEA BLVD #4,Toronto,M4H1P9,43.704954,-79.350046,25,Overlea BLVD,Toronto,"ON, CA",M4H1P9,0.7
MAIN DRUG MART,2536 KEELE STREET,Toronto,M6L2N8,43.715278,-79.479853,2536,Keele ST,Toronto,"ON, CA",M6L2N8,0.4
MAIN DRUG MART,3245 FINCH AVE. EAST,Toronto,M1W4C1,43.795845,-79.319301,3245,Finch AVE E,Toronto,"ON, CA",M1W4C1,0.4
MAIN DRUG MART,3265 BAYVIEW AVENUE,Toronto,M2K1G4,43.791613,-79.393023,3265,Bayview AVE,Toronto,"ON, CA",M2K1G4,0.4
MAIN DRUG MART,61 QUEEN ST EAST,Toronto,M5C2T2,43.652826,-79.376288,61,Queen ST E,Toronto,"ON, CA",M5C2T2,0.4
MAIN DRUG MART,658 DANFORTH AVE UNIT 102,Toronto,M4J5B9,43.68778,-79.30205,,Danforth Ave,Toronto,CA,,0.4
MAIN DRUG MART,7-1646 VICTORIA PARK AVENUE,Toronto,M1R1P7,43.730376,-79.304987,1646,Victoria Park AVE,Toronto,"ON, CA",M1R1P7,0.9
MAIN DRUG MART,844 BATHURST ST,Toronto,M5R3G1,43.66628,-79.41205,844,BATHURST ST,Toronto,"ON, CA",M5R3G1,0.8
MAIN DRUG MART,2772 DANFORTH AVENUE,Toronto,M4C1L7,43.689551,-79.296986,2772,Danforth AVE,Toronto,"ON, CA",M4C1L7,0.5
MAIN DRUG MART,410 SHERBOURNE STREET,Toronto,M4X1K2,43.66484,-79.37347,413,Sherbourne Street,Toronto,CA,M4X1K5,0.8
MAIN DRUG MART,2091 DANFORTH AVENUE,Toronto,M4C1K1,43.685556,-79.312324,2091,Danforth AVE,Toronto,"ON, CA",M4C1K1,0.5
MAIN DRUG MART,1-399 CHURCH ST,Toronto,M5B2J6,43.66179,-79.37894,399,Church St,Toronto,CA,M5B2J6,0.7
MAIN DRUG MART,5 THE MARKET PLACE,Toronto,M4C5M2,43.69601,-79.29212,13,The Market Place,Toronto,CA,M4C5M2,0.8
MAIN DRUG MART,6-943 O'CONNOR DRIVE,Toronto,M4B2S7,43.707974,-79.310629,943,Oconnor DR,Toronto,"ON, CA",M4B2S7,0.4
MAIN DRUG MART,2558 DANFORTH AVE,Toronto,M4C1L3,43.688471,-79.30177,2558,Danforth AVE,Toronto,"ON, CA",M4C1L3,0.5
MAIN DRUG MART,521 VICTORIA PARK AVE,Toronto,M4C5H1,43.690074,-79.287622,521,Victoria Park AVE,Toronto,"ON, CA",M4C5H1,0.6
MAIN DRUG MART,1 OAK STREET UNIT 1 & 2,Toronto,M5A0A1,43.664906,-79.351921,2,First AVE,Toronto,"ON, CA",M4M1W8,0.5
MAIN DRUG MART,140 THE ESPLANADE,Toronto,M5A4P5,43.64856,-79.37026,140,The Esplanade,Toronto,CA,M5A4P5,0.7
MAIN DRUG MART,1130 BLOOR ST WEST,Toronto,M6H1M8,43.660116,-79.43509,1130,Bloor ST W,Toronto,"ON, CA",M6H1M8,0.4
MAPLE LEAF MEDICAL PHARMACY,14 COLLEGE ST,Toronto,M5G1K2,43.66149,-79.38394,14,COLLEGE ST,Toronto,"ON, CA",M5G1K2,0.7
MARGIS PHARMACY,408 RONCESVALLES AVE,Toronto,M6R2M9,43.65135,-79.45129,408,Roncesvalles AVE,Toronto,"ON, CA",M6R2M9,0.8
MARKET ST. PHARMACY,149 AUGUSTA AVENUE,Toronto,M5T2L4,43.652669,-79.401086,149,Augusta AVE,Toronto,"ON, CA",M5T2L4,0.4
MARKIE PHARMACY,1235 BAY STREET,Toronto,M5R3K4,43.670888,-79.389643,1235,Bay ST,Toronto,"ON, CA",M5R3K4,0.5
MARKLAND WOOD PHARMACY,4335 BLOOR STREET WEST,Toronto,M9C2A5,43.6476,-79.50954,2985,BLOOR,West Toronto,"ON, CA",M8X1C1,0.6
MARSHALL'S DRUG STORE,412 SUMMERHILL AVENUE,Toronto,M4W2E4,43.68617,-79.37624,418,Summerhill Avenue,Toronto,CA,M4W2E4,0.7
MEDCENTRAL PHARMACY,20 DREWRY AVE,Toronto,M2M1C8,43.78714,-79.4183,20,Drewry AVE,Toronto,"ON, CA",M2M1C8,0.7
MEDI CHOICE PHARMACY,842 GERRARD ST. E UNIT 2,Toronto,M4M1Y7,43.667815,-79.343307,842,Gerrard ST E,Toronto,"ON, CA",M4M1Y7,0.4
MEDICAL PHARMACY,340 COLLEGE STREET,Toronto,M5T3A9,43.657581,-79.403464,340,College ST,Toronto,"ON, CA",M5T3A9,0.4
MEDICARE PHARMACY,B109-3341 MARKHAM RD,Toronto,M1X0A5,43.835359,-79.251232,3341,Markham RD,Toronto,"ON, CA",M1X0A5,0.4
MEDICINE CABINET LAKESHORE PHARMACY,2081 LAKESHORE BLVD WEST,Toronto,M8V3Z4,42.19533,-82.81387,882,LAKESHORE,Lakeshore,"ON, CA",N8M2X7,0.5
MEDIMOST PHARMACY INC,2883 DANFORTH AVENUE,Toronto,M4C1M3,43.689662,-79.294551,2883,Danforth AVE,Toronto,"ON, CA",M4C1M3,0.4
MEDI-PLACE PHARMACY,3300 BLOOR STREET W SUITE #146,Toronto,M8X2W8,43.64825,-79.50636,2897,Bloor Street W,Toronto,CA,M8X1B3,0.6
MEDI-PLACE PHARMACY,1A-622 COLLEGE STREET,Toronto,M6G1B4,43.65484,-79.41495,623,College Street,Toronto,CA,M6G1B5,0.7
MEDISYSTEM,3-75 LESMILL ROAD,Toronto,M3B2T8,43.759122,-79.356421,75,Lesmill RD,Toronto,"ON, CA",M3B2T8,0.4
MEDSEXPERT PHARMACY,461 CHURCH ST,Toronto,M4Y2C5,43.66426,-79.37999,461,Church St,Toronto,CA,M4Y2C5,0.7
METRO DRUGS,320 SCARLETT RD,Toronto,M9A4S4,43.682253,-79.510518,320,Scarlett RD,Toronto,"ON, CA",M9A4S4,0.5
METRO DRUGS,129 DUNDAS ST EAST,Toronto,M5B2N6,43.65671,-79.37643,125,DUNDAS ST,East Toronto,"ON, CA",M5B2N6,0.8
METRO DRUGS,1290 BLOOR ST WEST,Toronto,M6H1N9,43.658821,-79.442111,1290,Bloor ST W,Toronto,"ON, CA",M6H1N9,0.4
METRO MEDICAL PHARMACY,351 CHRISTIE ST.,Toronto,M6G3C2,43.67339,-79.42117,351,Christie ST,Toronto,"ON, CA",M6G3C3,0.7
METRO PHARMACY,3221 EGLINTON AVENUE E.,Toronto,M1J2H7,43.742831,-79.220546,3221,Eglinton AVE E,Toronto,"ON, CA",M1J2H7,0.4
METRO PHARMACY,16 WILLIAM KITCHEN BLVD,Toronto,M1P5B7,43.771079,-79.28176,16,William Kitchen RD,Toronto,"ON, CA",M1P5B7,0.5
METRO PHARMACY,3003 DANFORTH AVENUE,Toronto,M4C1M9,43.690307,-79.293458,3003,Danforth AVE,Toronto,"ON, CA",M4C1M9,0.4
METRO PHARMACY,80 FRONT ST EAST,Toronto,M5E1T4,43.649498,-79.37295,80,Front ST E,Toronto,"ON, CA",M5E1T4,0.4
METRO PHARMACY,100 LYNN WILLIAMS ST,Toronto,M6K3N6,43.63996,-79.41787,100,Lynn Williams ST,Toronto,"ON, CA",M6K3N6,0.8
METRO PHARMACY,2155 ST. CLAIR AVE WEST,Toronto,M6N1K5,43.669651,-79.473174,2155,Saint Clair AVE W,Toronto,"ON, CA",M6N1K5,0.4
METROPOLITAN PHARMACY,4G SPADINA AVE,Toronto,M5V3Z9,43.67474,-79.37619,15,Ave Toronto Ontario M4W2T5,Toronto,"ON, CA",M4W2T5,0.7
MOBARAK GUARDIAN PHARMACY,28 OVERLEA BLVD,Toronto,M4H1B6,43.70554,-79.35001,28,OVERLEA BLVD,Toronto,"ON, CA",M4H1B6,0.7
MORELLI'S PHARMACY,93 LAIRD DRIVE,Toronto,M4G3T7,43.706138,-79.361782,93,Laird DR,Toronto,"ON, CA",M4G3T7,0.4
MORELLI'S PHARMACY,15 YORK STREET,Toronto,M5J0A3,43.642348,-79.380871,15,York ST,Toronto,"ON, CA",M5J0A3,0.5
MOSS PARK PHARMACY,325 QUEEN STREET EAST,Toronto,M5A1S9,43.655222,-79.365344,325,Queen ST E,Toronto,"ON, CA",M5A1S9,0.5
MOUNT PLEASANT PHARMACY,245 EGLINTON AVENUE E.,Toronto,M4P1L2,43.708261,-79.389548,245,Eglinton AVE E,Toronto,"ON, CA",M4P3B7,0.4
MP SPECIALTY PHARMACY,290 SHUTER STREET-2ND FLOOR,Toronto,M5A1W7,43.65699,-79.36558,290,Shuter Street,Toronto,CA,M5A1W7,0.7
MURRAY SHORE PHARMACY,3537 BATHURST STREET,Toronto,M6A2C7,43.729851,-79.431834,3537,Bathurst ST,Toronto,"ON, CA",M6A2C7,0.4
NATIONS PHARMACY,1980 ST CLAIR AVENUE W,Toronto,M6N0A3,43.672204,-79.470618,1980,Saint Clair AVE W,Toronto,"ON, CA",M6N0A3,0.4
NEW CALEDONIA PHARMACY,600 CALEDONIA RD,Toronto,M6E4V6,43.68957,-79.46114,480,Caledonia,Toronto,CA,M6E4V2,0.7
NEW CARE PHARMACY,56 WESTMORE DR,Toronto,M9V1C3,43.739893,-79.603732,56,Westmore DR,Toronto,"ON, CA",M9V1C3,0.4
NEW DAY DANFORTH PHARMACY,1288 DANFORTH AVENUE,Toronto,M4J1M6,43.682185,-79.33024,1288,Danforth AVE,Toronto,"ON, CA",M4J1M6,0.4
NEW ERA PHARMACY,2163 DANFORTH AVENUE,Toronto,M4C1K2,43.685951,-79.310762,2163,Danforth AVE,Toronto,"ON, CA",M4C1K2,0.4
NEWE TOWNE MEDICAL PHARMACY,102-3420 FINCH AVE E,Toronto,M1W2R6,43.79738,-79.31278,3420,Finch Ave E,Toronto,CA,M1W2R6,0.7
NHATRANG DRUG MART,790 WILSON AVE,Toronto,M3K1E2,43.731292,-79.465122,790,Wilson AVE,Toronto,"ON, CA",M3K1E2,0.4
NORTH PARK MEDICAL PHARMACY,D2-2355 KEELE STREET,Toronto,M6M4A1,43.707675,-79.477478,2355,Keele ST,Toronto,"ON, CA",M6M4A1,0.5
NORTHCLIFFE PHARMACY,1751 EGLINTON AVE W,Toronto,M6E2H7,43.694972,-79.453456,1751,Eglinton AVE W,Toronto,"ON, CA",M6E2H7,0.4
NORTHERN RX MEDICAL PHARMACY,201-418 EGLINTON AVE WEST,Toronto,M5N1A2,43.704286,-79.411062,418,Eglinton AVE W,Toronto,"ON, CA",M5N1A2,0.4
NOVA PHARMACY,1674 DUFFERIN ST,Toronto,M6H3M1,43.67749,-79.44325,1674,Dufferin ST,Toronto,"ON, CA",M6H3M1,0.8
OAKWOOD PHARMACY,332 OAKWOOD AVE,Toronto,M6E2V9,43.68676,-79.438664,332,Oakwood AVE,Toronto,"ON, CA",M6E2V9,0.4
OLD PARK PHARMACY,1042 EGLINTON AVE WEST,Toronto,M6C2C5,43.70018,-79.43043,1048,EGLINTON AVE,West Toronto,"ON, CA",M6C2C5,0.8
OMNI PHARMACY,799 BLOOR ST W,Toronto,M6G1L8,43.662717,-79.42135,799,Bloor ST W,Toronto,"ON, CA",M6G1L8,0.4
ON CARE PHARMACY,481 DUNDAS STREET WEST,Toronto,M5T1H1,43.653001,-79.39725,481,Dundas ST W,Toronto,"ON, CA",M5T1H1,0.4
ONE COMMUNITY PHARMACY,347 SPADINA AVE,Toronto,M5T2G3,43.65528,-79.39867,347,Spadina Ave,Toronto,CA,M5T2G3,0.7
ONE MEDICAL PHARMACY,102-20 WYNFORD DR,Toronto,M3C1J4,43.72397,-79.33633,20,WYNFORD DR,Toronto,"ON, CA",M3C1J4,0.7
ONE PHARMACY,5292 YONGE STREET,Toronto,M2N5P9,43.772414,-79.414043,5292,Yonge ST,Toronto,"ON, CA",M2N5P9,0.4
OSSINGTON MEDICAL PHARMACY,836 BLOOR STREET WEST,Toronto,M6G1M2,43.662584,-79.423793,836,Bloor ST W,Toronto,"ON, CA",M6G1M2,0.5
PACE PHARMACY,14 ISABELLA ST,Toronto,M4Y1N1,43.66793,-79.38509,14,Isabella ST,Toronto,"ON, CA",M4Y1N1,0.8
PAPE DRUG MART,751 PAPE AVE,Toronto,M4K3T1,43.680315,-79.345074,751,Pape AVE,Toronto,"ON, CA",M4K3T1,0.4
PARKDALE GUARDIAN DRUGS,1488 QUEEN ST WEST,Toronto,M6K1M4,43.64066,-79.43772,1488,Queen ST,West Toronto,"ON, CA",M6K1L0,0.8
PARKDALE PHARMACY,1439 KING ST WEST,Toronto,M6K1H9,43.63755,-79.43285,1355,King ST,West Toronto,"ON, CA",M6K3C8,0.8
PARKSIDE REMEDY RX,1640 BLOOR ST W,Toronto,M6P1A7,43.655692,-79.45649,1640,Bloor ST W,Toronto,"ON, CA",M6P1A7,0.4
PARLIAMENT PHARMACY,402 PARLIAMENT ST,Toronto,M5A2Z7,43.661769,-79.367266,402,Parliament ST,Toronto,"ON, CA",M5A2Z7,0.5
PEOPLES CHOICE REMEDY'S RX,1145 MORNINGSIDE AV. UNIT #16,Toronto,M1B0A7,43.808538,-79.202533,1145,Morningside AVE,Toronto,"ON, CA",M1B0A7,0.4
PEOPLES DRUG MART,491 LAWRENCE AVE WEST,Toronto,M5M1C7,43.718804,-79.431663,491,Lawrence AVE W,Toronto,"ON, CA",M5M1C7,0.4
PEOPLES DRUG MART,294 MAIN STREET,Toronto,M4C4X5,43.68782,-79.30198,298,Main Street,Toronto,CA,M4C4X5,0.7
PHARMA CENTRE PHARMACY,2299 DUNDAS STREET W,Toronto,M6R1X7,43.655557,-79.452653,2299,Dundas ST W,Toronto,"ON, CA",M6R1X7,0.4
PHARMA PLUS,23-55 BLOOR ST W,Toronto,M4W1A5,43.669641,-79.388688,55,Bloor ST W,Toronto,"ON, CA",M4W1A5,0.4
PHARMA PLUS,288 SHEPPARD AVE,Toronto,M2N3B1,43.76533,-79.392786,288,Sheppard AVE E,Toronto,"ON, CA",M2N3B1,0.5
PHARMA PLUS,325 MOORE AVE,Toronto,M4G3T6,43.696969,-79.369508,325,Moore AVE,Toronto,"ON, CA",M4G3T6,0.4
PHARMA PLUS,3402 YONGE ST,Toronto,M4N2M9,43.733021,-79.404505,3402,Yonge ST,Toronto,"ON, CA",M4N2M9,0.6
PHARMA PLUS,C216-777 BAY ST,Toronto,M5G2C8,43.66064,-79.38538,777,Bay St,Toronto,CA,M5G2C8,0.7
PHARMACARE DRUG MART,959 BROADVIEW AVENUE,Toronto,M4K2R5,43.682707,-79.357026,959,Broadview AVE,Toronto,"ON, CA",M4K2R5,0.4
PHARMACIA SEIFEIN PHARMACY,553 ST CLAIR AVE WEST,Toronto,M6C1A3,43.68292,-79.41949,530,St Clair AVE,West Toronto,"ON, CA",M6C0A2,0.8
PHARMA-CITA,4810 SHEPPARD AVE EAST UNIT 224,Toronto,M1S4N6,43.78231,-79.29363,3760,Sheppard Ave East,Toronto,CA,M1T3K9,0.7
PHARMACY BY THE GRANGE,UNIT 9 & 10 275 DUNDAS STREET W.,Toronto,M5T1G1,43.654305,-79.390455,275,Dundas ST W,Toronto,"ON, CA",M5T3K1,0.5
PHARMACY ZEN,6-4234 LAWRENCE AVE E,Toronto,M1E2S5,43.769575,-79.180966,4234,Lawrence AVE E,Toronto,"ON, CA",M1E2S5,0.5
PHARMACY.CA,311 SHERBOURNE STREET,Toronto,M5A3Y1,43.66148,-79.37186,311,Sherbourne Street,Toronto,CA,M5A3Y1,0.9
PHARMADOCS,199 CHURCH ST. LOWER LEVEL,Toronto,M5B1Y7,43.655703,-79.376497,199,Church ST,Toronto,"ON, CA",M5B1Y7,0.4
PHARMADOCS,4972 DUNDAS STREET WEST,Toronto,M9A1B7,43.647468,-79.530264,4972,Dundas ST W,Toronto,"ON, CA",M9A1B7,0.4
PHARMAKEIO GUARDIAN,5-1260 KENNEDY ROAD,Toronto,M1P2L3,43.760539,-79.28,1260,Kennedy RD,Toronto,"ON, CA",M1P2L3,0.4
PHARMASAVE,1018 PAPE AVENUE,Toronto,M4K3V9,43.689007,-79.349019,1018,Pape AVE,Toronto,"ON, CA",M4K3V9,0.4
PHARMASAVE,1021 KINGSTON ROAD,Toronto,M4E1T5,43.68063,-79.28476,1021,Kingston Road,Toronto,CA,M4E1T5,0.7
PHARMASAVE,"150 WYNFORD DRIVE, UNIT 115 ",Toronto,M3C1K6,43.727218,-79.326641,150,Wynford DR,Toronto,"ON, CA",M3C1K6,0.4
PHIL-WAY PHARMACY,1700 EGLINTON AVE EAST UNIT A3,Toronto,M4A2X4,43.707042,-79.397974,1700,Eglinton AVE E,Toronto,"ON, CA",M4A2X4,0.4
PHIL-WAY PHARMACY,A3-1700 EGLINTON AVE EAST,Toronto,M4A2X4,43.72604,-79.31314,1700,Eglinton AVE,East Toronto,"ON, CA",M4A2X4,0.7
PREMIER PHARMACY & COMPOUNDING CENTRE,3323 BATHURST ST,Toronto,M6A2B7,43.725412,-79.430944,3323,Bathurst ST,Toronto,"ON, CA",M4A8B7,0.5
PRESCRIPTION CARE CENTRE ST. MICHAEL'S HOSPITAL,30 BOND ST #1038 QUEEN WING,Toronto,M5B1W8,43.65366,-79.37768,30,Bond St,Toronto,CA,M5B1W8,0.6
PRINCESS MARGARET HOSPITAL OUTPATIENT PHARMACY,610 UNIVERSITY AVENUE RM M633,Toronto,M5G2M9,43.65542,-79.38917,500,University Avenue,Toronto,CA,M5G1V7,0.6
PROCARE IDA PHARMACY,795 BROADVIEW AVE,Toronto,M4K2P8,43.67771,-79.35832,795,Broadview AVE,Toronto,"ON, CA",M4K2P8,0.8
PROCARE PHARMACY,2-3551 SHEPPARD E,Toronto,M1T3K8,43.76201,-79.41045,2,Sheppard AVE E,Toronto,"ON, CA",M1T3K8,0.4
PROGRESS MEDICAL PHARMACY,1-1939 KENNEDY RD,Toronto,M1P2L9,43.770307,-79.28265,1939,Kennedy RD,Toronto,"ON, CA",M1P2L9,0.4
PROHEALTH PHARMACY,343 COXWELL AVE UNIT #3,Toronto,M4L3B5,43.675207,-79.319929,343,Coxwell AVE,Toronto,"ON, CA",M4L3B5,0.4
PROVIDENCE PHARMACY PROVIDENCE HEALTHCARE,3276 ST. CLAIR AVE,Toronto,M1L1W1,43.67474,-79.37619,15,Ave Toronto Ontario M4W2T5,Toronto,"ON, CA",M4W2T5,0.6
R. K. PHARMACY,302 SPADINA AVENUE SUITE 101,Toronto,M5T2E7,43.65528,-79.39867,347,Spadina Avenue,Toronto,CA,M5T2G3,0.7
RAXLEN PHARMACY,343 COLLEGE ST,Toronto,M5T1S9,43.65712,-79.40324,343,College ST,Toronto,"ON, CA",M5T1S5,0.7
REGENCY PHARMACY,101-2737 KEELE STREET,Toronto,M3M2E9,43.72581,-79.48061,2737,Keele Street,Toronto,CA,M3M2E9,0.7
REMEDY'S RX EGLINTON BAYVIEW COMPOUNDING PHARMACY,586 EGLINTON AVE EAST SUITE 102,Toronto,M4P1P2,43.70258,-79.4196,660,EGLINTON,Toronto,"ON, CA",M5N1C3,0.4
REMEDY'S RX GLOBAL DRUG MART,901 BAY ST,Toronto,M5S3K6,43.663305,-79.386448,901,Bay ST,Toronto,"ON, CA",M5S3K6,0.5
REXALL,1 FIRST CANADIAN PLACE UNIT #CN1038 ,Toronto,M5K1C8,43.664481,-79.352034,1,First AVE,Toronto,"ON, CA",M5K1C8,0.5
REXALL,63 WELLESLEY ST E,Toronto,M4Y1G7,43.66544,-79.38132,63,Wellesley ST E,Toronto,"ON, CA",M4Y1G7,0.8
REXALL,YONGE-EGLINTON CENTRE 2300 YONGE ST,Toronto,M4P1E4,43.707158,-79.399084,2300,Yonge ST,Toronto,"ON, CA",M4P1E4,0.5
REXALL,1245 DUPONT ST,Toronto,M6H2A6,43.667518,-79.441757,1245,Dupont ST,Toronto,"ON, CA",M6H2A6,0.6
REXALL,C001-2 ST CLAIR AVE EAST,Toronto,M4T2T5,43.688076,-79.394126,2,St. Clair AVE E,Toronto,"ON, CA",M4T2T5,0.4
REXALL,600 UNIVERSITY AVENUE,Toronto,M5G1X5,43.657536,-79.390445,600,University AVE,Toronto,"ON, CA",M5G1X5,0.8
REXALL,807 BROADVIEW AVE,Toronto,M4K2P8,43.67793,-79.3582,807,Broadview Ave,Toronto,CA,M4K2P8,0.8
REXALL,539 PARLIAMENT STREET,Toronto,M4X1P7,43.66604,-79.36847,539,Parliament Street,Toronto,CA,M4X1P7,0.8
REXALL,1725 AVENUE RD,Toronto,M5M3Y5,43.72839,-79.41832,1726,Avenue RD,Toronto,"ON, CA",,0.8
REXALL,4789 YONGE STREET UNIT #2,Toronto,M2N0G3,43.76311,-79.411333,4789,Yonge ST,Toronto,"ON, CA",M2N0G3,0.4
REXALL,474 SPADINA AVE,Toronto,M5T2G8,43.65773,-79.40037,474,Spadina AVE,Toronto,"ON, CA",M5T2G8,0.8
REXALL,250 UNIVERSITY AVE,Toronto,M5H3E5,43.65042,-79.38702,250,University Ave,Toronto,CA,M5H3E5,0.8
REXALL,87 AVENUE ROAD,Toronto,M5R3R9,43.6729,-79.39609,102,Avenue Road,Toronto,CA,M5R2H3,0.8
REXALL,3306 KEELE STREET,Toronto,M3M2H7,43.743832,-79.486563,3306,Keele ST,Toronto,"ON, CA",M3M2H7,0.4
REXALL,63 FRONT STREET EAST,Toronto,M5E1B3,43.65053,-79.36616,207,Front Street,East Toronto,CA,M5A1E1,0.8
REXALL,159 YONGE ST,Toronto,M5C1X7,43.65198,-79.37886,159,Yonge ST,Toronto,"ON, CA",M5C1X7,0.8
REXALL,88 QUEENS QUAY WEST,Toronto,M5J0B8,43.64055,-79.37846,89,QUEENS QUAY,West Toronto,"ON, CA",M5J2T5,0.8
REXALL,76 GRENVILLE STREET,Toronto,M5S1B2,43.66136,-79.38647,57,Grenville Street,Toronto,CA,M5S1B1,0.9
REXALL,1235 WILSON AVENUE,Toronto,M3M0B2,43.724258,-79.489216,1235,Wilson AVE,Toronto,"ON, CA",M3M0B2,0.6
REXALL,1093 QUEEN STREET WEST,Toronto,M6J1J1,43.643256,-79.42266,1093,Queen ST W,Toronto,"ON, CA",M6J1J1,0.4
REXALL,401 YONGE ST.,Toronto,M5B1S9,43.6594,-79.38188,401,Yonge ST,Toronto,"ON, CA",M5B1S9,0.8
REXALL,481 BLOOR STREET W,Toronto,M5S1Y2,43.66523,-79.40968,537,Bloor Street W,Toronto,CA,M5S1Y5,0.8
REXALL,285 SPADINA AVENUE,Toronto,M5T2E6,43.653233,-79.397618,285,Spadina AVE,Toronto,"ON, CA",M5T2E6,0.6
REXALL,190 SHERWAY DR,Toronto,M9C5N2,43.608672,-79.560329,190,Sherway DR,Toronto,"ON, CA",M9C5N2,0.6
REXALL,DUNDAS ST W,Toronto,M6K1T8,43.655911,-79.381563,769,Dundas ST W,Toronto,"ON, CA",M6K1T8,0.4
REXALL,DUFFERIN ST,Toronto,M6E3X7,43.726989,-79.457642,8,Dufferin ST,Toronto,"ON, CA",M6E3X7,0.4
REXALL,249 MARLEE AVENUE UNIT B,Toronto,M6B4B8,43.705883,-79.442112,249,Marlee AVE,Toronto,"ON, CA",M6B4B8,0.4
REXALL,3701 LAKESHORE BLVD W,Toronto,M8W1P8,43.593011,-79.538909,3701,Lake Shore BLVD W,Toronto,"ON, CA",M8W1P8,0.9
REXALL,393 SPADINA RD,Toronto,M5P2W1,43.6885,-79.41238,393,Spadina RD,Toronto,"ON, CA",M5P2W1,0.8
REXALL,440 BROWNS LINE,Toronto,M8W3T9,43.601961,-79.545758,440,Browns LINE,Toronto,"ON, CA",M8W3T9,0.6
REXALL,595 BAY ST BOX 125,Toronto,M5G2C2,43.656221,-79.383301,595,Bay ST,Toronto,"ON, CA",M5G2C2,0.5
REXALL,901 EGLINTON AVE W,Toronto,M6C2C1,43.70049,-79.4275,901,Eglinton AVE W,Toronto,"ON, CA",M6C2C1,0.8
REXALL,3607 SHEPPARD AVE E,Toronto,M1T3K8,43.782003,-79.293909,3607,Sheppard AVE E,Toronto,"ON, CA",M1T3K8,0.6
REXALL,1113-1115 WILSON AVE,Toronto,M3M1H2,43.726209,-79.482973,1115,Wilson AVE,Toronto,"ON, CA",M3M1H2,0.5
REXALL,120 ADELAIDE ST W UNIT R28,Toronto,M5H1T1,43.65001,-79.3832,120,Adelaide St W,Toronto,CA,M5H1T1,0.8
REXALL,200-200 WELLINGTON ST W PO BOX 101,Toronto,M5V3C7,43.645862,-79.38785,200,Wellington ST W,Toronto,"ON, CA",M5V3C7,0.4
REXALL,3-345 BLOOR ST E,Toronto,M4W3J6,43.671543,-79.377979,345,Bloor ST E,Toronto,"ON, CA",M4W3J6,0.9
REXALL,660 EGLINGTON AVE E,Toronto,M4G2K2,43.70933,-79.38568,397,Eglington AVE E,Toronto,"ON, CA",M4P1M6,0.8
REXALL,COMMERCE COURT WEST C186-199 BAY ST,Toronto,M5L1E7,43.64823,-79.37956,199,BAY,Toronto,"ON, CA",M5J1J5,0.5
REXALL,PHARMACIES LTD 48 YONGE STREET,Toronto,M5E1G6,43.648009,-79.377764,48,Yonge ST,Toronto,"ON, CA",M5E1G6,0.5
REXALL,3560 BATHURST ST,Toronto,M6A2E1,43.730064,-79.434147,3560,Bathurst ST,Toronto,"ON, CA",M6A2E1,0.6
RIVER HILL PHARMACY,2086 LAWRENCE AVE WEST UNIT 1 & 2,Toronto,M9N3Z9,43.701107,-79.512087,2,Lawrence AVE W,Toronto,"ON, CA",M9N3Z9,0.4
ROGERS ROAD PHARMACY,576 ROGERS ROAD,Toronto,M6M1B6,43.682383,-79.471329,576,Rogers RD,Toronto,"ON, CA",M6M1B6,0.4
ROSEDALE PHARMACY,600 SHERBOURNE STREET,Toronto,M4X1W4,43.671632,-79.376877,600,Sherbourne ST,Toronto,"ON, CA",M4X1W4,0.5
ROYA BOUTIQUE PHARMACY,75 PROVOST DRIVE,Toronto,M2K0B7,43.770351,-79.371257,75,Provost DR,Toronto,"ON, CA",M2K0B7,0.4
ROYAL CARE PHARMACY,295 COLLEGE STREET,Toronto,M5T1S2,43.657477,-79.40123,295,College ST,Toronto,"ON, CA",M5T1S2,0.4
RUMBALL DRUG MART,553 SAMMON AVE,Toronto,M4C2E1,43.688643,-79.325594,553,Sammon AVE,Toronto,"ON, CA",M4C2E1,0.4
SABA PHARMACY,547 ST. CLAIR AVE W,Toronto,M6C1A3,43.682434,-79.420612,547,Saint Clair AVE W,Toronto,"ON, CA",M6C1A3,0.4
SAIGON PHARMACY,300 B SPADINA AVE,Toronto,M5T2E7,43.65322,-79.3986,300,Spadina AVE,Toronto,"ON, CA",M5T2E7,0.8
SAMM'S PHARMACY,324 SILVERTHORN AVE,Toronto,M6N3K6,43.68265,-79.463467,324,Silverthorn AVE,Toronto,"ON, CA",M6N3K6,0.6
SAM'S I.D.A. PHARMACY,101Y-1920 YONGE STREET PO BOX #30,Toronto,M4S3E2,43.649779,-79.378509,1920,Yonge ST,Toronto,"ON, CA",M4S3E2,0.5
SANOMED PHARMACY,1000 BAY STREET,Toronto,M5S3A8,43.66551,-79.38728,1001,Bay Street,Toronto,CA,M5S3A6,0.6
SANTE PHARMACY,830 YONGE ST 2ND FLOOR,Toronto,M4W2H1,43.67128,-79.387405,830,Yonge ST,Toronto,"ON, CA",M4W2H1,0.6
SHEPPARD COMMUNITY PHARMACY,#102-5818 SHEPPARD AVE EAST,Toronto,M1B4Z6,43.79614,-79.22753,5818,Sheppard AVE E,East Toronto,"ON, CA",M1B4Z6,0.6
SHERBOURNE PHARMACY,26-2300 FINCH AVE WEST,Toronto,M9M2Y3,43.75147,-79.54867,2400,FINCH AVE,West Toronto,"ON, CA",M9M2C8,0.7
SHOPPERS DRUG MART,901 KING STREET WEST,Toronto,M5V3H5,43.641881,-79.41125,901,King ST W,Toronto,"ON, CA",M5V3H5,0.5
SHOPPERS DRUG MART,463 COLLEGE STREET,Toronto,M6G4C1,43.65604,-79.40848,463,College Street,Toronto,CA,M6G4C1,0.7
SHOPPERS DRUG MART,399 BATHURST STREET,Toronto,M5T2S8,43.653095,-79.405688,399,Bathurst ST,Toronto,"ON, CA",M5T2S8,0.4
SHOPPERS DRUG MART,4700 KEELE STREET,Toronto,M3J1P3,43.74802,-79.4879,3400,Keele Street,Toronto,CA,M3J1L7,0.7
SHOPPERS DRUG MART,3446 DUNDAS ST W,Toronto,M6S2S1,43.665458,-79.48276,3446,Dundas ST W,Toronto,"ON, CA",M6S2S1,0.4
SHOPPERS DRUG MART,1840 EGLINTON AVENUE WEST,Toronto,M6E2J4,43.694972,-79.453456,1840,Eglinton AVE W,Toronto,"ON, CA",M6E2J4,0.4
SHOPPERS DRUG MART,180 DANFORTH AVE,Toronto,M4K1N1,43.6769,-79.35701,180,Danforth AVE,Toronto,"ON, CA",M4K1N1,0.8
SHOPPERS DRUG MART,3366 YONGE STREET,Toronto,M4N2M7,43.732322,-79.404493,3366,Yonge ST,Toronto,"ON, CA",M4N2M7,0.5
SHOPPERS DRUG MART,4990 YONGE STREET,Toronto,M2N0A1,43.765808,-79.412474,4990,Yonge ST,Toronto,"ON, CA",M2N0A1,0.5
SHOPPERS DRUG MART,1473 QUEEN ST W,Toronto,M6R1A1,43.63991,-79.43904,1473,Queen ST W,Toronto,"ON, CA",M6R1A1,0.7
SHOPPERS DRUG MART,1015 LAKESHORE BOULEVARD EAST,Toronto,M4M1B4,43.657983,-79.329916,1015,Lake Shore BLVD E,Toronto,"ON, CA",M4M1B4,0.4
SHOPPERS DRUG MART,292 DUPONT STREET,Toronto,M5R1V9,43.674943,-79.407917,292,Dupont ST,Toronto,"ON, CA",M5R1V9,0.4
SHOPPERS DRUG MART,761 KING STREET WEST,Toronto,M5V1N4,43.643062,-79.405852,761,King ST W,Toronto,"ON, CA",M5V1N4,0.5
SHOPPERS DRUG MART,1400 DUPONT STREET,Toronto,M6H2B2,43.666727,-79.44749,1400,Dupont ST,Toronto,"ON, CA",M6H2B2,0.4
SHOPPERS DRUG MART,101-1860 BAYVIEW AVE,Toronto,M4G0C3,43.714154,-79.377937,1860,Bayview AVE,Toronto,"ON, CA",M4G0C3,0.4
SHOPPERS DRUG MART,388 KING ST WEST,Toronto,M5V1K2,43.64639,-79.39131,370,King ST,West Toronto,"ON, CA",M5V1J9,0.8
SHOPPERS DRUG MART ,390 QUEENS QUAY WEST,Toronto,M5V3A6,43.63833,-79.3887,350,QUEENS QUAY,West Toronto,"ON, CA",M5V3A6,0.8
SHOPPERS DRUG MART ,"565 SHERBOURNE ST, SUITE 40 ",Toronto,M4X1W7,43.66997,-79.37543,565,Sherbourne ST,Toronto,"ON, CA",M4X1W7,0.7
SHOPPERS DRUG MART ,946 LAWRENCE AVE EAST,Toronto,M3C1R1,43.73637,-79.34877,880,LAWRENCE AVE,East Toronto,"ON, CA",M3C1P6,0.8
SHOPPERS DRUG MART ,351 QUEEN ST E,Toronto,M5A1T2,43.655482,-79.364107,351,Queen ST E,Toronto,"ON, CA",M5A1T2,0.4
SHOPPERS DRUG MART ,1500 ISLINGTON AVENUE,Toronto,M9A3L8,43.662947,-79.531129,1500,Islington AVE,Toronto,"ON, CA",M9A3L8,0.4
SHOPPERS DRUG MART,18 LOWER JARVIS STREET,Toronto,M5E1N1,43.64751,-79.37089,18,Lower Jarvis Street,Toronto,CA,M5E1N1,0.8
SHOPPERS DRUG MART,A-1033 QUEEN ST WEST,Toronto,M6J0A6,43.643753,-79.419439,1033,Queen ST W,Toronto,"ON, CA",M6J0A6,0.4
SHOPPERS DRUG MART,958 BLOOR STREET WEST,Toronto,M6H1L6,43.661616,-79.428775,958,Bloor ST W,Toronto,"ON, CA",M6H1L6,0.5
SHOPPERS DRUG MART,718 YONGE STREET,Toronto,M4Y2B3,43.66837,-79.386267,718,Yonge ST,Toronto,"ON, CA",M4Y2B3,0.5
SHOPPERS DRUG MART,500 KING ST W,Toronto,M5V1L9,43.64532,-79.39681,500,King St W,Toronto,CA,M5V1L9,0.7
SHOPPERS DRUG MART,10 DUNDAS STREET EAST UNIT 1,Toronto,M5B2G9,43.65601,-79.37846,65,Dundas Street East,Toronto,CA,M5B2G8,0.7
SHOPPERS DRUG MART,2528 BAYVIEW AVENUE,Toronto,M2L1A9,43.746841,-79.384787,2528,Bayview AVE,Toronto,"ON, CA",M2L1A9,0.4
SHOPPERS DRUG MART,2528 BAYVIEW AVENUE,Toronto,M2L1A9,43.746841,-79.384787,2528,Bayview AVE,Toronto,"ON, CA",M2L1A9,0.4
SHOPPERS DRUG MART,236 BLOOR STREET WEST,Toronto,M5S1T8,43.668376,-79.396992,236,Bloor ST W,Toronto,"ON, CA",M5S1T8,0.5
SHOPPERS DRUG MART,260 QUEEN STREET WEST,Toronto,M5V1Z8,43.649892,-79.391887,260,Queen ST W,Toronto,"ON, CA",M5V1Z0,0.5
SHOPPERS DRUG MART,333 BAY STREET,Toronto,M5H2R2,43.65037,-79.38036,333,Bay Street,Toronto,CA,M5H2R2,0.7
SHOPPERS DRUG MART,593 DUNDAS ST E,Toronto,M5A3H6,43.65204,-79.40143,593,Dundas ST E,Toronto,"ON, CA",M5A0C7,0.7
SHOPPERS DRUG MART,A-1285 YORK MILLS ROAD,Toronto,M3A1Z5,43.760731,-79.324954,1285,York Mills RD,Toronto,"ON, CA",M3A1Z5,0.4
SHOPPERS DRUG MART,2047 AVENUE ROAD,Toronto,M5M4A7,43.72854,-79.4175,1717,Avenue Road,Toronto,CA,M5M0A2,0.6
SHOPPERS DRUG MART,"747 DON MILLS RD, UNIT 12 ",Toronto,M3C1T2,43.712489,-79.335404,747,Don Mills RD,Toronto,"ON, CA",M3C1T2,0.4
SHOPPERS DRUG MART,2794 VICTORIA PARK AVE,Toronto,M2J4A8,43.78748,-79.32875,2794,Victoria Park AVE,Toronto,"ON, CA",M2J4A8,0.8
SHOPPERS DRUG MART,1630 DANFORTH AVENUE,Toronto,M4C1H6,43.683966,-79.322269,1630,Danforth AVE,Toronto,"ON, CA",M4C1H6,0.4
SHOPPERS DRUG MART,550 EGLINTON AVE W,Toronto,M5N1B6,43.70345,-79.41535,550,Eglinton Ave W,Toronto,CA,M5N1B6,0.7
SHOPPERS DRUG MART,2440 DUNDAS STREET W.,Toronto,M6P1W9,43.65912,-79.452954,2440,Dundas ST W,Toronto,"ON, CA",M6P1W9,0.4
SHOPPERS DRUG MART,1500 AVENUE ROAD,Toronto,M5M3X2,43.71569,-79.41248,1336,Avenue Road,Toronto,CA,M5N2G9,0.6
SHOPPERS DRUG MART,360A BLOOR STREET WEST,Toronto,M5S1X1,46.49946,-81.00068,127,BLOOR,Street,"ON, CA",P3C2K8,0.4
SHOPPERS DRUG MART,20 BLOOR ST E HUDSON BAY CENTRE,Toronto,M4W3G7,43.67076,-79.38544,20,Bloor ST E,Toronto,"ON, CA",M4W3G7,0.7
SHOPPERS DRUG MART,725 COLLEGE STREET,Toronto,M6G1C5,43.654287,-79.419095,725,College ST,Toronto,"ON, CA",M6G1C5,0.4
SHOPPERS DRUG MART,2494 DANFORTH AVENUE,Toronto,M4C1K9,43.688038,-79.303724,2494,Danforth AVE,Toronto,"ON, CA",M4C1K9,0.4
SHOPPERS DRUG MART,759 MOUNT PLEASANT RD,Toronto,M4S2N4,43.70778,-79.38948,759,Mount Pleasant Rd,Toronto,CA,M4S2N4,0.7
SHOPPERS DRUG MART,1881 STEELES AVE WEST,Toronto,M3H5Y4,43.78279,-79.48915,2697,Steeles Ave W,West Toronto,CA,M3J2Z8,0.7
SHOPPERS DRUG MART,1084 WILSON AVENUE,Toronto,M3K1G6,43.728263,-79.480849,1084,Wilson AVE,Toronto,"ON, CA",M3K1G6,0.4
SHOPPERS DRUG MART,770 LAWRENCE AVE WEST,Toronto,M6A3C6,43.70111,-79.51209,773,LAWRENCE AVE,West Toronto,"ON, CA",M6A1C2,0.8
SHOPPERS DRUG MART,700 BAY STREET,Toronto,M5G1Z6,43.658224,-79.385066,700,Bay ST,Toronto,"ON, CA",M5G1Z6,0.5
SHOPPERS DRUG MART,970 QUEEN ST EAST,Toronto,M4M1J8,43.66124,-79.34048,970,Queen ST,East Toronto,"ON, CA",M4M1J8,0.8
SHOPPERS DRUG MART,"1-124B-220 YONGE ST, EATON CTR ",Toronto,M5B2H1,43.65368,-79.38011,220,Yonge St,Toronto,CA,M5B2H1,0.6
SHOPPERS DRUG MART,70 EGLINTON SQUARE BLVD,Toronto,M1L2K1,43.72384,-79.29952,70,EGLINTON SQUARE BLVD,Toronto,"ON, CA",M1L2K1,0.8
SHOPPERS DRUG MART,265 PORT UNION RD,Toronto,M1C2L3,43.78863,-79.1395,265,Port Union RD,Toronto,"ON, CA",M1C2L3,0.8
SHOPPERS DRUG MART,925 EGLINTON AVE W,Toronto,M6C2C3,43.70034,-79.42783,925,Eglinton Ave W,Toronto,CA,M6C2C3,0.7
SHOPPERS DRUG MART,523 ST. CLAIR AVENUE WEST,Toronto,M6C1A1,43.682571,-79.422379,576,ST. CLAIR AVENUE WEST,Toronto,"ON, CA",M6C1A6,0.6
SHOPPERS DRUG MART,3874 BATHURST ST,Toronto,M3H3N3,43.741204,-79.435325,3874,Bathurst ST,Toronto,"ON, CA",M3H3N3,0.4
SHOPPERS DRUG MART,2345 YONGE STREET,Toronto,M4P1E4,43.70716,-79.39908,2300,Yonge Street,Toronto,CA,M4P1E4,0.7
SHOPPERS DRUG MART,1515 STEELES AVE EAST,Toronto,M2M3Y7,43.78706,-79.471,1531,STEELES AVE,East Toronto,"ON, CA",M2M3Y7,0.8
SHOPPERS DRUG MART,467 PARLIAMENT ST,Toronto,M5A3A3,43.66403,-79.36754,467,Parliament ST,Toronto,"ON, CA",M5A3A3,0.8
SHOPPERS DRUG MART,2550 FINCH AVENUE WEST,Toronto,M9M2G3,43.751259,-79.54618,2550,Finch AVE W,Toronto,"ON, CA",M9M2G3,0.4
SHOPPERS DRUG MART,3003 DANFORTH AVENUE,Toronto,M4C1M9,43.690307,-79.293458,3003,Danforth AVE,Toronto,"ON, CA",M4C1M9,0.4
SHOPPERS DRUG MART,620 KEELE ST,Toronto,M6N3E2,43.671608,-79.467855,620,Keele ST,Toronto,"ON, CA",M6N3E2,0.4
SHOPPERS DRUG MART,1533 JANE STREET,Toronto,M9N2R2,43.69759,-79.50224,1533,JANE STREET,Toronto,"ON, CA",M9N2R2,0.7
SHOPPERS DRUG MART,45 OVERLEA BLVD.,Toronto,M4H1C3,43.70577,-79.34593,45,OVERLEA BLVD,Toronto,"ON, CA",M4H1C3,0.8
SHOPPERS DRUG MART,1995 WESTON ROAD,Toronto,M9N1X2,43.701359,-79.51941,1995,Weston RD,Toronto,"ON, CA",M9N1X2,0.4
SHOPPERS DRUG MART,1859 LESLIE STREET,Toronto,M3B2M1,43.752432,-79.359254,1859,Leslie ST,Toronto,"ON, CA",M3B2M1,0.4
SHOPPERS DRUG MART,2343 EGLINTON AVENUE WEST,Toronto,M6E2L6,43.691616,-79.468358,2343,Eglinton AVE W,Toronto,"ON, CA",M6E2L6,0.4
SHOPPERS DRUG MART,3401 DUFFERIN ST.,Toronto,M6A2T9,43.72608,-79.45147,3401,Dufferin St.,Toronto,CA,M6A2T9,0.7
SHOPPERS DRUG MART,5845 YONGE STREET,Toronto,M2M3T9,43.786451,-79.416434,5845,Yonge ST,Toronto,"ON, CA",M2M3T9,0.5
SHOPPERS DRUG MART,812 O'CONNOR DRIVE,Toronto,M4B2S9,43.705965,-79.31284,812,Oconnor DR,Toronto,"ON, CA",M4B2S9,0.4
SHOPPERS DRUG MART,4865 LESLIE STREET,Toronto,M2J2K8,43.779288,-79.3647,4865,Leslie ST,Toronto,"ON, CA",M2J2K8,0.4
SHOPPERS DRUG MART,5899 LESLIE STREET,Toronto,M2H1J8,43.79836,-79.36961,5845,Leslie Street,Toronto,CA,M2H1J8,0.7
SHOPPERS DRUG MART,6205 BATHURST STREET,Toronto,M2R2A5,43.74284,-79.43587,3888,Bathurst Street,Toronto,CA,M3H3N5,0.7
SHOPPERS DRUG MART,"1115 LODESTAR ROAD, BULDING E ",Toronto,M3J0G9,43.75916,-79.46548,1119,Lodestar Road,Toronto,CA,M3J0G9,0.7
SHOPPERS DRUG MART,817 YONGE STREET,Toronto,M4W2G9,43.672494,-79.387468,817,Yonge ST,Toronto,"ON, CA",M4W2G9,0.5
SHOPPERS DRUG MART,1012 PAPE AVE,Toronto,M4K3V9,43.688139,-79.347981,1012,Pape AVE,Toronto,"ON, CA",M4K3V9,0.4
SHOPPERS DRUG MART,1507 YONGE STREET,Toronto,M4T1Z2,43.689388,-79.394332,1507,Yonge ST,Toronto,"ON, CA",M4T1Z2,0.5
SHOPPERS DRUG MART,555 UNIVERSITY AVE,Toronto,M5G1X8,43.65737,-79.38744,555,University Ave,Toronto,CA,M5G1X8,0.7
SHOPPERS DRUG MART,465 YONGE ST,Toronto,M4Y1X4,43.661823,-79.383029,465,Yonge ST,Toronto,"ON, CA",M4Y1X4,0.4
SHOPPERS DRUG MART,"181 BAY STREET, BCE PLACE ",Toronto,M5J2T3,43.64692,-79.37866,161,BAY STREET BCE PLACE,Toronto,"ON, CA",M5J2S8,0.7
SHOPPERS DRUG MART,69 YONGE ST,Toronto,M5E1K3,43.64893,-79.37754,69,Yonge St,Toronto,CA,M5E1K3,0.7
SHOPPERS DRUG MART,900 ALBION RD,Toronto,M9V1A5,43.73511,-79.56088,900,Albion Rd,Toronto,CA,M9V1A5,0.7
SHOPPERS DRUG MART,2850 LAKESHORE BLVD,Toronto,M8V1J2,43.601691,-79.50217,2850,Lake Shore BLVD W,Toronto,"ON, CA",M8V1J2,0.5
SHOPPERS DRUG MART,1601 BAYVIEW AVENUE,Toronto,M4G3B5,43.706355,-79.375086,1601,Bayview AVE,Toronto,"ON, CA",M4G3B0,0.4
SHOPPERS DRUG MART,2000 QUEEN STREET EAST,Toronto,M4L1J2,43.670176,-79.300186,2000,Queen ST E,Toronto,"ON, CA",M4L1J2,0.5
sHOPPERS DRUG MART,"200 BAY ST, ROYAL BANK PLAZA ",Toronto,M5J2J3,43.67064,-79.48524,,Royal Bank Plaza,Toronto,CA,M5J2J2,0.35
SHOPPERS DRUG MART,2223 BLOOR STREET WEST,Toronto,M6S1N7,43.650938,-79.476476,2223,Bloor ST W,Toronto,"ON, CA",M6S1N7,0.5
SHOPPERS DRUG MART,524 QUEEN ST WEST,Toronto,M5V2B5,43.64752,-79.40238,536,Queen ST,West Toronto,"ON, CA",M5V2B5,0.8
SHOPPERS DRUG MART,755 DANFORTH AVENUE,Toronto,M4J1L2,43.679202,-79.342267,755,Danforth AVE,Toronto,"ON, CA",M4J1L2,0.4
SHOPPERS DRUG MART,29A-66 WELLINGTON ST WEST,Toronto,M5K1A1,43.647231,-79.381225,66,Wellington ST W,Toronto,"ON, CA",M5K1A0,0.4
SHOPPERS SIMPLY PHARMACY,701 SHEPPARD AVE EAST,Toronto,M2K2Z3,43.768442,-79.377504,701,Sheppard AVE E,Toronto,"ON, CA",M2K2Z3,0.4
SHOPPERS SIMPLY PHARMACY,101-235 DANFORTH AVE,Toronto,M4K1N2,43.67662,-79.35541,235,Danforth Ave,Toronto,CA,M4K1N2,0.7
SHOPPERS SIMPLY PHARMACY,1223 ST CLAIR AVE WEST,Toronto,M6E1B5,43.67777,-79.44492,1224,ST CLAIR AVE,West Toronto,"ON, CA",M6E1B4,0.8
SHOPPERS SIMPLY PHARMACY,1525 ALBION ROAD,Toronto,M9V5G5,43.761242,-79.310806,1525,Pharmacy AVE,Toronto,"ON, CA",M9V5G5,0.4
SIMPILL PHARMACY,1408 QUEEN ST W,Toronto,M6K1L9,43.64129,-79.43459,1408,Queen St W,Toronto,CA,M6K1L9,0.7
SINA PHARMACY,37 THE LINKS RD,Toronto,M2P1T7,43.75183,-79.401684,37,The Links RD,Toronto,"ON, CA",M2P1T7,0.4
SKYWAY PHARMACY,348 WILSON AVENUE,Toronto,M3H1S9,43.736849,-79.438113,348,Wilson AVE,Toronto,"ON, CA",M3H1S9,0.4
SMITH'S PHARMACY,3463 YONGE STREET,Toronto,M4N2N3,43.734169,-79.404171,3463,Yonge ST,Toronto,"ON, CA",M4N2N3,0.4
SNOWDON PHARMACY,264 BLOOR ST WEST,Toronto,M5S1V8,43.67163,-79.38041,268,Bloor ST,West Toronto,"ON, CA",M5S1W7,0.8
SOBEYS PHARMACY,145 MARLEE AVENUE,Toronto,M6B3H3,43.703047,-79.441433,145,Marlee AVE,Toronto,"ON, CA",M6B3H3,0.4
SOBEYS PHARMACY,7271 BELFIELD EARL.WARD & CO. LTD 2-124 BELFIELD RD,Toronto,M9W1G1,43.66804,-79.37792,135,Earl,Toronto,CA,M4Y1M4,0.4
SOLARA PHARMACY,3857 LAKE SHORE BLVD W,Toronto,M8W0A2,43.589999,-79.545067,3857,Lake Shore BLVD W,Toronto,"ON, CA",M8W0A2,0.5
SOLARSKI PHARMACY,149 RONCESVALLES AVENUE,Toronto,M6R2L3,43.643866,-79.447902,149,Roncesvalles AVE,Toronto,"ON, CA",M6R2L3,0.5
SONE'S PHARMACY,991 DOVERCOURT RD,Toronto,M6H2X6,43.667135,-79.431468,991,Dovercourt RD,Toronto,"ON, CA",M6H2X6,0.5
SPADINA'S NEIGHBOURHOOD PHARMACY,720 SPADINA AVE,Toronto,M5S2T9,43.665291,-79.403621,720,Spadina AVE,Toronto,"ON, CA",M5S2T9,0.4
ST. CLAIR DRUG MART PHARMACY,1203 ST CLAIR AVENUE WEST,Toronto,M6E1B5,43.677406,-79.444333,1203,Saint Clair AVE W,Toronto,"ON, CA",M6E1B5,0.4
ST. GABRIEL MEDICAL PHARMACY,101-650 SHEPPARD AVE. E.,Toronto,M2K3E4,43.768586,-79.381432,650,Sheppard AVE E,Toronto,"ON, CA",M2K3E4,0.4
ST. GEORGE DRUG MART,567 BATHURST STREET 2ND FLOOR,Toronto,M5S2P8,43.658443,-79.408257,567,Bathurst ST,Toronto,"ON, CA",M5S2P8,0.7
ST. GEORGE PHARMACY,193 COLLEGE ST,Toronto,M5T1P9,43.65867,-79.39491,193,College ST,Toronto,"ON, CA",M5T1P9,0.7
ST. JAMES DRUG MART,"240 WELLESLEY ST E, #118 ",Toronto,M4X1G5,43.66807,-79.37175,240,Wellesley St E,Toronto,CA,M4X1G5,0.7
ST. JOSEPH PHARMACY,2930 ISLINGTON AVENUE,Toronto,M9L2K5,43.75651,-79.56973,2930,ISLINGTON,Toronto,"ON, CA",M9L2K5,0.6
ST. JOSEPH'S HEALTH CENTRE OUTPATIENT PHARMACY,30 THE QUEENSWAY,Toronto,M6R1B5,43.63936,-79.4501,30,The Queensway,Toronto,CA,M6R1B5,0.6
ST. MICHAEL'S DRUG MART,565 COLLEGE STREET,Toronto,M6G1B2,43.65527,-79.4127,565,College Street,Toronto,CA,M6G1B2,0.7
ST. LAWRENCE PHARMACY,126 LOWER SHERBOURNE ST,Toronto,M5A4J4,43.64937,-79.36764,126,Lower Sherbourne ST,Toronto,"ON, CA",M5A4J4,0.8
STANBURY'S PHARMACY,1032 PAPE AVE,Toronto,M4K3W2,43.73892,-79.303274,1032,Pharmacy AVE,Toronto,"ON, CA",M4K3W2,0.4
STOCKYARDS PHARMACY,2566 ST CLAIR AVE W,Toronto,M6N1L8,43.668104,-79.488711,2566,Saint Clair AVE W,Toronto,"ON, CA",M6N1L8,0.4
SULTAN PHARMACY,8-1118 FINCH AVE WEST,Toronto,M3J3J4,43.770522,-79.456886,1118,Finch AVE W,Toronto,"ON, CA",M3J3J4,0.4
SUNNYSIDE MEDICAL PHARMACY,29 RONCESVALLES AVE,Toronto,M6R2K4,43.63996,-79.44634,29,Roncesvalles AVE,Toronto,"ON, CA",M6R2K4,0.8
SWANSEA VILLAGE PHARMASAVE,2388 BLOOR ST WEST,Toronto,M6S1P5,43.64988,-79.4826,2388,Bloor ST,West Toronto,"ON, CA",M6S1P5,0.8
SYMINGTON DRUGS,333 SYMINGTON AVE,Toronto,M6P3X1,43.66647,-79.451236,333,Symington AVE,Toronto,"ON, CA",M6P3X1,0.5
TERRACE SQUARE PHARMACY,3424 WESTON ROAD,Toronto,M9M2W1,43.80737,-79.332211,3424,Pharmacy AVE,Toronto,"ON, CA",M9M2W1,0.4
TGH TRANSPLANT OUTPATIENT PHARMACY,"1202-585 UNIVERSITY AVE, 12 FL ",Toronto,M5G2N2,43.6582,-79.389,585,University AVE,Toronto,"ON, CA",M5G2N2,0.6
THE 6IX PHARMACY ON FRONT,58-550 FRONT ST W,Toronto,M5V3N5,43.641419,-79.399579,550,Front ST W,Toronto,"ON, CA",M5V3N5,0.5
THE AKRON PHARMACY,2318 LAKESHORE BLVD WEST,Toronto,M8V1B5,43.61839,-79.48712,2304,LAKESHORE BLVD,West Toronto,"ON, CA",M8V1B4,0.8
THE HEALING SOURCE PHARMACY,2209 BLOOR STREET WEST,Toronto,M6S1N5,43.65103,-79.475793,2209,Bloor ST W,Toronto,"ON, CA",M6S1N5,0.5
THE MEDICINE SHOPPE,1168 A DUNDAS STREET W.,Toronto,M6J1X4,43.649191,-79.421589,1168,Dundas ST W,Toronto,"ON, CA",M6J1X4,0.4
THE MEDICINE SHOPPE,515 ST. CLAIR AVE WEST,Toronto,M6C1A1,43.682786,-79.418784,515,Saint Clair AVE W,Toronto,"ON, CA",M6C1A1,0.4
THE MEDICINE SHOPPE,2600 EGLINTON AVENUE WEST,Toronto,M6M1T5,43.691423,-79.46943,2600,Eglinton AVE W,Toronto,"ON, CA",M6M1T5,0.4
PALMERSTON PHARMACY,499 COLLEGE ST,Toronto,M6G1A5,43.655778,-79.409693,499,College ST,Toronto,"ON, CA",M6G1A5,0.4
THE PHARMACY NETWORK,7-1575 JANE ST,Toronto,M9N2R3,43.6992,-79.50239,1575,Jane ST,Toronto,"ON, CA",,0.7
VILLAGE PHARMACY,473 CHURCH STREET,Toronto,M4Y2C5,43.664525,-79.38021,473,Church ST,Toronto,"ON, CA",M4Y2C5,0.4
THEODORE PHARMACY,1450 O'CONNOR DRIVE,Toronto,M4B2T8,43.713662,-79.3068,1450,Oconnor DR,Toronto,"ON, CA",M4B2T8,0.4
THORNCLIFFE PHARMACY,106-65 OVERLEA BLVD,Toronto,M4H1P1,43.70681,-79.34695,,Thorncliffe,Toronto,CA,,0.4
THORNLEA PHARMACY,"62 OVERLEA BLVD, UNIT 4A ",Toronto,M4H1C4,43.707,-79.34392,61,OVERLEA BLVD,Toronto,"ON, CA",M4H1C2,0.7
TOTAL HEALTH PHARMACY,2115 FINCH AVE WEST SUITE 217,Toronto,M3N2V6,43.7633,-79.4938,1440,Finch Ave West,Toronto,CA,M3H5S9,0.7
TOTAL HEALTH PHARMACY,997 GERRARD ST E,Toronto,M4M1Z4,43.668487,-79.338046,997,Gerrard ST E,Toronto,"ON, CA",M4M1Z4,0.4
TOTAL HEALTH PHARMACY,1849 YONGE STREET,Toronto,M4S1Y2,43.69696,-79.395927,1849,Yonge ST,Toronto,"ON, CA",M4S1Y2,0.5
TOTAL HEALTH PHARMACY,100-801 EGLINTON AVENUE WEST,Toronto,M5N1E3,43.701031,-79.424493,801,Eglinton AVE W,Toronto,"ON, CA",M5N1E3,0.4
TRILLIUM PHARMACY,3443 FINCH AVE EAST,Toronto,M1W2S1,43.797165,-79.312578,3443,Finch AVE E,Toronto,"ON, CA",M1W2S1,0.4
TRINITY DRUG STORE,750 DUNDAS STREET W,Toronto,M6J3S3,43.652394,-79.406436,750,Dundas ST W,Toronto,"ON, CA",M6J3S3,0.4
U&C PHARMACY,700 UNIVERSITY AVENUE UNIT HSC112 SHOPPING CONCOURSE,Toronto,M5G1Z5,43.659016,-79.391191,700,University AVE,Toronto,"ON, CA",M5G1Z5,0.4
ULTRA BLOOR PHARMACY,1254 BLOOR ST WEST,Toronto,M6H1N5,43.65902,-79.440374,1254,Bloor ST W,Toronto,"ON, CA",M6H1N5,0.4
ULTRA PHARMACY,411 PARLIAMENT STREET,Toronto,M5A3A1,43.66259,-79.36703,419,Parliament Street,Toronto,CA,M5A3A1,0.8
UNITED DRUG MART,154 OSSINGTON AVENUE,Toronto,M6J2Z5,43.64745,-79.42032,146,Ossington Avenue,Toronto,CA,M6J2Z5,0.7
UNIVERSAL PHARMACY,819 LANSDOWNE AVE,Toronto,M6H3Z2,43.66252,-79.44428,819,Lansdowne AVE,Toronto,"ON, CA",M6H3Z2,0.8
UNIVERSITY HEALTH CENTRE PHARMACY,"4801 KEELE ST, UNIT 59 ",Toronto,M3J3A4,43.77745,-79.49362,4801,KEELE ST,Toronto,"ON, CA",M3J3A4,0.6
UPTOWN PHARMACY,243 EGLINTON AVE WEST,Toronto,M4R1B1,43.704804,-79.406639,243,Eglinton AVE W,Toronto,"ON, CA",M4R1B1,0.5
URBAN CARE PHARMACY,26 DALHOUSIE STREET,Toronto,M5B2A5,43.65398,-79.37563,20,Dalhousie Street,Toronto,CA,M5B2A5,0.7
VICTOR PHARMACY,123 EDWARD STREET,Toronto,M5G1E2,43.655638,-79.386801,123,Edward ST,Toronto,"ON, CA",M5G1E2,0.4
VICTORIA PARK PHARMACY,1314 VICTORIA PARK AVENUE,Toronto,M4B2L4,43.713897,-79.298416,1314,Victoria Park AVE,Toronto,"ON, CA",M4B2L4,0.5
VINA PHARMACY,1025 GERRARD ST E,Toronto,M4M1Z6,43.6687,-79.33717,1025,Gerrard ST E,Toronto,"ON, CA",M4M1Z6,0.8
VINA PHARMACY,1460 QUEEN STREET W.,Toronto,M6K1M2,43.640904,-79.436427,1460,Queen ST W,Toronto,"ON, CA",M6K1M2,0.4
VITA PHARMACY,525 DUNDAS STREET W. UNIT 2,Toronto,M5T1H4,43.65305,-79.39631,453,Dundas Street W,Toronto,CA,M5T1G8,0.7
VITALITY COMPOUNDING PHARMACY,918 KINGSTON ROAD,Toronto,M4E1S5,43.680844,-79.289102,918,Kingston RD,Toronto,"ON, CA",M4E1S5,0.4
WALMART PHARMACY,2525 ST. CLAIR AVE WEST,Toronto,M6N4Z5,43.668067,-79.485305,2525,Saint Clair AVE W,Toronto,"ON, CA",M6N4Z5,0.4
WALMART PHARMACY,WALMART PHARMACY LIMITED 3757 KEELE ST,Toronto,M3J1N4,43.75743,-79.48885,3747,Keele ST,Toronto,"ON, CA",M3J1N4,0.6
WALMART PHARMACY,1000 GERRARD STREET EAST,Toronto,M4M3G6,43.6694187,-79.3392933,1000,Gerrard Street East,Toronto,"ON, CA",M4M3G6,0.5
WALMART PHARMACY,2202 JANE STREET,Toronto,M3M1A4,43.718832,-79.508383,2202,Jane ST,Toronto,"ON, CA",M3M1A4,0.5
WALMART PHARMACY,NORTH PARK PLAZA 1305 LAWRENCE AVENUE W.,Toronto,M6L1A5,43.710008,-79.474392,1305,Lawrence AVE W,Toronto,"ON, CA",M6L1A5,0.8
WALMART PHARMACY,DUFFERIN MALL 900 DUFFERIN STREET,Toronto,M6H4A9,43.655817,-79.435362,900,Dufferin ST,Toronto,"ON, CA",M6H4A9,0.7
WARDEN MEDICAL PHARMACY,3321 SHEPPARD AVE EAST,Toronto,M1T3K2,43.77855,-79.30867,3321,Sheppard AVE,East Toronto,"ON, CA",M1T3K2,0.8
WARDEN WOODS PHARMACY,99 FIRVALLEY COURT,Toronto,M1L1P2,43.70335,-79.277909,99,Firvalley CRT,Toronto,"ON, CA",M1L1P2,0.4
WELCOME GUARDIAN PHARMACY,137 RONCESVALLES AVENUE,Toronto,M6R2L2,43.64308,-79.44744,129,Roncesvalles Avenue,Toronto,CA,M6R2L2,0.7
WELCOME GUARDIAN PHARMACY,1881 YONGE ST,Toronto,M4S1Y6,43.69773,-79.39606,1881,Yonge ST,Toronto,"ON, CA",M4S3C4,0.7
WELCOME GUARDIAN PHARMACY,837 DANFORTH AVE,Toronto,M4J1L2,43.67948,-79.3406,837,Danforth Ave,Toronto,CA,M4J1L2,0.7
WELL + GOOD PHARMACY,557 CHURCH STREET INC 557 CHURCH STREET,Toronto,M4Y2E2,43.66723,-79.38126,557,Church Street,Toronto,CA,M4Y2E2,0.7
WELLCARE PHARMACY,815 COLLEGE STREET,Toronto,M6G1C9,43.65471,-79.42213,816,College Street,Toronto,CA,M6G1C8,0.7
WELLCARE PHARMACY,3352 KEELE STREET,Toronto,M3J1L5,43.74695,-79.48847,3390,Keele Street,Toronto,CA,M3J1L6,0.7
WELLCARE PHARMACY,1263 WILSON AVE UNIT # 110,Toronto,M3M3G3,43.7411819,-79.4167565,110,Wilson AVE,Toronto,"ON, CA",M3M1J9,0.7
WELLTH PHARMACY,85 CHURCH ST,Toronto,M5C2G2,43.70586,-79.51841,85,CHURCH ST,Toronto,"ON, CA",M5C2G2,0.8
WEST PARK PHARMACY,R1-32-82 BUTTONWOOD AVE,Toronto,M6M2J5,43.6893,-79.50897,82,Buttonwood AVE,Toronto,"ON, CA",M6M2J5,0.7
WESTON DRUG MART,2159 WESTON ROAD,Toronto,M9N1X8,43.703215,-79.524763,2159,Weston RD,Toronto,"ON, CA",M9N1X8,0.4
WESTON JANE PHARMACY,1292 WESTON RD,Toronto,M6M4R3,43.689034,-79.495812,1292,Weston RD,Toronto,"ON, CA",M6M4R3,0.4
WESTOWN PHARMACY,235 DIXON ROAD,Toronto,M9P2M5,43.699473,-79.286425,235,Pharmacy AVE,Toronto,"ON, CA",M9P2M5,0.4
WESTSIDE PHARMACY,1896 EGLINTON AVE WEST,Toronto,M6E2J6,43.72645,-79.29698,1896,Eglinton AVE,West Toronto,"ON, CA",M6E2J6,0.8
WESTSIDE PHARMACY,D3-2404 EGLINTON AVE W,Toronto,M6M1S6,43.69223,-79.46752,2404,Eglinton AVE W,Toronto,"ON, CA",M6M1S6,0.8
WHITE CROSS DRUGS,300-500 YONGE ST,Toronto,M4Y1X9,43.663189,-79.384079,500,Yonge ST,Toronto,"ON, CA",M4Y1X9,0.5
WHITE'S PHARMACY,725 JANE ST,Toronto,M6N4B3,43.67063,-79.49309,725,Jane ST,Toronto,"ON, CA",M6N4B3,0.7
WHITESIDE PHARMACY,1732 ST. CLAIR AVE W,Toronto,M6N1J1,43.674431,-79.459936,1732,Saint Clair AVE W,Toronto,"ON, CA",M6N1J1,0.4
WHOLESOME PHARMACY,811A QUEEN STREET EAST,Toronto,M4M1H8,43.64382,-79.42178,1078,Queen Street,East Toronto,CA,M4M0R1,0.8
WILLOWDALE PHARMACY,6023 YONGE STREET,Toronto,M2M3W2,43.789284,-79.417545,6023,Yonge ST,Toronto,"ON, CA",M2M3W2,0.5
WILSON COMPOUNDING PHARMACY,5-1077 WILSON AVENUE,Toronto,M3K1G7,43.726885,-79.480753,1077,Wilson AVE,Toronto,"ON, CA",M3K1G7,0.5
WILSON-ALLEN PHARMACY,517 WILSON AVENUE,Toronto,M3H1V1,43.734542,-79.445935,517,Wilson AVE,Toronto,"ON, CA",M3H1V1,0.4
WOODGREEN PHARMACY,909 QUEEN STREET EAST,Toronto,M4M1J4,43.64382,-79.42178,1078,Queen Street,East Toronto,CA,M4M0R1,0.8
WOODGREEN PHARMACY,69 QUEEN ST E UNIT #101,Toronto,M5C1R8,43.653761,-79.373864,69,Queen ST E,Toronto,"ON, CA",M5C1R8,0.5
WOODS DRUG STORE,130 KINGSTON RD,Toronto,M4L1S7,43.67051,-79.31135,130,Kingston RD,Toronto,"ON, CA",M4L1S7,0.8
WOODVALLEY PHARMACY,14-130 INDUSTRY STREET,Toronto,M6M5G3,43.694672,-79.495073,130,Industry ST,Toronto,"ON, CA",M6M5G3,0.4
YONGE DRUG MART,104-2399 YONGE ST,Toronto,M4P2E7,43.64999,-79.37849,104,Yonge ST,Toronto,"ON, CA",M4P2E7,0.4
YONGE ELMWOOD PHARMACY,201-5025 YONGE STREET,Toronto,M2N5P2,43.65346,-79.37937,201,Yonge ST,Toronto,"ON, CA",M2N5P2,0.5
YORK MEDICAL PHARMACY,"491 CHURCH ST, UPSTAIRS ",Toronto,M4Y2C6,43.66527,-79.38036,491,Church ST,Toronto,"ON, CA",M4Y2C6,0.7
YOURS PHARMACY,796 QUEEN STREET EAST,Toronto,M4M1H4,43.64382,-79.42178,1078,Queen Street,East Toronto,CA,M4M0R1,0.8
ZARA'S PHARMACY,"1908 GERRARD STREET EAST, UNIT B ",Toronto,M4L2C1,43.67958,-79.31267,1881,Gerrard Street East,Toronto,CA,M4L2B8,0.7
