Name,Address,Phone,City,Postcode,Latitude,Longitude,Distance
1ClinicRx Pharmacy,16 Yonge St,(647) 344-8800,Toronto,M5E 2A1,43.6435428,-79.3760259,0
99 Pharmacy,436 Dundas St. W,(416) 977-8338,Toronto,M5T 1G7,43.6535574,-79.395664,0
Action Pharmacy,2425 Bloor St W,(416) 766-2401,Toronto,M6S 4W4,43.6491819,-79.4834832,0
Albion Finch Pharmacy,A102-6230 Finch Ave W,(416) 743-2100,Toronto,M9V 0A1,43.7416193,-79.5894463,0
Albion Medical Pharmacy,A1-900 Albion Rd,(416) 740-5500,Toronto,M9V 1A5,43.7353212,-79.5599928,0
Allcures Pharmacy,1-31 St Dennis Dr,(416) 696-1400,Toronto,M3C 1G7,43.716029,-79.3362193,0
Ambulatory Patient Pharmacy,"Sunnybrook Hospital, Room M1-101",(416) 480-4502,Toronto,M4N 3M5,43.7216846,-79.3757808,0
Apex Compounding Pharmacy,90 Eglinton Ave E,(416) 481-2231,Toronto,M4P 2Y3,43.7075668,-79.3957393,0
Apollon Pharmacy,698 Danforth Ave,(416) 463-1195,Toronto,M4J 1L1,43.67895,-79.3439105,0
Apotheca Compounding Pharmacy,417 Spadina Rd,(416) 322-0123,Toronto,M5P 2W3,43.6888451,-79.4126079,0
Ashdale Pharmacy,1568 Queen St E,(416) 469-2888,Toronto,M4L 1E9,43.6660886,-79.318813,0
Augusta Central Pharmacy,1-360 College St,(416) 961-6692,Toronto,M5T 1S6,43.6611023,-79.3833979,0
Ava Pharmacy,81 St Clair Ave E,(416) 962-2111,Toronto,M4T 1M7,43.6884794,-79.3907695,0
B & A Medical Pharmacy,15 Roncesvalles Ave,(416) 537-4101,Toronto,M6R 2K2,43.6393684,-79.4459783,0
Balmoral Chemists Inc,1366 Yonge St,(416) 934-9555,Toronto,M4T 3A7,43.6860342,-79.3936282,0
Bathurst-Bloor IDA Drug Mart,800 Bathurst St,(416) 537-2427,Toronto,M5R 3G1,43.6655628,-79.411661,0
Bay College Drug Mart,790 Bay St,(416) 640-7700,Toronto,M5G 1N8,43.6604976,-79.3860586,0
Beaches Pharmacy,1967 Queen St E,(416) 699-4999,Toronto,M4L 1H9,43.6695158,-79.3014836,0
Beaver Drugs Ltd,"196 Wilson Ave, unit 8",(416) 322-6697,Toronto,M5M 4N7,43.739728,-79.4238696,0
Beech Medical Pharmacy,855 Kingston Rd,(416) 699-1118,Toronto,M4E 1R9,43.6801472,-79.2908501,0
Best Care Village Pharmacy,3170 Eglinton Ave E,(416) 261-2838,Toronto,M1J 2H3,43.7430828,-79.2209273,0
Bio Pharmacy,1177 St Clair Ave W,(416) 654-2942,Toronto,M6E 1B5,43.6776281,-79.4434552,0
Blair Court Pharmacy,266 Donlands Ave,(416) 423-9113,Toronto,M4J 5B1,43.6896293,-79.3418911,0
Bloom Pharmacy,268 Queens Quay W,(416) 977-0970,Toronto,M5J 1B5,43.6390977,-79.3863438,0
Bloor Medical Pharmacy,1062 Bloor St W,(416) 516-6828,Toronto,M6H 1M3,43.6606846,-79.4328339,0
Bloor Park Pharmacy,728 Bloor St W,(416) 531-2426,Toronto,M6G 1L4,43.663741,-79.4181416,0
Bloor St Pharmacy,849 Bloor St W,(416) 537-4649,Toronto,M6G 1M3,43.6623045,-79.4236926,0
Bloor West Pharmacy,2262 Bloor St W,(416) 766-6477,Toronto,M6S 1N9,43.6509963,-79.4780566,0
Bloorcourt Pharmacy,936 Bloor St W,(416) 588-3100,Toronto,M6H 1L4,43.6617048,-79.427611,0
Bloor-Dundas Pharmacy,2333 Dundas St W,(416) 532-4465,Toronto,M6R 3A6,43.6559643,-79.4525483,0
Bloor-Sherbourne Pharmacy,608 Sherbourne St,(416) 944-1122,Toronto,M4X 1X6,43.6720227,-79.3770237,0
Blue Sky Pharmacy,1176-A St Clair Ave W,(416) 901-1417,Toronto,M6E 1B4,43.6781,-79.443727,0
Breast Centre Pharmacy,M6-408-2075 Bayview Ave,(416) 480-5336,Toronto,M4N 3M5,43.7228457,-79.3728749,0
Briarhill Pharmacy,63-2700 Dufferin St,(416) 784-5877,Toronto,M6B 4J3,43.7018021,-79.4538636,0
Bridgepoint Hospital,"Pharmacy Department, 1 Bridgepoint Dr",(416) 461-8252,Toronto,M4M 2B5,43.6657355,-79.3552703,0
BRMC IDA Pharmacy,2-3333 Brimley Rd,(416) 321-9111,Toronto,M1V 2J7,43.821121,-79.283632,0
Broadon Pharmacy,607 Gerrard St E,(416) 463-0833,Toronto,M4M 1Y2,43.6654635,-79.351462,0
Broadview Medical Pharmacy,743 Broadview Ave,(416) 463-5955,Toronto,M4K 2P6,43.6757903,-79.3580968,0
Cabbagetown Pharmacy Inc.,239 Carlton St,(416) 920-6337,Toronto,M5A 2L2,43.6640448,-79.3682362,0
CAMH Pharmacy,1001 Queen St W,(416) 535-8501,Toronto,M6J 1H4,43.6433338,-79.417546,0
Care and Health Pharmacy,2928 Danforth Ave,(416) 357-2565,Toronto,M4C 1M1,43.6901819,-79.2934668,0
Casey House,119 Isabella St,(416) 962-7600,Toronto,M4Y 1P2,43.6688283,-79.3789103,0
Cassandra Pharmacy Inc.,2040 Victoria Park Ave,(416) 449-2040,Toronto,M1R 1V2,43.7524704,-79.3140955,0
CATP,100-1111 Finch Ave W,(416) 636-3530,Toronto,M3J 2E5,43.767023,-79.4745192,0
CC Pharmacy,1351 Yonge St,(416) 960-1314,Toronto,M4T 1X9,43.6859843,-79.3929867,0
Centre For Addiction And Mental Health,1001 Queen St W,(416) 535-8501,Toronto,M6J 1H4,43.6433338,-79.417546,0
Centre For Addiction And Mental Health,250 College St,(416) 535-8501,Toronto,M5T 1R8,43.659269,-79.3994776,0
Charles Pharmacy,1204 King St W,(416) 533-3122,Toronto,M6K 1G4,43.6390068,-79.4276858,0
Christie Pharmacy,697 St Clair Ave W,(416) 653-0038,Toronto,M6C 1B2,43.6813847,-79.4261795,0
City Pharmacy,238 Danforth Ave,(416) 469-1898,Toronto,M4K 1N4,43.6770696,-79.3553891,0
Clair Gardens Pharmacy,1263 St Clair Ave W,(416) 652-2604,Toronto,M6E 1B8,43.6769531,-79.4466922,0
Clairhurst Medical Pharmacy,109-1466 Bathurst St,(416) 537-1300,Toronto,M5R 3S3,43.6827712,-79.4183088,0
Clinic Pharmacy,13th Floor NUW,(416) 340-5207,Toronto,M5G 2N2,43.6584136,-79.3891419,0
Cloud Healthcare Pharmacy,419 Dundas St W,(647) 508-2999,Toronto,M5T 1G6,43.6532436,-79.3951016,0
Cloud Pharmacy,55 Dundas Street East,(647) 748-1337,Toronto,M5B 1C6,43.6559343,-79.3786952,0
College Centre Pharmacy II,528 College St,(416) 944-9793,Toronto,M6G 1A6,43.6560272,-79.4109619,0
College Medical Pharmacy,474 College St,(416) 961-2191,Toronto,M6G 1A4,43.6562987,-79.4093809,0
Community Choice Pharmasave - Davenport,1892 Davenport Rd,(416) 651-8228,Toronto,M6N 1B7,43.6707598,-79.4543471,0
Costco Pharmacy,100 Billy Bishop Way,(416) 635-9724,Toronto,M3K 2C8,43.7310319,-79.4559251,0
Costco Pharmacy,42 Overlea Blvd,(647) 265-9387,Toronto,M4H 1B6,43.7073433,-79.3483158,0
Coxwell Pharmacy,688 Coxwell Ave,(416) 466-2131,Toronto,M4C 3B7,43.6826138,-79.3236267,0
Crescent St. Pharmacy,2688 Danforth Ave,(647) 351-0600,Toronto,M4C 1L7,43.6890493,-79.2988356,0
Cure IDA Pharmacy,108-1585 Markham Rd,(416) 533-4220,Toronto,M1B 2W1,43.790488,-79.2371272,0
CW Health Pharmacy,491 Church St.,(647) 748-5553,Toronto,M4Y 2C6,43.665213,-79.3804813,0
Dalecliff Medical Pharmacy,2-209 Ellesmere Rd,(416) 445-6978,Toronto,M1R 4E2,43.7579486,-79.3151867,0
Dale's Pharmacy,572 Parliament St,(416) 921-5700,Toronto,M4X 1P8,43.6675592,-79.3695812,0
Danforth Central Pharmacy,1188 Danforth Ave,(416) 778-8800,Toronto,M4J 1M3,43.6815926,-79.3325506,0
Danforth Drug Mart,1871 Danforth Ave,(416) 691-2225,Toronto,M4C 1J3,43.6844864,-79.3173543,0
Danforth Main Pharmacy,2575 Danforth Ave,(416) 691-5550,Toronto,M4C 1L5,43.6881323,-79.3003045,0
Danforth Medical Pharmacy,1156 Danforth Ave,(416) 469-1100,Toronto,M4J 1M3,43.6814159,-79.3333847,0
Danforth Neighbourhood Pharmacy Care,2416 Danforth Ave.,(416) 691-3871,Toronto,M4C 1K9,43.6877282,-79.3049845,0
Danny's Drugstore Inc.,2284 Kingston Rd.,(416) 266-3222,Toronto,M1N 1T9,43.705481,-79.2522299,0
Datus Pharmacy,103-2238 Dundas St W,(416) 588-4559,Toronto,M6R 3A9,43.6543685,-79.4514901,0
Davenport Guardian Pharmacy,115-219 Davenport Rd,(416) 925-6700,Toronto,M5R 1J3,43.6742313,-79.392502,0
Davisville Pharmacy,4-1901 Yonge St,(416) 483-0304,Toronto,M4S 1Y6,43.6980177,-79.3963286,0
Dawes Drugmart Ltd,424 Dawes Rd,(416) 757-2242,Toronto,M4B 2E9,43.7016672,-79.2971786,0
Deer Park Pharmacy,108-55 St Clair Ave W,(416) 923-1818,Toronto,M4V 2Y7,43.6873845,-79.3988328,0
Delisle Pharmacy,1560 Yonge St,(416) 922-5618,Toronto,M4T 2S9,43.6894573,-79.3950643,0
Demarco Pharmacy,2394 Keele St,(416) 244-5888,Toronto,M6M 4A5,43.7082127,-79.4781558,0
Desh Guardian Pharmacy,2978 Danforth Ave,(416) 699-9946,Toronto,M4C 1M6,43.6906061,-79.2919625,0
Dom's Pharmacy,3630 Victoria Park Ave.,(416) 490-0123,Toronto,M2H 3B2,43.8071151,-79.3386932,0
Don Russell Drug Mart,2891 Lake Shore Blvd W,(416) 251-2201,Toronto,M8V 1J1,43.6007765,-79.5038466,0
Don Valley Pharmacy Ltd,855 Broadview Ave,(416) 465-7675,Toronto,M4K 3Z1,43.6796083,-79.3578641,0
Downsview Park Pharmacy,100-2830 Keele St,(416) 638-1200,Toronto,M3M 3E5,43.7304791,-79.4834598,0
Downtown Dispensary 2,B-1678 Dufferin St,(416) 651-1333,Toronto,M6H 3M1,43.6775904,-79.4431427,0
Drug Basics Pharmacy Inc.,1068 Danforth Avenue,(416) 463-7697,Toronto,M4J 1M2,43.6809523,-79.3356328,0
Drug Centre Discount Pharmacy,1473 Eglinton Ave W,(416) 787-4906,Toronto,M6E 2G6,43.6978218,-79.4392365,0
DrugSmart Pharmacy,5 The Market Pl,(416) 694-6667,Toronto,M4C 5M2,43.6958821,-79.2920273,0
Drugstore Pharmacy,2549 Weston Rd,(416) 246-1417,Toronto,M9N 2A7,43.7081016,-79.5334085,0
Drugstore Pharmacy,10 Lower Jarvis St,(416) 304-0619,Toronto,M5E 1Z2,43.6447705,-79.3701389,0
Drugstore Pharmacy,985 Woodbine Ave,(416) 421-5727,Toronto,M4C 4B8,43.6862691,-79.3124902,0
Drugstore Pharmacy,222 Lansdowne Ave,(416) 588-7744,Toronto,M6K 3C6,43.649696,-79.4403251,0
Drugstore Pharmacy,25 Photography Dr,(416) 763-1502,Toronto,M6M 0A1,43.686662,-79.4839226,0
Drugstore Pharmacy,3671 Dundas St W,(416) 769-5570,Toronto,M6S 2T3,43.6654493,-79.4957853,0
Dufferin Central Pharmacy,1649 Dufferin St,(416) 658-8554,Toronto,M6H 3L9,43.6773548,-79.4426406,0
Dufferin Drug Mart,1670 Dufferin St,(416) 651-0052,Toronto,M6H 3M2,43.677364,-79.4432703,0
Dufferin Medical Pharmacy,2045 Dufferin St,(416) 651-0102,Toronto,M6E 3R4,43.6864614,-79.4462594,0
Dufferin-Finch Pharmacy,C1-2 Champagne Drive,(416) 665-6669,Toronto,M3J 2C5,43.7664487,-79.4720052,0
Duke Pharmacy,2798 Dundas St W,(416) 767-8800,Toronto,M6P 1Y5,43.6655097,-79.4627296,0
Dunbloor Medical Pharmacy,5115 Dundas St W,(416) 482-1980,Toronto,M9A 0B5,43.6445222,-79.5322747,0
Dundas Kipling Pharmacy,5359 Dundas St W,(416) 233-2222,Toronto,M9B 1B1,43.635736,-79.5399211,0
Dundas West Village Pharmacy,2940 Dundas St W,(416) 761-9036,Toronto,M6P 1Y8,43.6656136,-79.4675601,0
Dundas-Euclid Pharmacy,828 Dundas St W,(416) 603-6688,Toronto,M6J 1V3,43.6517987,-79.4093943,0
Dynasty Pharmacy,106-5460 Yonge St,(416) 250-5460,Toronto,M2N 6K7,43.777401,-79.4155725,0
Eagle Manor Pharmacy,19-1901 Weston Rd,(416) 241-1115,Toronto,M9N 3P5,43.7004054,-79.5165102,0
East Liberty Village Pharmacy,105-901 King St W,(416) 598-1243,Toronto,M5V 3H5,43.6416599,-79.4116258,0
Eglinton Bathurst Pharmacy,856 Eglinton Ave W,(416) 787-8281,Toronto,M6C 2B6,43.7011947,-79.4260591,0
Eglinton Discount Drugs,1774 Eglinton Ave W,(416) 785-5516,Toronto,M6E 2H6,43.6962321,-79.4486352,0
Eglinton Medical Pharmacy,2010 Eglinton Ave W,(416) 780-1452,Toronto,M6E 2K3,43.6948009,-79.4554338,0
Etobicoke First Pharmacy,5468 Dundas Street West,(647) 725-5143,Toronto,M9B 6E3,43.6327106,-79.5448453,0
Family Care Pharmacy,5-1209 King St W,(416) 535-6300,Toronto,M6K 1G2,43.6389706,-79.4265728,0
Finch-Leslie Pharmacy,149C Ravel Road,(416) 491-8833,Toronto,M2H 1T1,43.790786,-79.367763,0
Forest Hill Pharmacy,102-491 Eglinton Ave W,(416) 619-7768,Toronto,M5N 1A8,43.7034249,-79.4128462,0
Freshco Pharmacy,410 Bathurst St,(416) 925-4482,Toronto,M5T 2S6,43.6541419,-79.4068604,0
Friendly Care West King Pharmacy,2077 Weston Rd,(416) 248-4485,Toronto,M9N 1X7,43.7022071,-79.5224687,0
Front Street Pharmacy,431 King St E,(416) 362-1000,Toronto,M5A 1L5,43.653494,-79.3615599,0
Genix Pharmacy,3094 Danforth Ave,(416) 901-8459,Toronto,M1L 1B1,43.6915583,-79.2881969,0
GeriatRx Pharmacy,200-53 The Links Rd,(416) 221-7755,Toronto,M2P 1T7,43.7514707,-79.4015322,0
Gerrard Street Pharmacy,247 Coxwell Ave,(647) 748-0200,Toronto,M4L 3B4,43.6726238,-79.3188509,0
Get Well Pharmacy,1278 The Queensway,(416) 259-4747,Toronto,M8Z 1S3,43.6213624,-79.5264015,0
Glen George IDA,1118 Victoria Park Ave,(647) 347-6196,Toronto,M4B 2K3,43.7079154,-79.2962604,0
Glen Manor Pharmacy,116 Glen Manor Dr,(416) 690-1599,Toronto,M4E 2X2,43.6713332,-79.2926402,0
Glengrove Pharmacy,2760 Yonge St,(647) 340-7272,Toronto,M4N 2J2,43.7186543,-79.4011345,0
Glenholme Pharmacy,896 St Clair Ave W,(416) 656-8881,Toronto,M6C 1C5,43.680334,-79.4331814,0
Green Cross Pharmacy,2920 Sheppard Ave E,(416) 490-6522,Toronto,M1T 3J4,43.7759301,-79.3222528,0
Green Medical Pharmacy,1705 St Clair Ave W,(647) 340-2878,Toronto,M6N 1J2,43.674063,-79.4593796,0
Green Pharmacy,620A Bloor Street W,(416) 530-4004,Toronto,M6G 1K7,43.664618,-79.4141223,0
Greendale Drugs,152 Carlton St,(416) 967-6610,Toronto,M5A 2K1,43.6630098,-79.3745838,0
Greenwood Pharmacy,1285 Gerrard St E,(416) 466-3606,Toronto,M4L 1Y5,43.6706534,-79.3280281,0
Guardian Sheppard Community Pharmacy,109-1265 Morningside Ave,(647) 799-0669,Toronto,M1B 3V9,43.8025515,-79.1994219,0
Haber's Compounding Pharmacy,1584 Bathurst St,(416) 656-9800,Toronto,M5P 3H3,43.6866176,-79.4201057,0
Harbourfront Medicine Cabinet,1-8 York St,(416) 366-3669,Toronto,M5J 2Y2,43.641012,-79.3806905,0
Health Care Mart,1173 Queen St W,(416) 539-9555,Toronto,M6J 1J4,43.6425897,-79.4260119,0
Healthplus Pharmacy,1408 Queen St W,(416) 534-1313,Toronto,M6K 1L9,43.6411983,-79.4345632,0
HealthShield Pharmacy,589 King St E,(416) 400-3525,Toronto,M5A 1M6,43.6565173,-79.356457,0
HealthShield Pharmacy,939 O'Connor Dr,(416) 757-2839,Toronto,M4B 2S7,43.7077639,-79.3109573,0
HealthShield Pharmacy,681 Dundas St E,(416) 901-2568,Toronto,M5A 0R5,43.6606976,-79.3591075,0
Hellenic Pharmacy,374 Danforth Ave,(416) 461-0377,Toronto,M4K 1N8,43.6777086,-79.3521948,0
Heritage Pharmacy,1488 Danforth Ave,(416) 469-0444,Toronto,M4J 1N4,43.6830457,-79.3257418,0
High Park Pharmacy,1938 Bloor St W,(416) 769-2222,Toronto,M6P 3K8,43.6533747,-79.4667907,0
Hilary's Pharmacy,811 Dundas St W,(416) 603-1059,Toronto,M6J 1V4,43.6515971,-79.4086079,0
Holland Orthopaedic & Arthritic Centre,43 Wellesley St E,(416) 967-8625,Toronto,M4Y 1H1,43.6650195,-79.3823361,0
Hooper's Pharmacy,2136 Queen St E,(416) 699-3747,Toronto,M4E 1E3,43.671491,-79.293809,0
Howard Pharmacy,25 Howard St,(416) 515-1515,Toronto,M4X 1J6,43.6711383,-79.3750946,0
Hui's Pharmasave,Q-280 Spadina Ave,(416) 597-2201,Toronto,M5T 3A5,43.6526355,-79.3983795,0
Hurst Pharmacy,419 Donlands Ave,(416) 421-3131,Toronto,M4J 3S2,43.6944613,-79.3426612,0
icare Discount Pharmacy,6-1577 Danforth Ave,(416) 691-0786,Toronto,M4C 1H7,43.6833776,-79.3229608,0
Infinity Health Pharmacy,35 Lower Simcoe St,(416) 792-8900,Toronto,M5J 3A6,43.6419093,-79.3835327,0
International Pharmacy,1218 King St W,(416) 516-8016,Toronto,M6K 1G4,43.6388981,-79.4281234,0
Islington IDA Pharmacy,2428 Islington Ave,(416) 741-5553,Toronto,M9W 3X8,43.7236087,-79.5598821,0
Jamestown Pharmacy,5-225 Wellesley St E,(647) 349-3232,Toronto,M4X 1X8,43.6649409,-79.3845036,0
Jane Park Plaza Pharmacy,873 Jane St,(416) 763-2233,Toronto,M6N 4C4,43.6771866,-79.4944618,0
Jane Wilson Pharmacy,2111 Jane St,(647) 349-9100,Toronto,M3M 1A2,43.7191032,-79.5074268,0
Janedal Pharmacy,3-965 Jane St,(416) 604-8888,Toronto,M6N 4E1,43.7564128,-79.5161396,0
Jarvis St. Apothecary,275 Jarvis St,(416) 792-1959,Toronto,M5B 2C2,43.6582621,-79.374726,0
JC Pharmacy,1A-3685 Keele St,(416) 398-8887,Toronto,M3J 3H6,43.7541835,-79.4877013,0
John & Jack Pharmacy,787 Lawrence Ave W,(647) 347-9333,Toronto,M6A 1C2,43.7137819,-79.4539565,0
Junction Chemist,17 St Johns Rd,(647) 748-3784,Toronto,M6P 1T7,43.6652578,-79.473926,0
Junction Pharmacy,3016 Dundas St W,(416) 763-2394,Toronto,M6P 1Z3,43.6656651,-79.4699271,0
Kassel's Pharmacy Limited,396 Royal York Rd,(416) 251-1126,Toronto,M8Y 2R5,43.6193426,-79.4999369,0
Keele & Rogers Pharmacy,605 Rogers Rd,(416) 651-5332,Toronto,M6M 1B9,43.6816157,-79.4734646,0
Keele-Ingram Pharmacy Ltd,101-2221 Keele St,(416) 247-8618,Toronto,M6M 3Z5,43.6989823,-79.4755084,0
Kingsway Drugs,114 Cumberland St,(416) 962-3544,Toronto,M5R 1A6,43.6702879,-79.3916407,0
KLH Pharmacy,4113-A Lawrence Ave. E,(416) 282-2020,Toronto,M1E 2S2,43.7663824,-79.1943313,0
Konop Chemists Ltd,208 Bloor St W,(416) 925-6313,Toronto,M5S 3B4,43.6686587,-79.395839,0
L & A Pharmacy,1485 Gerrard St E,(416) 465-1515,Toronto,M4L 2A4,43.6724547,-79.3200611,0
Lakefront Medical Pharmacy,550 Queens Quay W,(647) 340-7730,Toronto,M5V 3M8,43.6368544,-79.3966201,0
Lakeside Pharmacy,2438 Lake Shore Blvd.,(416) 252-2999,Toronto,M8V 1C4,43.6142601,-79.4892689,0
Lawrence Heights Phamily Pharmacy,12 Flemington Rd,(416) 782-7426,Toronto,M6A 2N4,43.7195259,-79.4449407,0
Lawrence Medical Pharmacy,4-1575 Lawrence Ave W,(416) 245-4421,Toronto,M6L 1C3,43.7001458,-79.509993,0
Leaside Community Pharmacy,795 Eglinton Ave E,(416) 422-0186,Toronto,M4G 4E4,43.7131213,-79.3661381,0
Lefko Pharmasave,842 Wilson Ave,(416) 635-6802,Toronto,M3K 1E5,43.7308124,-79.4673782,0
Leslie Grove Pharmacy,1176 Queen St E,(416) 465-2637,Toronto,M4M 1L4,43.6629814,-79.3320951,0
Liberty Market Pharmacy,102-171 East Liberty St,(416) 588-8348,Toronto,M6K 3P6,43.63837,-79.4184338,0
Life Trust Pharmacy,201-125 Norfinch Dr,(416) 514-2745,Toronto,M3N 1W8,43.7664565,-79.5297741,0
Lingeman Pharmacy,411 Jane St,(416) 767-8409,Toronto,M6S 3Z6,43.6587064,-79.4880308,0
LMC Pharmacy - Diabetes Source,107-1929 Bayview Ave,(416) 640-1863,Toronto,M4G 3E8,43.717928,-79.377612,0
Loblaw Pharmacy,6220 Yonge St,(416) 224-8626,Toronto,M2M 3X4,43.7947029,-79.4216736,0
Loblaw Pharmacy,200 Front St. E,(416) 363-6412,Toronto,M5A 4T9,43.6514188,-79.3659472,0
Loblaw Pharmacy,825 Don Mills Rd,(416) 391-4847,Toronto,M3C 1V4,43.7227042,-79.3375083,0
Loblaw Pharmacy,11 Redway Rd,(416) 425-8433,Toronto,M4H 1P6,43.6990972,-79.3597232,0
Loblaw Pharmacy,449 Carlaw Ave,(416) 462-0651,Toronto,M4K 3H9,43.6688158,-79.3419791,0
Loblaw Pharmacy,5095 Yonge St,(416) 512-9436,Toronto,M2N 6Z4,43.768663,-79.4120873,0
Loblaw Pharmacy,2280 Dundas St W,(416) 533-0770,Toronto,M6R 1X4,43.6556207,-79.4498001,0
Loblaw Pharmacy,650 Dupont St,(416) 588-4973,Toronto,M6G 4B1,43.6721783,-79.4206291,0
Loblaw Pharmacy,60 Carlton St,(416) 593-1542,Toronto,M5B 1J2,43.6621288,-79.3801472,0
Loblaw Pharmacy,396 St Clair Ave W,(416) 651-5145,Toronto,M5P 3N3,43.6841477,-79.4153394,0
Loblaw Pharmacy,51 Gerry Fitzgerald Dr,(416) 665-7636,Toronto,M3J 3N4,43.7847695,-79.4719819,0
Loblaw Pharmacy,50 Musgrave St,(416) 694-6263,Toronto,M4E 3W2,43.6885028,-79.2882397,0
Loblaw Pharmacy,585 Queen St W,(416) 703-8967,Toronto,M5V 2B7,43.6473554,-79.4016963,0
Loblaw Pharmacy,700 Lawrence Ave W,(416) 781-8699,Toronto,M6A 3B4,43.716443,-79.4474171,0
Loblaw Pharmacy,17 Leslie St,(416) 968-7283,Toronto,M4M 3H9,43.6608701,-79.3284242,0
Lord's Pharmacy,225 Wellesley St. E.,(416) 927-9199,Toronto,M4X 1X8,43.6673418,-79.3724705,0
M & D Sheppard Pharmacy,2-872 Sheppard Ave W,(416) 633-6800,Toronto,M3H 5V5,43.7523147,-79.454605,0
Main Drug Mart,3265 Bayview Ave,(416) 222-5484,Toronto,M2K 1G4,43.7911713,-79.3920008,0
Main Drug Mart,510 Trethewey Dr,(416) 242-2121,Toronto,M6M 4C2,43.6961084,-79.4880298,0
Main Drug Mart,2306 Keele Street,(416) 244-5331,Toronto,M6M 3Z8,43.7033427,-79.4771871,0
Main Drug Mart,"St. Michael Hospital Health Centre, 61 Queen St E",(416) 367-3239,Toronto,M5C 2T2,43.652825,-79.3763736,0
Main Drug Mart,140 The Esplanade,(416) 368-7900,Toronto,M5A 4P5,43.648487,-79.3701301,0
Main Drug Mart,25 Overlea Blvd,(416) 423-6171,Toronto,M4H 1P9,43.7043343,-79.3499987,0
Main Drug Mart,2091 Danforth Ave,(416) 425-8300,Toronto,M4C 1K1,43.6856298,-79.3123931,0
Main Drug Mart,658 Danforth Ave,(416) 465-7610,Toronto,M4J 5B9,43.6791675,-79.3445989,0
Main Drug Mart,3245 Finch Ave E,(416) 502-0101,Toronto,M1W 4C1,43.795264,-79.3198413,0
Main Drug Mart,1130 Bloor St W,(416) 532-9391,Toronto,M6H 1M8,43.6601158,-79.4350901,0
Main Drug Mart,1169 Dundas St W,(416) 536-2139,Toronto,M6J 1X3,43.6491783,-79.4216404,0
Main Drug Mart,521 Victoria Park Ave,(416) 690-3300,Toronto,M4C 5H1,43.6900991,-79.2876022,0
Main Drug Mart,2558 Danforth Ave,(416) 699-6171,Toronto,M4C 1L3,43.6884307,-79.3017577,0
Main Drug Mart,1 Oak St,(416) 703-2727,Toronto,M5A 0A1,43.6606212,-79.3660118,0
Main Drug Mart,1180 Victoria Park Ave,(416) 751-1161,Toronto,M4B 2K4,43.7092753,-79.29642,0
Main Drug Mart,7-1646 Victoria Park Ave,(416) 752-9088,Toronto,M1R 1P7,43.7310394,-79.3057416,0
Main Drug Mart,2130 Lawrence Ave E,(416) 755-5111,Toronto,M1R 3A6,43.7475629,-79.2873072,0
Main Drug Mart,1-399 Church St.,(416) 963-0963,Toronto,M5B 2J6,43.6661043,-79.3809582,0
Main Drug Mart,1865 Lawrence Ave E,(647) 748-8220,Toronto,M1R 2Y3,43.74363,-79.3026169,0
Maple Leaf Medical Pharmacy,14 College Street,(416) 926-9696,Toronto,M5G 1K2,43.6614534,-79.3839957,0
Margis Pharmacy,3-38 Howard Park Ave,(416) 535-1944,Toronto,M6R 0A5,43.651742,-79.4488638,0
Markham Corners Pharmacy,"7-5113 Sheppard Ave E, Unit 7",(647) 349-8383,Toronto,M1S 4N8,43.79257,-79.2391289,0
Markie Pharmacy,106-1240 Bay St,(416) 969-9332,Toronto,M5R 2A7,43.6575694,-79.3847023,0
Marshall's Drug Store,412 Summerhill Ave,(416) 921-3096,Toronto,M4W 2E4,43.6861205,-79.3764049,0
Medi Choice Pharmacy,2-842 Gerrard St E,(416) 466-1392,Toronto,M4M 1Y7,43.6628364,-79.3634813,0
Medical Pharmacy,340 College St,(416) 922-4145,Toronto,M5T 3A9,43.6574528,-79.4033928,0
Medicare Drug Mart,2772 Danforth Ave,(416) 694-2613,Toronto,M4C 1L7,43.6894261,-79.2970141,0
Medicare Drug Mart,410 Sherbourne St,(416) 925-2121,Toronto,M4X 1K2,43.6647275,-79.3741718,0
Medicare Drug Mart,599 Parliament St,(416) 960-1616,Toronto,M4X 1W3,43.6677926,-79.3692052,0
Medicare Pharmacy,B109-3341 Markham Rd,(416) 754-9992,Toronto,M1X 0A5,43.8356047,-79.2506653,0
Medicine Cabinet,2081 Lakeshore Blvd W,(416) 901-9644,Toronto,M8Y 3Z4,43.630289,-79.476575,0
Medimost Pharmacy Inc.,2881-2883 Danforth Avenue,(416) 694-6000,Toronto,M4C 1M3,43.6896087,-79.2946225,0
Medi-Place Pharmacy,622 College St,(416) 588-8780,Toronto,M6G 1B4,43.6551261,-79.414812,0
Medishop Pharmacy,101-343 Wilson Ave,(416) 633-3222,Toronto,M3H 1T1,43.7367279,-79.4358631,0
Medisystem Pharmacy,3-75 Lesmill Rd,(416) 441-2293,Toronto,M3B 2T8,43.7590945,-79.3563241,0
medsEXPERT Pharmacy,461 Church St,(416) 922-6337,Toronto,M4Y 2C5,43.6642744,-79.3798828,0
Metro Drugs,3-129 Dundas St E,(416) 363-7300,Toronto,M5B 2N6,43.6564245,-79.380412,0
Metro Drugs,844 Bathurst St,(416) 537-1900,Toronto,M5R 3G1,43.6662264,-79.4120547,0
Metro Drugs,1290 Bloor Street West,(416) 538-9962,Toronto,M6H 1N9,43.6586115,-79.442054,0
Metro Medical Pharmacy,351 Christie St,(416) 530-1055,Toronto,M6G 3C2,43.6732321,-79.4215684,0
Metro Pharmacy,80 Front St E,(416) 203-9292,Toronto,M5E 1T4,43.6492034,-79.3727345,0
Metro Pharmacy,100 Lynn Williams St,(416) 588-1300,Toronto,M6K 3N6,43.6398874,-79.4177915,0
Metro Pharmacy,3003 Danforth Ave,(416) 686-8484,Toronto,M4C 1M9,43.6896746,-79.2906481,0
Metro Pharmacy,2155 St Clair Ave W,(416) 762-7300,Toronto,M6N 1K5,43.6696409,-79.4730252,0
Metropolitan Pharmacy,4G Spadina Ave,(416) 623-9960,Toronto,M5V 3Z9,43.6408961,-79.3936405,0
Mid-Eg Pharmacy Inc.,10-2480 Eglinton Ave East,(416) 551-8222,Toronto,M1K 2R4,43.7349023,-79.2597402,0
Mimico Pharmacy,2408 Lakeshore Blvd W,(416) 255-0300,Toronto,M8V 1C4,43.6147918,-79.4890633,0
MMT Downtown,218 Gerrard St E,(647) 347-4444,Toronto,M5A 2E6,43.661619,-79.3709606,0
Mobarak Guardian Pharmacy,28 Overlea Blvd,(416) 421-7211,Toronto,M4H 1B6,43.705542,-79.3500319,0
Morelli's Pharmacy,15 York St,(416) 815-1200,Toronto,M5J 0A3,43.6420951,-79.3808507,0
Mortar + Pestle,1997 Bloor St W,(416) 901-8020,Toronto,M6S 1M4,43.6521306,-79.4708218,0
Moss Park Pharmacy,325 Queen St E,(416) 361-5713,Toronto,M5A 1S9,43.6552969,-79.3653804,0
Mount Pleasant Pharmacy,245 Eglinton Ave E,(416) 488-3232,Toronto,M4P 3B7,43.7081764,-79.38957,0
Mount Sinai Hospital,600 University Ave,(416) 586-4800,Toronto,M5G 1X5,43.6575439,-79.3900848,0
Multicare Drug Mart Inc.,1709 Bloor St W,(416) 532-1222,Toronto,M6P 4E5,43.6546431,-79.4588302,0
Murray Shore Pharmacy,3537 Bathurst St,(416) 789-1800,Toronto,M6A 2C7,43.7298569,-79.4318405,0
Nelson Pharmacy,673 College St,(416) 551-2175,Toronto,M6G 1B9,43.6550073,-79.4171268,0
New Care Pharmacy,56 Westmore Drive,(416) 740-6565,Toronto,M9V 1C3,43.7402288,-79.6036776,0
New Day Danforth Pharmacy,1288 Danforth Ave,(647) 931-7314,Toronto,M4J 1M6,43.6821687,-79.3302011,0
New Era Pharmacy,2163 Danforth Ave,(416) 691-3323,Toronto,M4C 1K2,43.6859513,-79.3107621,0
North Park Medical Pharmacy,2355 Keele St,(416) 243-5111,Toronto,M6M 4A1,43.7076621,-79.476277,0
Northcliffe Pharmacy,1751 Eglinton Ave W,(416) 256-7888,Toronto,M6E 2H7,43.6960395,-79.4478638,0
Northern Rx Medical Pharmacy,201-418 Eglinton Ave W,(647) 350-5100,Toronto,M5N 1A2,43.7053742,-79.4048587,0
Northtown Way Pharmacy,114-10 Northtown Way,(416) 226-4141,Toronto,M2N 7L4,43.7759301,-79.413286,0
Northview Pharmacy,4949 Bathurst St,(416) 224-8555,Toronto,M2R 1Y1,43.7743866,-79.4423472,0
Nova Pharmacy,1674 Dufferin St,(416) 901-7587,Toronto,M6H 3M1,43.6774828,-79.4431885,0
Oakwood Pharmacy,332 Oakwood Ave,(416) 651-5252,Toronto,M6E 2V9,43.6860897,-79.4384383,0
Odette Cancer Centre Pharmacy,T1-271-2075 Bayview Ave,(416) 480-4671,Toronto,M4N 3M5,43.7228457,-79.3728749,0
Old Park Pharmacy,1042 Eglinton Ave W,(416) 787-7341,Toronto,M6C 2C5,43.7001886,-79.4303817,0
Omni Pharmacy,799 Bloor St W,(416) 588-8724,Toronto,M6G 1L8,43.6627133,-79.4213057,0
On Care Pharmacy,481 Dundas St W,(416) 598-4009,Toronto,M5T 1H1,43.6529014,-79.3971906,0
One Community Pharmacy Inc.,347 Spadina Ave.,(416) 977-1101,Toronto,M5T 2G3,43.6552893,-79.3985307,0
One Medical Pharmacy,102-20 Wynford Drive,(416) 443-1444,Toronto,M3C 1J4,43.7271034,-79.3288467,0
One Pharmacy,301-110 Harbour St,(416) 221-5433,Toronto,M5J 0B7,43.6413898,-79.3801637,0
Orton Park Pharmacy,136 Orton Park Rd,(416) 439-7222,Toronto,M1G 3H1,43.7716344,-79.2092939,0
Ossington Medical Pharmacy,836 Bloor St. West,(416) 516-9998,Toronto,M6G 1M2,43.6625205,-79.4237204,0
Pace Pharmacy,14 Isabella St,(416) 515-7223,Toronto,M4Y 1N1,43.6679252,-79.3850826,0
Pacific Pharmacy Toronto,721 Gerrard St E,(416) 461-6898,Toronto,M4M 1Y5,43.6663332,-79.3477988,0
Pape Drug Mart,751 Pape Ave,(416) 461-3581,Toronto,M4K 3T1,43.6802331,-79.3449984,0
Parkdale Guardian Drugs,1514 Queen St W,(416) 533-2391,Toronto,M6R 1A4,43.6403968,-79.4385611,0
Parkdale Pharmacy,1439 King St W,(416) 516-2039,Toronto,M6K 1H9,43.6367042,-79.4370084,0
Parkside Pharmacy (Remedy's Rx),1640 Bloor St W,(647) 350-3530,Toronto,M6P 1A7,43.6557418,-79.4564786,0
Parliament Pharmacy,402 Parliament St,(416) 963-9733,Toronto,M5A 2Z7,43.6617721,-79.3671468,0
Peoples Choice Remedy's Rx,Unit 16-1145 Morningside Ave,(647) 748-7337,Toronto,M1B 0A7,43.8013095,-79.1984082,0
Peoples Drug Mart,2543 Danforth Ave,(416) 691-2229,Toronto,M4C 1L1,43.6879268,-79.3021335,0
Peoples Drug Mart,491 Lawrence Ave W,(416) 781-5683,Toronto,M5M 1C7,43.7190976,-79.428829,0
Pharmacare Drug Mart,891 Broadview Ave,(416) 424-1242,Toronto,M4K 2P9,43.680721,-79.3576452,0
Pharmacia,553 St Clair Ave W,(647) 347-0485,Toronto,M6C 1A3,43.6824776,-79.4208483,0
Pharmacy By The Grange,275 Dundas St W,(416) 593-4696,Toronto,M5T 1G1,43.6541583,-79.3904907,0
Pharmacy Go Caledonia,324 Silverthorn Ave,(416) 654-1144,Toronto,M6N 3K6,43.6826288,-79.4634229,0
Pharmacy.Ca,311 Sherbourne St,(416) 960-7768,Toronto,M5A 3Y1,43.6614363,-79.3719426,0
Pharma-Docs,4972 Dundas St W,(416) 233-0404,Toronto,M9A 1B7,43.6474441,-79.5302442,0
Pharmasave,1018 Pape Ave,(416) 429-8448,Toronto,M4K 3V9,43.6890201,-79.3488585,0
Pharmasave,100-720 Spadina Ave,(416) 929-7200,Toronto,M5S 2T9,43.6653855,-79.4034771,0
Pharmasave 606,944 Kingston Rd,(416) 698-1641,Toronto,M4E 1S7,43.6805978,-79.288133,0
Pharmasave Cadence Pharmacy,200 Spadina Ave,(416) 203-8900,Toronto,M5T 2C2,43.6502361,-79.3974325,0
Pharmasave Cedarcourt Pharmacy,A5-3480 Lawrence Ave E,(416) 289-0000,Toronto,M1H 1A9,43.7597868,-79.2270078,0
PharmaTrust Drug Mart,1935 Sheppard Ave W,(416) 743-3351,Toronto,M3L 1Y8,43.7395064,-79.5118365,0
Phil-Way Pharmacy,A3-1700 Eglinton Ave E,(416) 285-7338,Toronto,M4A 2X4,43.7262913,-79.3128424,0
Premier Pharmacy and Compounding Centre,3323 Bathurst St,(647) 347-1311,Toronto,M6A 2B7,43.725378,-79.4309518,0
Prescription Care Centre,"St. Michael's Hospital, Donnelly, Room B1-034",(416) 864-5110,Toronto,M5B 1W8,43.6529691,-79.3776369,0
Princess Margaret Cancer Centre,610 University Ave,(416) 946-2000,Toronto,M5G 2M9,43.6581169,-79.3907253,0
Princess Margaret Outpatient Pharmacy,Rm M810-610 University Ave,(416) 946-6593,Toronto,M5G 2M9,43.6581169,-79.3907253,0
Procare IDA Pharmacy,795 Broadview Ave,(416) 546-2422,Toronto,M4K 2P8,43.6776571,-79.358392,0
Procare Pharmacy,1262 Don Mills Rd,(416) 444-4500,Toronto,M3B 2W6,43.7447025,-79.3464677,0
Prohealth Pharmacy,1473 Danforth Ave,(416) 465-7776,Toronto,M4J 1N5,43.6827043,-79.3260121,0
Providence Pharmacy,3276 St. Clair Ave E,(416) 285-3805,Toronto,M1L 1W1,43.7129553,-79.2852817,0
Queen East Medical Pharmacy,1876 Queen St E,(647) 313-1948,Toronto,M4L 1H2,43.6688466,-79.3064151,0
Queen's Plate Pharmacy,135 Queens's Plate Dr,(416) 342-5146,Toronto,M9W 6V1,43.7168613,-79.5920356,0
R.K. Pharmacy Limited,302 Spadina Ave,(416) 593-0202,Toronto,M5T 2E7,43.6533772,-79.3985109,0
Raxlen Pharmacy,343 College St,(416) 324-9217,Toronto,M5T 1S5,43.6571436,-79.4032675,0
Regency Pharmacy,2737 Keele St,(416) 398-7000,Toronto,M3M 2E9,43.7257789,-79.480759,0
Remedy's Rx Eglinton Bayview Compounding Pharmacy,102-586 Eglinton Ave E,(416) 544-9449,Toronto,M4P 1P2,43.7073912,-79.3953379,0
Rexall,288 Sheppard Ave E,(416) 222-5454,Toronto,M2N 3B1,43.7645963,-79.3980702,0
Rexall,1235 Wilson Ave,(416) 248-5810,Toronto,M3M 0B2,43.7237804,-79.4887557,0
Rexall,440 Browns Line,(416) 251-2231,Toronto,M8W 3T9,43.6019254,-79.5457153,0
Rexall,3701 Lakeshore Blvd W,(416) 259-3777,Toronto,M8W 1P8,43.5930846,-79.5384814,0
Rexall,76 Grenville St,(416) 323-6250,Toronto,M5S 1B2,43.6615138,-79.3871213,0
Rexall,Unit Cn1038,(416) 362-6480,Toronto,M5X 1C8,43.6492218,-79.381635,0
Rexall,C186-199 Bay St,(416) 364-7824,Toronto,M5L 1E7,43.6481326,-79.3795089,0
Rexall,48 Yonge St,(416) 366-4355,Toronto,M5E 1G6,43.6479642,-79.3777254,0
Rexall,Adelaide Richmond Centre,(416) 368-2742,Toronto,M5H 1T1,43.6499721,-79.3832232,0
Rexall,474 Spadina Ave,(416) 413-1060,Toronto,M5T 2G8,43.6577255,-79.400333,0
Rexall,325 Moore Ave,(416) 423-3488,Toronto,M4G 3T6,43.6966927,-79.369391,0
Rexall,807 Broadview Ave,(416) 461-1264,Toronto,M4K 2P8,43.6779782,-79.35826,0
Rexall,2300 Yonge St,(416) 484-6750,Toronto,M4P 1E4,43.7072693,-79.3996009,0
Rexall,1820 Bayview Ave,(416) 485-1853,Toronto,M4G 4G7,43.712781,-79.3776009,0
Rexall,393 Spadina Rd,(416) 488-1107,Toronto,M5P 2W1,43.6885088,-79.4123749,0
Rexall,1093 Queen St W,(416) 531-7446,Toronto,M6J 1J1,43.6430802,-79.4226516,0
Rexall,1421 Dundas St W,(416) 533-9644,Toronto,M6J 1Y4,43.6493725,-79.4292906,0
Rexall,1245 Dupont St,(416) 537-3437,Toronto,M6H 2A6,43.6676544,-79.4420834,0
Rexall,3402 Yonge St,(416) 544-0810,Toronto,M4N 2M9,43.7329928,-79.404557,0
Rexall,595 Bay St,(416) 591-1414,Toronto,M5G 2C2,43.6562198,-79.3832909,0
Rexall,250 University Ave,(416) 591-2097,Toronto,M5H 3E5,43.6502713,-79.3869314,0
Rexall,285 Spadina Ave,(416) 596-1602,Toronto,M5T 2E6,43.6532454,-79.3978534,0
Rexall,159 Yonge St,(416) 603-4888,Toronto,M5C 1X7,43.6520696,-79.3789777,0
Rexall,88 Queens Quay West,(416) 607-5552,Toronto,M5J 0B8,43.6410825,-79.3787196,0
Rexall,63 Front St E,(416) 607-6387,Toronto,M5E 1B3,43.6481827,-79.3738706,0
Rexall,113-1115 Wilson Ave,(416) 633-4366,Toronto,M3M 1H2,43.725741,-79.4830004,0
Rexall,2-4789 Yonge St,(416) 733-0161,Toronto,M2N 0G3,43.7613561,-79.4102084,0
Rexall,Unit B-249 Marlee Ave,(416) 780-0204,Toronto,M6B 4B8,43.7058503,-79.4420395,0
Rexall,901 Eglinton Ave W,(416) 787-9984,Toronto,M6C 2C1,43.7004107,-79.4270751,0
Rexall,C001-2 St Clair Ave E,(416) 921-2406,Toronto,M4T 2T5,43.688467,-79.393801,0
Rexall,87 Avenue Rd,(416) 922-5555,Toronto,M5R 3R9,43.6719078,-79.3948697,0
Rexall,C28-29-50 Bloor St W,(416) 923-1766,Toronto,M4W 3L8,43.670355,-79.3882477,0
Rexall,3-345 Bloor St E,(416) 923-3221,Toronto,M4W 3J6,43.6701086,-79.3863831,0
Rexall,63 Wellesley St E,(416) 924-7769,Toronto,M4Y 1G7,43.6653729,-79.3811801,0
Rexall,539 Parliament St,(416) 926-1658,Toronto,M4X 1P7,43.6661388,-79.3683352,0
Rexall,481 Bloor St W,(416) 929-8213,Toronto,M5S 1X9,43.6657024,-79.4070964,0
Rexall,600 University Ave,(416) 977-0408,Toronto,M5G 1X5,43.6575439,-79.3900848,0
Rexall,C216-777 Bay St,(416) 977-6899,Toronto,M5G 2C8,43.6604859,-79.3844559,0
Rexall,200-200 Wellington St W,(416) 979-0770,Toronto,M5V 3C7,43.6459076,-79.3878224,0
Rexall,401 Yonge St,(416) 979-9190,Toronto,M5B 1S9,43.6593968,-79.3818779,0
River Hill Pharmacy,2086 Lawrence Ave W,(416) 614-6623,Toronto,M9N 3Z9,43.6998792,-79.5183518,0
Rogers Road Pharmacy,576 Rogers Rd,(416) 651-2226,Toronto,M6M 1B6,43.6823011,-79.4713663,0
Rosedale Pharmacy,600 Sherbourne St,(416) 961-8877,Toronto,M4X 1W4,43.6716822,-79.3768696,0
Roya Boutique Pharmacy,77 Provost Dr,(416) 221-4200,Toronto,M2K 0B7,43.7691771,-79.3703589,0
Royal Care Pharmacy,295 College St,(416) 925-5000,Toronto,M5T 1S2,43.6574935,-79.4011984,0
Rumball Drug Mart,553 Sammon Ave,(416) 461-6900,Toronto,M4C 2E1,43.6887331,-79.3255124,0
Runnymede Healthcare Centre,625 Runnymede Rd,(416) 762-7316,Toronto,M6S 3A3,43.6646809,-79.4812103,0
Salvation Army Toronto Grace Health Centre,650 Church St,(416) 925-2251,Toronto,M4Y 2G5,43.670326,-79.3832017,0
Sam's I.D.A. Pharmacy,101Y-1920 Yonge St,(416) 483-3003,Toronto,M4S 3E2,43.6987992,-79.3972615,0
Sanomed Pharmacy & Compounding Centre,1000 Bay St,(416) 923-7770,Toronto,M5S 3A8,43.6650475,-79.387829,0
Sante Pharmacy,L07-2 Bloor St W,(416) 919-8734,Toronto,M4W 3E2,43.6704775,-79.3872741,0
Seaton St. Pharmacy,228 Queen St E,(647) 352-4300,Toronto,M5A 1S3,43.6547459,-79.3689217,0
Sherbourne Pharmacy,26-2300 Finch Avenue West,(647) 748-6668,Toronto,M9M 2Y3,43.7531004,-79.542035,0
Shifa Pharmacy,4-1 Leaside Park Dr,(416) 425-2006,Toronto,M4H 1R1,43.7029876,-79.3507244,0
Shop Rite Pharmacy,685 Kennedy Rd,(416) 264-1000,Toronto,M1K 2B8,43.7272596,-79.2655088,0
Shoppers Drug Mart,18 Lower Jarvis St,(416) 203-3700,Toronto,M5E 1N1,43.6467236,-79.3706932,0
Shoppers Drug Mart,500 King St W,(416) 214-4724,Toronto,M5V 1L9,43.6452912,-79.3967609,0
Shoppers Drug Mart,593 Dundas St E,(416) 214-9440,Toronto,M5A 0C7,43.6602043,-79.3613328,0
Shoppers Drug Mart,1533 Jane St,(416) 248-5424,Toronto,M9N 2R2,43.6971001,-79.5014085,0
Shoppers Drug Mart,1840 Eglinton Ave W,(416) 256-6199,Toronto,M6E 2J4,43.6958261,-79.4509313,0
Shoppers Drug Mart,110-390 Queens Quay W,(416) 260-2766,Toronto,M5V 3A6,43.6411719,-79.3778116,0
Shoppers Drug Mart,255 Morningside Ave,(416) 282-1129,Toronto,M1E 3E6,43.7702814,-79.185016,0
Shoppers Drug Mart,812 O'Connor Dr,(416) 285-5822,Toronto,M4B 2S9,43.7058539,-79.3128279,0
Shoppers Drug Mart,333 Bay St,(416) 304-1151,Toronto,M5H 2R2,43.6503406,-79.3805207,0
Shoppers Drug Mart,761 King St W,(416) 306-0311,Toronto,M5V 1N4,43.6431408,-79.4059042,0
Shoppers Drug Mart,69 Yonge St,(416) 364-1948,Toronto,M5E 1K3,43.649001,-79.3776402,0
Shoppers Drug Mart,66 Wellington St W,(416) 365-0927,Toronto,M5K 1A1,43.6476696,-79.3810141,0
Shoppers Drug Mart,351 Queen St E,(416) 368-2121,Toronto,M5A 1T2,43.6554619,-79.3640493,0
Shoppers Drug Mart,465 Yonge St,(416) 408-4000,Toronto,M4Y 1X4,43.6618227,-79.3830287,0
Shoppers Drug Mart,45 Overlea Blvd,(416) 421-5141,Toronto,M4H 1C3,43.7057953,-79.3460276,0
Shoppers Drug Mart,1012 Pape Ave,(416) 423-3131,Toronto,M4K 3V9,43.6887064,-79.3489096,0
Shoppers Drug Mart,1500 Woodbine Ave,(416) 429-2529,Toronto,M4C 4G9,43.6992126,-79.3193571,0
Shoppers Drug Mart,946 Lawrence Ave E,(416) 444-4445,Toronto,M3C 1R1,43.7372522,-79.3459396,0
Shoppers Drug Mart,1015 Lake Shore Blvd E,(416) 461-0565,Toronto,M4M 1B4,43.6580366,-79.3288788,0
Shoppers Drug Mart,1630 Danforth Ave,(416) 461-2453,Toronto,M4C 1H6,43.683901,-79.3221898,0
Shoppers Drug Mart,755 Danforth Ave,(416) 461-7533,Toronto,M4J 1L2,43.6791421,-79.3422396,0
Shoppers Drug Mart,970 Queen St E,(416) 462-0062,Toronto,M4M 1J8,43.6612116,-79.3406829,0
Shoppers Drug Mart,180 Danforth Ave.,(416) 466-5698,Toronto,M4K 1N1,43.6768251,-79.3570281,0
Shoppers Drug Mart,759 Mount Pleasant Rd,(416) 482-7100,Toronto,M4S 2N4,43.7077315,-79.3895818,0
Shoppers Drug Mart,101-1860 Bayview Ave,(416) 482-9841,Toronto,M4G 0C3,43.7140793,-79.3779058,0
Shoppers Drug Mart,3366 Yonge St,(416) 483-3018,Toronto,M4N 2M7,43.7323488,-79.4045109,0
Shoppers Drug Mart,550 Eglinton Ave W,(416) 485-3093,Toronto,M5N 1B6,43.7034647,-79.4152603,0
Shoppers Drug Mart,2345 Yonge St,(416) 487-5411,Toronto,M4P 1E4,43.7089492,-79.3978503,0
Shoppers Drug Mart,1601 Bayview Ave,(416) 489-1873,Toronto,M4G 3B5,43.7063311,-79.375022,0
Shoppers Drug Mart,2901 Sheppard Ave E,(416) 491-4444,Toronto,M1T 3J3,43.7750899,-79.3223062,0
Shoppers Drug Mart,A-1033 Queen St W,(416) 516-5756,Toronto,M6J 0A6,43.6438666,-79.4193134,0
Shoppers Drug Mart,1473 Queen St. W.,(416) 530-2799,Toronto,M6R 1A1,43.6398986,-79.4390502,0
Shoppers Drug Mart,1400 Dupont St,(416) 532-9214,Toronto,M6H 2B2,43.6668998,-79.4467113,0
Shoppers Drug Mart,725 College St,(416) 534-2375,Toronto,M6G 1C5,43.654263,-79.4189143,0
Shoppers Drug Mart,2440 Dundas St W,(416) 536-0220,Toronto,M6P 1W9,43.6592201,-79.4530285,0
Shoppers Drug Mart,958 Bloor St W,(416) 538-0105,Toronto,M6H 1L6,43.6616319,-79.428763,0
Shoppers Drug Mart,523 St Clair Ave W,(416) 538-1155,Toronto,M6C 1A1,43.682636,-79.4192732,0
Shoppers Drug Mart,279 Yonge St,(416) 591-1733,Toronto,M5B 1N8,43.6556497,-79.380301,0
Shoppers Drug Mart,2-15A Bathurst St,(416) 594-3535,Toronto,M5V 1A5,43.6371977,-79.4002797,0
Shoppers Drug Mart,388 King St W,(416) 597-6550,Toronto,M5V 1K2,43.6462742,-79.3927143,0
Shoppers Drug Mart,399 Bathurst St,(416) 603-5686,Toronto,M5T 2S8,43.6533856,-79.4059423,0
Shoppers Drug Mart,"1115 Lodestar Rd, building E",(416) 633-8778,Toronto,M3J 0G9,43.7593143,-79.4664333,0
Shoppers Drug Mart,3874 Bathurst St,(416) 635-5601,Toronto,M3H 3N3,43.7411737,-79.4353135,0
Shoppers Drug Mart,2343 Eglinton Ave W,(416) 651-7111,Toronto,M6E 2L6,43.6926252,-79.4627417,0
Shoppers Drug Mart,2000 Queen St E,(416) 694-0471,Toronto,M4L 1J2,43.6701805,-79.3002078,0
Shoppers Drug Mart,3003 Danforth Ave,(416) 694-2131,Toronto,M4C 1M9,43.6896746,-79.2906481,0
Shoppers Drug Mart,2494 Danforth Ave,(416) 698-1888,Toronto,M4C 1K9,43.6880339,-79.3032646,0
Shoppers Drug Mart,524 Queen St W,(416) 703-0228,Toronto,M5V 2B5,43.647818,-79.4023038,0
Shoppers Drug Mart,2550 Finch Ave W,(416) 749-5271,Toronto,M9M 2G3,43.7490689,-79.5602547,0
Shoppers Drug Mart,620 Keele St,(416) 766-3095,Toronto,M6N 3E2,43.6717349,-79.4676787,0
Shoppers Drug Mart,3446 Dundas St W,(416) 766-8131,Toronto,M6S 2S1,43.6661678,-79.4867346,0
Shoppers Drug Mart,181 Bay St,(416) 777-1300,Toronto,M5J 2T3,43.6472616,-79.3785998,0
Shoppers Drug Mart,1500 Avenue Rd,(416) 781-6146,Toronto,M5M 3X2,43.722525,-79.4161207,0
Shoppers Drug Mart,770 Lawrence Ave. W,(416) 787-0238,Toronto,M6A 3C6,43.714513,-79.4521212,0
Shoppers Drug Mart,2047 Avenue Rd,(416) 789-1122,Toronto,M5M 4A7,43.7362764,-79.4197057,0
Shoppers Drug Mart,3401 Dufferin St,(416) 789-1201,Toronto,M6A 2T9,43.7251083,-79.4528087,0
Shoppers Drug Mart,555 University Ave,(416) 813-6700,Toronto,M5G 1X8,43.6570957,-79.3877344,0
Shoppers Drug Mart,200 Bay St,(416) 865-0001,Toronto,M5J 2J3,43.6465177,-79.3800808,0
Shoppers Drug Mart,728 Yonge St,(416) 920-0098,Toronto,M4Y 2B3,43.6685766,-79.3862139,0
Shoppers Drug Mart,463 College St,(416) 923-0755,Toronto,M6G 4C1,43.655953,-79.4085176,0
Shoppers Drug Mart,1507 Yonge St,(416) 923-7700,Toronto,M4T 1Z2,43.6893843,-79.3941999,0
Shoppers Drug Mart,G-41-951 Bay St.,(416) 925-0881,Toronto,M5S 0E1,43.66471,-79.386957,0
Shoppers Drug Mart,467 Parliament St,(416) 925-4121,Toronto,M5A 3A3,43.6639808,-79.3674553,0
Shoppers Drug Mart,55 Bloor St W,(416) 925-6949,Toronto,M4W 1A5,43.6695816,-79.3885728,0
Shoppers Drug Mart,236 Bloor St. W,(416) 927-0440,Toronto,M5S 1T8,43.6683598,-79.3967611,0
Shoppers Drug Mart,360 Bloor St W,(416) 961-2121,Toronto,M5S 1X1,43.6667432,-79.4051282,0
Shoppers Drug Mart,40-565 Sherbourne St,(416) 963-9495,Toronto,M4X 1W7,43.6507176,-79.3680605,0
Shoppers Drug Mart,20 Bloor St E,(416) 967-7787,Toronto,M4W 3G7,43.6709974,-79.3849884,0
Shoppers Drug Mart,292 Dupont St,(416) 972-0232,Toronto,M5R 1V9,43.6749503,-79.4080207,0
Shoppers Drug Mart,1090 King St W,(416) 977-4101,Toronto,M6K 0C7,43.6401698,-79.422434,0
Shoppers Drug Mart,700 Bay St,(416) 979-2424,Toronto,M5G 1Z6,43.6581447,-79.3853588,0
Shoppers Drug Mart,260 Queen Street West,(416) 979-3903,Toronto,M5V 1Z8,43.6499426,-79.3917312,0
Shoppers Drug Mart,220 Yonge St,(416) 979-9375,Toronto,M5B 2H1,43.6540644,-79.3806966,0
Shoppers Drug Mart 877,1859 Leslie Street,(416) 383-9599,Toronto,M3B 2M1,43.7541711,-79.3580571,0
Shoppers Drug Mart 926,1027 Yonge St,(416) 961-0155,Toronto,M4W 2K9,43.6776412,-79.3894544,0
Shoppers Drug Mart 989,2223 Bloor St W,(416) 769-1105,Toronto,M6S 1N7,43.6506064,-79.4764527,0
Shoppers Simply Pharmacy,101-235 Danforth Ave,(416) 778-7780,Toronto,M4K 1N2,43.6761536,-79.3581273,0
Shoppers Simply Pharmacy 3070,1221-1223 St Clair Ave W,(416) 656-6044,Toronto,M6E 1B5,43.6772745,-79.4448543,0
Shuter St. Pharmacy,290 Shuter St,(647) 352-2252,Toronto,M5A 1W7,43.6569834,-79.3655367,0
Silverstone Pharmacy,5-2200 Martin Grove Rd,(416) 740-0040,Toronto,M9V 5H9,43.7514866,-79.5997593,0
Skyway Pharmacy,348 Wilson Ave,(416) 633-1888,Toronto,M3H 1S9,43.736657,-79.4379452,0
Smith's Pharmacy,3463 Yonge St,(416) 488-2600,Toronto,M4N 2N3,43.7341723,-79.4043085,0
Snowdon's Guardian Pharmacy,264 Bloor St W,(416) 922-2156,Toronto,M5S 1V8,43.6675767,-79.4002614,0
Sobeys Pharmacy,145 Marlee Ave,(416) 781-0606,Toronto,M6B 3H3,43.7034887,-79.4409405,0
Sobeys Pharmacy,2-124 Belfield Rd,(416) 246-9048,Toronto,M9W 1G1,43.7029924,-79.5749083,0
Solara Pharmacy,3857 Lake Shore Blvd W,(416) 259-2000,Toronto,M8W 0A2,43.5899689,-79.5450974,0
Sone's Pharmacy,991 Dovercourt Rd,(416) 531-2575,Toronto,M6H 2X6,43.6671072,-79.4315205,0
Specialty Rx,801 Eglinton Ave West,(416) 901-9801,Toronto,M5N 1E1,43.7010237,-79.4244825,0
Specialty Rx,34 Wellesley St E,(416) 972-9131,Toronto,M4Y 1G7,43.6654763,-79.38305,0
St. Clair Drug Mart Pharmacy,1203 St Clair Ave W,(416) 654-8181,Toronto,M6E 1B5,43.6774056,-79.4443328,0
St. James Drug Mart,240 Wellesley St E,(416) 966-1028,Toronto,M4X 1G5,43.6681993,-79.3717796,0
St Lawrence Pharmacy,126 Lower Sherbourne St,(416) 362-8888,Toronto,M5A 4J4,43.6496174,-79.3677132,0
St. Gabriel Medical Pharmacy,650 Sheppard Ave. E,(416) 222-0007,Toronto,M2K 3E4,43.7685392,-79.3813125,0
St. George Drug Mart,567 Bathurst St,(416) 323-9733,Toronto,M5S 2P8,43.6584062,-79.408295,0
St. Joseph Pharmacy,7-2930 Islington Ave,(416) 742-7311,Toronto,M9L 2K5,43.7565355,-79.5696946,0
St. Joseph's Health Centre Pharmacy,30 The Queensway,(416) 530-6555,Toronto,M6R 1B5,43.6403937,-79.4503473,0
St. Mary Pharmacy,796 Queen St E,(416) 778-0078,Toronto,M4M 1H4,43.6596201,-79.3469539,0
St. Michael's Drug Mart,565 College St,(416) 532-2881,Toronto,M6G 1B2,43.655143,-79.41283,0
St. Michael's Hospital,30 Bond St,(416) 360-4000,Toronto,M5B 1W8,43.6537678,-79.3783212,0
Stanburys Pharmacy,1032 Pape Ave,(416) 423-4661,Toronto,M4K 3W2,43.689544,-79.3491692,0
Sunnybrook Health Sciences Centre,2075 Bayview Ave,(416) 480-3862,Toronto,M4N 3M5,43.7228457,-79.3728749,0
Sunnyside Medical Pharmacy,29 Roncesvalles Ave,(416) 537-3777,Toronto,M6R 2K4,43.6398871,-79.4464301,0
Supercare Pharmacy,2867 Jane St,(416) 630-7471,Toronto,M3N 2J5,43.7518516,-79.5154286,0
Swansea Village Pharmasave,2388 Bloor St W,(416) 604-1234,Toronto,M6S 1P5,43.6500228,-79.482551,0
Symington Drugs,333 Symington Ave,(416) 533-9695,Toronto,M6P 3X1,43.6664699,-79.4512356,0
Terrace Square Pharmacy,3424 Weston Rd,(647) 350-5004,Toronto,M9M 2W1,43.7505635,-79.5427838,0
The Compounding Chemists Lab,547 St. Clair Ave W,(416) 652-9171,Toronto,M6C 1A3,43.6825161,-79.4206689,0
The Drugstore Pharmacy,1450 Lawrence Ave E,(416) 752-0135,Toronto,M4A 2S8,43.7424568,-79.3108174,0
The Healing Source Pharmacy,2209 Bloor St W,(416) 769-1717,Toronto,M6S 1N5,43.6510068,-79.4757716,0
The Hospital for Sick Children,555 University Ave,(416) 813-7500,Toronto,M5G 1X8,43.6570957,-79.3877344,0
The Medicine Shoppe,515 St. Clair Ave W,(416) 538-7788,Toronto,M6C 1A1,43.6827865,-79.4187842,0
The Medicine Shoppe,2600 Eglinton Ave W,(416) 651-6511,Toronto,M6M 1T5,43.6908715,-79.4729812,0
The Palmerston Pharmacy & HomeCare,499 College St,(416) 929-4499,Toronto,M6G 1A5,43.6558892,-79.4097187,0
The PrEP Clinic,401-344 Bloor St W,(416) 420-1250,Toronto,M5S 3A7,43.6666888,-79.4036854,0
The Village Pharmacy,535 Yonge St,(416) 960-2323,Toronto,M4Y 1Y5,43.6642694,-79.3841492,0
The Village Pharmacy,473 Church St,(416) 967-9221,Toronto,M4Y 2C5,43.6644835,-79.3802139,0
Theodore Pharmacy,1450 O'Connor Drive,(416) 701-1001,Toronto,M4B 2T8,43.7136548,-79.3069515,0
Thorncliffe Pharmacy,106-65 Overlea Blvd,(416) 421-9359,Toronto,M4H 1P1,43.7073407,-79.3427712,0
Thornlea Pharmacy,62 Overlea Blvd,(416) 425-5000,Toronto,M4H 1C4,43.7078994,-79.3433474,0
Tim's Pharmacy,80 Finch Ave West,(416) 221-3220,Toronto,M2N 2H4,43.7784744,-79.4225757,0
Toronto East Pharmasave,C114-825 Coxwell Ave,(416) 778-1221,Toronto,M4C 3E7,43.6898713,-79.3248582,0
Toronto General Hospital,200 Elizabeth St,(416) 340-4800,Toronto,M5G 2C4,43.658666,-79.3883689,0
Toronto General Hospital Outpatient Pharmacy,585 University Ave,(416) 340-4075,Toronto,M5G 2N2,43.6582044,-79.3889987,0
Toronto Manning Drug Mart,260 Spadina Ave,(416) 348-8895,Toronto,M5T 2E4,43.6519314,-79.3982236,0
Toronto Rehab Institute,130 Dunn Ave,(416) 597-3422,Toronto,M6K 2R7,43.6348034,-79.4327094,0
Toronto Rehab Institute,520 Sutherland Dr,(416) 597-3422,Toronto,M4G 3V9,43.7184894,-79.3697116,0
Toronto Rehab Institute,550 University Ave,(416) 597-3422,Toronto,M5G 2A2,43.6567727,-79.3897928,0
Toronto Specialty Pharmacy,2-998 College St,(416) 901-7944,Toronto,M6H 1A7,43.6534906,-79.4286099,0
Toronto Wellness Pharmacy,1800-655 Bay St,(647) 276-0060,Toronto,M5G 2K4,43.6577314,-79.3841707,0
Toronto Western Hospital,399 Bathurst St,(416) 603-5800,Toronto,M5T 2S8,43.6533856,-79.4059423,0
Total Health Pharmacy,1849 Yonge St,(416) 485-6515,Toronto,M4S 1Y2,43.6968386,-79.3961094,0
Total Health Pharmacy,997 Gerrard St E,(647) 351-3784,Toronto,M4M 1Z4,43.6685011,-79.3380405,0
Transplant Outpatient Pharmacy,585 University Ave,(416) 340-4415,Toronto,M5G 2N2,43.6582044,-79.3889987,0
Trinity Drug Store,793 Dundas St W,(416) 603-1771,Toronto,M6J 1V2,43.6517196,-79.4078313,0
U & C Pharmacy,700 University Ave,(416) 850-9989,Toronto,M5G 1Z5,43.6588089,-79.3909892,0
Ultra Pharmacy,403 Parliament St,(416) 323-0055,Toronto,M5A 3A1,43.6621477,-79.3668919,0
Ultra-Bloor Pharmacy,1254 Bloor St W,(416) 792-3021,Toronto,M6H 1N5,43.6590222,-79.440377,0
Universal Pharmacy,819 Lansdowne Ave,(416) 533-6656,Toronto,M6H 3Z2,43.6624676,-79.4443532,0
University Ave Pharmacy,102-70 University Ave,(416) 591-1777,Toronto,M5J 2M4,43.6476565,-79.3848108,0
Upper Beaches Pharmacy,102-952 Kingston Rd,(647) 748-9333,Toronto,M4E 1S7,43.6698288,-79.311237,0
Uptown Pharmacy,243 Eglinton Ave W,(416) 485-5005,Toronto,M4R 1B1,43.7047153,-79.406724,0
Urban Care Pharmacy,26 Dalhousie St,(416) 862-8816,Toronto,M5B 2A5,43.6540931,-79.3756599,0
UT Pharmacy and Print,193 College St,(647) 351-1708,Toronto,M5T 1P9,43.6587086,-79.3948953,0
Victor Pharmacy,123 Edward St,(416) 597-0366,Toronto,M5G 1E2,43.6556377,-79.3868108,0
Vina Pharmacy,1025 Gerrard St E,(416) 469-5386,Toronto,M4M 1Z6,43.668706,-79.3372025,0
Vina Pharmacy,1460 Queen St W,(416) 588-8538,Toronto,M6K 1M2,43.6409043,-79.4364267,0
Vita Pharmacy,2-525 Dundas St W,(416) 977-2770,Toronto,M5T 1H4,43.6563785,-79.3819994,0
Vitality Compounding Pharmacy,918 Kingston Rd,(416) 691-2000,Toronto,M4E 1S5,43.6805607,-79.2891304,0
Wal-Mart Pharmacy,1305 Lawrence Ave W,(416) 249-8487,Toronto,M6L 1A5,43.7085041,-79.4733767,0
Wal-Mart Pharmacy,1000 Gerrard St E,(416) 465-3399,Toronto,M4M 3G6,43.669144,-79.3391627,0
Wal-Mart Pharmacy,900 Dufferin St,(416) 532-3361,Toronto,M6H 4A9,43.6562242,-79.4355773,0
Wal-Mart Pharmacy,2202 Jane St,(416) 614-3235,Toronto,M3M 1A4,43.7217761,-79.5116855,0
Wal-Mart Pharmacy,3757 Keele St,(416) 633-7593,Toronto,M3J 1N4,43.757883,-79.4884921,0
Wal-Mart Pharmacy,2245 Islington Ave,(416) 740-1945,Toronto,M9W 3W7,43.7138049,-79.5531438,0
Wal-Mart Pharmacy,2525 St Clair Ave W,(416) 763-1867,Toronto,M6N 4Z5,43.6680541,-79.4845815,0
Warden Woods Pharmacy,99 Firvalley Court,(416) 699-5559,Toronto,M1L 1P2,43.7032782,-79.2779653,0
Welcome Guardian Drug,137 Roncesvalles Ave,(416) 533-2088,Toronto,M6R 2L2,43.6433558,-79.4474712,0
Welcome Guardian Pharmacy,1881 Yonge St,(416) 480-1420,Toronto,M4S 3C4,43.6976717,-79.3960999,0
Well + Good Pharmacy,557 Church St,(416) 532-5007,Toronto,M4Y 2E2,43.6672314,-79.3812547,0
Well.ca Pharmacy,1168A Dundas Street W,(416) 534-2321,Toronto,M6J 1X4,43.6494972,-79.4218954,0
Well.ca Pharmacy,449 Queen St W,(416) 593-9711,Toronto,M5V 2A9,43.6485216,-79.3969152,0
Wellcare College Pharmacy,815 College St,(416) 536-6558,Toronto,M6G 1C9,43.6542911,-79.4219723,0
Wellcare Pharmacy,3352 Keele St,(416) 630-4513,Toronto,M3J 1L5,43.7457419,-79.4874596,0
Wellcare Union Medical Pharmacy,110-1263 Wilson Ave,(416) 243-9361,Toronto,M3M 3G3,43.722541,-79.492217,0
Wellmedica Global Drug Mart,901 Bay St,(416) 597-0464,Toronto,M5S 3K6,43.663274,-79.3864213,0
WellOne Pharmacy,103-18 Yonge St,(647) 748-5663,Toronto,M5E 1Z8,43.650259,-79.3780885,0
Westmore Pharmacy,6620 Finch Ave W,(416) 740-0003,Toronto,M9V 5H7,43.7349125,-79.6023045,0
Weston Drug Mart,2159 Weston Rd,(416) 244-4455,Toronto,M9N 1X8,43.7032014,-79.5249295,0
White Cross Drugs,300-500 Yonge St,(416) 920-1666,Toronto,M4Y 1X9,43.656479,-79.381023,0
White's Pharmacy,725 Jane St,(416) 762-8221,Toronto,M6N 4B3,43.6706023,-79.4931098,0
Whiteside Pharmacy,1732 St Clair Ave W,(416) 656-3606,Toronto,M6N 1J1,43.6743766,-79.4599036,0
Whole Health Pharmacy North York,7-1575 Jane Street,(416) 245-2273,Toronto,M9N 2R3,43.6990578,-79.5024347,0
Wholesome Pharmacy,811a Queen St E,(416) 461-3889,Toronto,M4M 1H8,43.6596141,-79.3449322,0
Willowdale Pharmacy,6023 Yonge St,(416) 916-4255,Toronto,M2M 3W2,43.7896324,-79.4175292,0
Women's College Hospital,76 Grenville St,(416) 323-6058,Toronto,M5S 1B2,43.6615138,-79.3871213,0
Woodgreen Discount Pharmacy,1000 Queen St E,(416) 466-6444,Toronto,M4M 1K1,43.6614189,-79.339474,0
Woodgreen Pharmacy,101-69 Queen St E,(416) 367-8686,Toronto,M5C 1R8,43.653197,-79.3747674,0
Woods Drug Store,130 Kingston Rd,(416) 691-3771,Toronto,M4L 1S7,43.6705099,-79.311351,0
Woodvalley Pharmacy Inc.,130 Industry St,(647) 284-9243,Toronto,M6M 5G3,43.6950496,-79.4944673,0
Yonge Drug Mart,104-2399 Yonge St,(416) 481-2444,Toronto,M4P 2E7,43.7100754,-79.3987047,0
Zara's Pharmacy,1908 Gerrard St E,(416) 901-5585,Toronto,M4L 2C1,43.6804818,-79.3122041,0
